{
"type": "FeatureCollection",
"name": "DISTRICT_12",
"crs": { "type": "name", "properties": { "name": "urn:ogc:def:crs:OGC:1.3:CRS84" } },
"xy_coordinate_resolution": 1e-15,
"features": [
{ "type": "Feature", "properties": { "LONGNAME": "District 12", "SHORTNAME": "D12", "DISTRICT": 12, "COLOR": -213947174, "TOTAL": 769221, "TARGET_DEV": 0 }, "geometry": { "type": "MultiPolygon", "coordinates": [ [ [ [ -82.444263397936666, 27.955823174327591 ], [ -82.445478398287776, 27.955834174299188 ], [ -82.445582398317853, 27.955835174296773 ], [ -82.446506398583963, 27.955815174268363 ], [ -82.4466833986327, 27.955742174246229 ], [ -82.446755398648037, 27.955574174203836 ], [ -82.446802398661575, 27.955573174202407 ], [ -82.446900398689436, 27.95556117419698 ], [ -82.447021398723905, 27.955545174190007 ], [ -82.447136398756371, 27.955523174181753 ], [ -82.447278398796371, 27.955493174170908 ], [ -82.447394398828806, 27.955460174159953 ], [ -82.447491398855988, 27.955433174150965 ], [ -82.447636398896108, 27.955381174134718 ], [ -82.447751398927679, 27.955331174119724 ], [ -82.447845398953262, 27.955283174105769 ], [ -82.447953398982548, 27.955224174088716 ], [ -82.448057399010537, 27.955161174070835 ], [ -82.448149399035032, 27.955097174053012 ], [ -82.448246399060821, 27.955029174034131 ], [ -82.448340399085367, 27.954949174012427 ], [ -82.44842639910776, 27.95487317399186 ], [ -82.448508399128741, 27.954790173969752 ], [ -82.448588399148946, 27.954702173946451 ], [ -82.448665399168263, 27.954611173922519 ], [ -82.448727399183483, 27.954527173900622 ], [ -82.448793399199189, 27.954426173874587 ], [ -82.448842399210761, 27.95434517385376 ], [ -82.448893399222385, 27.954250173829518 ], [ -82.448937399231539, 27.954140173801818 ], [ -82.448976399239243, 27.954029173774014 ], [ -82.449006399244666, 27.95393017374936 ], [ -82.449030399248585, 27.953837173726246 ], [ -82.449046399250491, 27.953753173705582 ], [ -82.449061399251349, 27.953647173679592 ], [ -82.449076399252533, 27.953549173655542 ], [ -82.449078399252187, 27.953521173648689 ], [ -82.449117399262505, 27.953491173640479 ], [ -82.449318399315118, 27.953324173595036 ], [ -82.449575399382397, 27.953111173537007 ], [ -82.449861399455671, 27.952823173460146 ], [ -82.450287399563123, 27.952343173333354 ], [ -82.450547399626558, 27.951985173240264 ], [ -82.450591399637091, 27.951918173222964 ], [ -82.450701399663529, 27.951754173180571 ], [ -82.450874399705157, 27.951496173113803 ], [ -82.451102399754163, 27.950976172982415 ], [ -82.451260399788083, 27.95061617289144 ], [ -82.451317399794007, 27.950289172811026 ], [ -82.451375399799872, 27.949954172728635 ], [ -82.452025399980499, 27.949737172659614 ], [ -82.452248400042464, 27.949662172635829 ], [ -82.452882400218357, 27.949442172566513 ], [ -82.453739400456101, 27.949144172472693 ], [ -82.454573400687437, 27.948853172381124 ], [ -82.455412400920167, 27.94856117228921 ], [ -82.456251401152983, 27.948269172197271 ], [ -82.457096401387545, 27.947981172106147 ], [ -82.457944401622782, 27.947686172013281 ], [ -82.458775401853799, 27.947411171925669 ], [ -82.45966040209953, 27.947111171830656 ], [ -82.460505402333212, 27.946794171732535 ], [ -82.4605654023498, 27.946772171725705 ], [ -82.460759402403454, 27.946699171703077 ], [ -82.461459402597015, 27.94643717162198 ], [ -82.461519402613646, 27.946415171615136 ], [ -82.46220840280418, 27.946157171535216 ], [ -82.462766402958991, 27.945964171474401 ], [ -82.463847403258313, 27.945571171351887 ], [ -82.464359403400067, 27.945384171293679 ], [ -82.464684403490054, 27.945266171256904 ], [ -82.464978403571436, 27.945159171223544 ], [ -82.465181403627668, 27.945086171200749 ], [ -82.46611540388551, 27.944722171089033 ], [ -82.466668404041528, 27.944611171048098 ], [ -82.467602404311691, 27.944628171028359 ], [ -82.468531404579991, 27.944633171005897 ], [ -82.469458404847842, 27.944642170984419 ], [ -82.470165405052072, 27.944646170967324 ], [ -82.470583405172675, 27.944646170956688 ], [ -82.470989405289941, 27.944648170946799 ], [ -82.471344405392472, 27.944650170938232 ], [ -82.47169540549389, 27.944652170929743 ], [ -82.472676405777307, 27.944662170907172 ], [ -82.473737406083814, 27.944670170882016 ], [ -82.474718406367401, 27.944683170860134 ], [ -82.475762406669034, 27.944693170835887 ], [ -82.476779406962791, 27.944701170811911 ], [ -82.477814407261732, 27.944707170786963 ], [ -82.478849407560787, 27.944717170762942 ], [ -82.479885407860081, 27.944726170738729 ], [ -82.480921408159375, 27.944735170714427 ], [ -82.481960408459528, 27.944742170689622 ], [ -82.482991408757499, 27.944756170666714 ], [ -82.484027409056665, 27.944761170641481 ], [ -82.485061409355481, 27.944773170618017 ], [ -82.485065409392121, 27.945869170882531 ], [ -82.485062409427456, 27.946989171153071 ], [ -82.485061409450793, 27.947719171329386 ], [ -82.485065409475723, 27.948453171506507 ], [ -82.485067409499877, 27.94918117168227 ], [ -82.485082409551424, 27.950641172034377 ], [ -82.485063409569435, 27.951367172210194 ], [ -82.485065409594, 27.952106172388593 ], [ -82.485056409614913, 27.952834172564582 ], [ -82.485039409633501, 27.953559172740054 ], [ -82.485033409655259, 27.954285172915487 ], [ -82.485020409674945, 27.955008173090363 ], [ -82.485008409684724, 27.955418173189717 ], [ -82.485004409688912, 27.955582173229399 ], [ -82.485000409692674, 27.955734173266219 ], [ -82.484997409700668, 27.95600917333266 ], [ -82.484995409706343, 27.956202173379285 ], [ -82.48499240971374, 27.956456173440735 ], [ -82.484991409737049, 27.957185173616715 ], [ -82.484981409758234, 27.957928173796365 ], [ -82.484971409778737, 27.958650173970916 ], [ -82.484961409799368, 27.959376174146442 ], [ -82.484955409821254, 27.960104174322392 ], [ -82.484946409842152, 27.9608311744981 ], [ -82.484937409863889, 27.961581174679367 ], [ -82.484926409884281, 27.962309174855445 ], [ -82.484922409907114, 27.963049175034218 ], [ -82.484911409928017, 27.963792175213843 ], [ -82.484902409949086, 27.964523175390518 ], [ -82.484894409970721, 27.965261175568877 ], [ -82.484881409990493, 27.965988175744684 ], [ -82.484881410013685, 27.966703175917313 ], [ -82.486156410382506, 27.966729175890993 ], [ -82.486949410611544, 27.966734175871927 ], [ -82.486933410630257, 27.967454176046132 ], [ -82.489006411228829, 27.96746217599512 ], [ -82.491083411827958, 27.967452175939599 ], [ -82.491075411849295, 27.968183176116288 ], [ -82.493148412447852, 27.968190176064958 ], [ -82.493142412469979, 27.968927176243032 ], [ -82.495207413066225, 27.968935176192161 ], [ -82.495195413086435, 27.969666176368875 ], [ -82.497270413685598, 27.969675176318059 ], [ -82.49933641428207, 27.969684176267396 ], [ -82.50097841475619, 27.969692176227365 ], [ -82.500976414767848, 27.970069176318383 ], [ -82.501129414812098, 27.970071176314942 ], [ -82.50112541482234, 27.970423176400036 ], [ -82.501493414928646, 27.970426176391346 ], [ -82.501476414947405, 27.971156176567977 ], [ -82.501036414820391, 27.971154176578757 ], [ -82.501028414830216, 27.971528176669203 ], [ -82.50111841485618, 27.971528176666876 ], [ -82.501112414865801, 27.971879176751774 ], [ -82.501459414965964, 27.971879176742906 ], [ -82.501441414984939, 27.972624176923148 ], [ -82.501445415009343, 27.973341177096117 ], [ -82.501448415033153, 27.974048177266628 ], [ -82.50145341506601, 27.975017177500362 ], [ -82.501452415104268, 27.976205177787087 ], [ -82.501446415142723, 27.977443178086006 ], [ -82.501426415181967, 27.978831178421483 ], [ -82.501377415249735, 27.981353179031334 ], [ -82.501305415331814, 27.984521179797561 ], [ -82.501230415416856, 27.987807180592373 ], [ -82.501208415442022, 27.988776180826704 ], [ -82.501185415462103, 27.989600181026141 ], [ -82.501162415481787, 27.99041018122216 ], [ -82.501139415501243, 27.991213181416448 ], [ -82.501117415520255, 27.99199418160546 ], [ -82.501075415562283, 27.993658182008005 ], [ -82.501016415621407, 27.996002182575005 ], [ -82.502765416123992, 27.995935182514039 ], [ -82.503182416244016, 27.995926182501218 ], [ -82.503940416463138, 27.995937182484433 ], [ -82.505272416848172, 27.995957182455147 ], [ -82.50527141697215, 27.999779183377175 ], [ -82.505270416976686, 27.999927183412936 ], [ -82.505556417058756, 27.999913183402207 ], [ -82.506345417285331, 27.999878183373522 ], [ -82.506445417314765, 27.999896183375309 ], [ -82.507031417484257, 27.999908183363221 ], [ -82.507200417533767, 27.99993018336421 ], [ -82.507507417622364, 27.99993118335658 ], [ -82.509119418087948, 27.999942183317913 ], [ -82.510037418353065, 27.99994818329581 ], [ -82.510954418617843, 27.999954183273811 ], [ -82.511866418881183, 27.999958183251398 ], [ -82.512772419142749, 27.999962183229137 ], [ -82.513556419369024, 27.999963183209296 ], [ -82.514589419667331, 27.999969183184255 ], [ -82.515501419930601, 27.999973183161906 ], [ -82.516399420190297, 27.999990183142955 ], [ -82.517220420426739, 27.999975183118341 ], [ -82.517304420451879, 28.000004183123163 ], [ -82.517352420466338, 28.000021183126066 ], [ -82.517401420483438, 28.00011318314699 ], [ -82.517425420495371, 28.000266183183268 ], [ -82.517428420518726, 28.000958183350068 ], [ -82.5174314205413, 28.001625183510907 ], [ -82.517434420564641, 28.002317183677736 ], [ -82.517397420576245, 28.00300118384364 ], [ -82.517394420594783, 28.003599183987973 ], [ -82.517397420620838, 28.004372184174319 ], [ -82.517392420647155, 28.005226184380447 ], [ -82.51740342066924, 28.00580618452004 ], [ -82.517395420688771, 28.006478184682347 ], [ -82.517388420709949, 28.007190184854192 ], [ -82.517369420730518, 28.007991185047885 ], [ -82.517347420750923, 28.008813185246677 ], [ -82.517342420767804, 28.009376185382564 ], [ -82.517357420794355, 28.01005818554669 ], [ -82.517349420816771, 28.010819185730394 ], [ -82.518170421053597, 28.010815185708381 ], [ -82.519343421391881, 28.010809185676859 ], [ -82.523018422452495, 28.01081418558384 ], [ -82.52374342266198, 28.010823185567386 ], [ -82.524266422812872, 28.010821185553475 ], [ -82.525763423245536, 28.010844185520639 ], [ -82.52585542327212, 28.010845185518519 ], [ -82.532112425077969, 28.010858185361222 ], [ -82.533774425558263, 28.010880185323892 ], [ -82.534772425847137, 28.01090918530528 ], [ -82.537870426741762, 28.010931185231133 ], [ -82.538706426983268, 28.01094118521214 ], [ -82.541953427921229, 28.01097618513727 ], [ -82.541941427957369, 28.01219118543051 ], [ -82.541901428033484, 28.014882186080392 ], [ -82.541895428036341, 28.015023186114522 ], [ -82.541889428039283, 28.015168186149612 ], [ -82.541883428042013, 28.015304186182618 ], [ -82.541835428066094, 28.016468186464436 ], [ -82.541821428150982, 28.019198187122957 ], [ -82.541807428172334, 28.019976187310913 ], [ -82.541810428197223, 28.020713187488514 ], [ -82.541779428225524, 28.021855187764587 ], [ -82.541784428259149, 28.022843188002646 ], [ -82.541761428340195, 28.025532188651489 ], [ -82.544132429024415, 28.025537188591802 ], [ -82.544310429075708, 28.025535188586744 ], [ -82.544564429148849, 28.025531188579286 ], [ -82.544710429190928, 28.025529188575067 ], [ -82.54537242938224, 28.025539188560451 ], [ -82.546968429843474, 28.025562188524994 ], [ -82.549828430670033, 28.025606188462181 ], [ -82.550143430760997, 28.025608188454555 ], [ -82.551565431171653, 28.025621188421198 ], [ -82.551816431244347, 28.025629188416662 ], [ -82.552890431555383, 28.025665188397799 ], [ -82.553520431737823, 28.025686188386672 ], [ -82.554665432069399, 28.025724188366379 ], [ -82.555144432207598, 28.025725188354322 ], [ -82.555958432442537, 28.025728188334195 ], [ -82.558257433106093, 28.025738188277543 ], [ -82.559368433425931, 28.025716188243706 ], [ -82.562332434286247, 28.025878188206612 ], [ -82.565338435154231, 28.025902188135209 ], [ -82.566406435463279, 28.025932188115036 ], [ -82.567411435753371, 28.025937188090424 ], [ -82.569895436468272, 28.025886188014333 ], [ -82.570325436592427, 28.025890188004261 ], [ -82.571322436881175, 28.025924187986814 ], [ -82.573255437439428, 28.025944187941956 ], [ -82.574034437663883, 28.025937187920302 ], [ -82.574718437860867, 28.025926187900055 ], [ -82.575768438163195, 28.025910187869268 ], [ -82.576326438324315, 28.025915187856121 ], [ -82.576848438475153, 28.025923187844626 ], [ -82.578100438836927, 28.025942187817044 ], [ -82.579694439297555, 28.025967187782129 ], [ -82.58082743962423, 28.025964187752297 ], [ -82.581917439938564, 28.025962187723817 ], [ -82.583041440262676, 28.025959187694227 ], [ -82.584789440767992, 28.025993187657491 ], [ -82.585238440900312, 28.026079187666699 ], [ -82.585674441031244, 28.026238187693789 ], [ -82.586219441197585, 28.026519187747532 ], [ -82.586852441394711, 28.026965187838695 ], [ -82.587216441508119, 28.027222187891311 ], [ -82.587353441550789, 28.027318187910904 ], [ -82.587798441686573, 28.02754618795441 ], [ -82.58785744170423, 28.027566187957721 ], [ -82.588107441774383, 28.027507187937132 ], [ -82.588190441796471, 28.02744918792099 ], [ -82.588407441857854, 28.027411187906232 ], [ -82.588495441881932, 28.027373187894849 ], [ -82.588650441926021, 28.027354187886274 ], [ -82.588820441972885, 28.027287187865781 ], [ -82.588887441991105, 28.027253187855827 ], [ -82.589037442033643, 28.027230187846449 ], [ -82.589283442103067, 28.027185187829261 ], [ -82.590067442321796, 28.026958187754445 ], [ -82.590133442340758, 28.02695518775203 ], [ -82.590319442393138, 28.026917187738064 ], [ -82.590537442454035, 28.026856187717787 ], [ -82.590748442512265, 28.026774187692613 ], [ -82.590909442557646, 28.026742187680796 ], [ -82.591118442615397, 28.026665187656828 ], [ -82.591432442704473, 28.026620187637924 ], [ -82.591518442729637, 28.026630187638141 ], [ -82.591569442745794, 28.026675187647669 ], [ -82.591608442756609, 28.026661187643278 ], [ -82.591659442771089, 28.026654187640311 ], [ -82.59172544279032, 28.026660187640029 ], [ -82.591764442800695, 28.02663318763253 ], [ -82.591803442812008, 28.026636187632263 ], [ -82.59182644281772, 28.026608187624923 ], [ -82.591854442825152, 28.026587187619153 ], [ -82.591877442830764, 28.026556187611057 ], [ -82.591892442833128, 28.026497187596483 ], [ -82.591931442844157, 28.026490187593758 ], [ -82.591976442855227, 28.026431187578414 ], [ -82.592123442896138, 28.026385187563548 ], [ -82.592359442962689, 28.026339187546419 ], [ -82.592564443019981, 28.026283187527625 ], [ -82.592926443121925, 28.02620818750027 ], [ -82.593091443168234, 28.026167187486138 ], [ -82.593284443221947, 28.026108187466935 ], [ -82.593477443276157, 28.026063187451136 ], [ -82.593490443279777, 28.026060187450078 ], [ -82.59362644331766, 28.026019187436713 ], [ -82.593758443354176, 28.025971187421764 ], [ -82.593942443405666, 28.025923187405468 ], [ -82.594232443487257, 28.02586018738284 ], [ -82.594753443632115, 28.025694187329464 ], [ -82.594990443697256, 28.02559518729953 ], [ -82.595148443740115, 28.025512187275464 ], [ -82.595249443767941, 28.025473187263451 ], [ -82.59533144379003, 28.025424187249545 ], [ -82.595390443805726, 28.025383187238159 ], [ -82.595522443841219, 28.025304187215749 ], [ -82.595705443890139, 28.025186187182573 ], [ -82.59579844391439, 28.025107187161169 ], [ -82.595915443945955, 28.025041187142257 ], [ -82.596253444035554, 28.024800187075478 ], [ -82.596431444083493, 28.024695187045651 ], [ -82.596631444136591, 28.024554187006494 ], [ -82.596656444142866, 28.024526186999143 ], [ -82.596619444132557, 28.024538187002996 ], [ -82.596590444124104, 28.024534187002711 ], [ -82.596627444133716, 28.024501186993852 ], [ -82.596807444183085, 28.024423186970441 ], [ -82.596914444210199, 28.024310186940468 ], [ -82.597025444240529, 28.024258186925046 ], [ -82.597222444292598, 28.02411218688485 ], [ -82.59736944433169, 28.024010186856447 ], [ -82.597509444369621, 28.023935186834802 ], [ -82.597548444379839, 28.023903186826061 ], [ -82.597529444373649, 28.023881186821242 ], [ -82.597563444382786, 28.023862186815851 ], [ -82.597650444406995, 28.023835186807055 ], [ -82.597704444420629, 28.023776186791466 ], [ -82.59777044443841, 28.023738186780626 ], [ -82.597954444487513, 28.02361418674603 ], [ -82.598011444502831, 28.023581186736585 ], [ -82.598051444514113, 28.023573186733653 ], [ -82.598069444518003, 28.023533186723547 ], [ -82.598120444531133, 28.023484186710451 ], [ -82.598258444567634, 28.023384186682755 ], [ -82.59856744465074, 28.023199186630258 ], [ -82.598692444683564, 28.023101186603459 ], [ -82.598846444724558, 28.02299618657419 ], [ -82.599043444776797, 28.022855186535146 ], [ -82.599169444810443, 28.022772186511904 ], [ -82.599286444840843, 28.022670186484355 ], [ -82.599354444859557, 28.022642186475821 ], [ -82.599411444874178, 28.022587186461113 ], [ -82.59944244488095, 28.022520186444158 ], [ -82.599544444909043, 28.022480186431899 ], [ -82.59970244495166, 28.022390186406174 ], [ -82.599733444958858, 28.02233518639213 ], [ -82.599782444972575, 28.022322186387701 ], [ -82.599857444993134, 28.022291186378343 ], [ -82.599874444997027, 28.022259186370164 ], [ -82.599949445017216, 28.022216186357905 ], [ -82.5999764450237, 28.022176186347572 ], [ -82.600020445035256, 28.022141186337993 ], [ -82.600064445047693, 28.022133186334958 ], [ -82.600232445092146, 28.022010186300975 ], [ -82.600311445112865, 28.021947186283793 ], [ -82.60035544512516, 28.021935186279777 ], [ -82.600439445146847, 28.021856186258585 ], [ -82.600487445159757, 28.021828186250573 ], [ -82.600553445176857, 28.021769186234692 ], [ -82.600602445190177, 28.021745186227651 ], [ -82.600695445214825, 28.02167818620909 ], [ -82.60074744522845, 28.021635186197408 ], [ -82.600786445238825, 28.021609186190144 ], [ -82.600849445255221, 28.021555186175476 ], [ -82.600921445274423, 28.021507186162083 ], [ -82.600984445291033, 28.021459186148888 ], [ -82.601088445318936, 28.021394186130568 ], [ -82.601237445358436, 28.021289186101413 ], [ -82.601284445371277, 28.021267186094914 ], [ -82.601359445390074, 28.021179186071766 ], [ -82.601426445408194, 28.021142186061152 ], [ -82.601476445422051, 28.021125186055766 ], [ -82.601650445468096, 28.020998186020684 ], [ -82.601691445479119, 28.020973186013602 ], [ -82.60170644548252, 28.020945186006468 ], [ -82.601776445501628, 28.020913185997017 ], [ -82.601949445547859, 28.020800185965335 ], [ -82.601969445552925, 28.020779185959743 ], [ -82.602049445574139, 28.020722185943946 ], [ -82.602153445601388, 28.020637185920762 ], [ -82.602220445619196, 28.020591185907961 ], [ -82.602292445638739, 28.020554185897229 ], [ -82.602348445653647, 28.020515185886399 ], [ -82.602371445659571, 28.020493185880497 ], [ -82.60241244567095, 28.020479185876042 ], [ -82.602470445685611, 28.020417185859653 ], [ -82.602501445693846, 28.020394185853313 ], [ -82.602537445703888, 28.020385185850198 ], [ -82.602547445705838, 28.020355185842728 ], [ -82.602575445713683, 28.020348185840319 ], [ -82.602629445727828, 28.020305185828562 ], [ -82.602683445742613, 28.020280185821186 ], [ -82.602771445765711, 28.020210185802004 ], [ -82.602809445775137, 28.020164185789952 ], [ -82.602887445796441, 28.020127185779053 ], [ -82.602952445813713, 28.020082185766537 ], [ -82.602993445823913, 28.020033185753697 ], [ -82.603037445836065, 28.020017185748696 ], [ -82.603119445858056, 28.019965185734051 ], [ -82.603218445884977, 28.019916185719673 ], [ -82.603296445905514, 28.019855185703019 ], [ -82.603402445933824, 28.019785185683432 ], [ -82.603473445952304, 28.019724185666892 ], [ -82.603517445963107, 28.019666185651754 ], [ -82.603603445986252, 28.019617185637767 ], [ -82.603675446005241, 28.019561185622432 ], [ -82.603790446035177, 28.019462185595593 ], [ -82.603841446047795, 28.019398185578851 ], [ -82.603939446073028, 28.019306185554161 ], [ -82.603986446084662, 28.019246185538545 ], [ -82.604081446108864, 28.019148185512446 ], [ -82.604120446118557, 28.019102185500369 ], [ -82.60419144613553, 28.018992185472019 ], [ -82.60424644614973, 28.018943185458813 ], [ -82.60428244615855, 28.018894185446086 ], [ -82.60435344617683, 28.018827185428112 ], [ -82.60439644618738, 28.018770185413256 ], [ -82.604479446209311, 28.018710185396696 ], [ -82.604538446224154, 28.018643185379041 ], [ -82.604603446241072, 28.01858618536361 ], [ -82.604662446254665, 28.018480185336578 ], [ -82.604694446263025, 28.01845518532971 ], [ -82.604717446268381, 28.018415185319501 ], [ -82.60478044628438, 28.018349185301989 ], [ -82.604798446288257, 28.018308185291637 ], [ -82.604853446302499, 28.018259185278428 ], [ -82.60489944631415, 28.018210185265435 ], [ -82.604898446312703, 28.018174185256782 ], [ -82.604971446331319, 28.018100185237088 ], [ -82.605017446343496, 28.018067185227913 ], [ -82.605026446344709, 28.018023185217078 ], [ -82.605085446360363, 28.017982185205668 ], [ -82.605122446369705, 28.017941185194882 ], [ -82.605149446375378, 28.017876185178533 ], [ -82.605248446401191, 28.017792185155734 ], [ -82.605259446403522, 28.017766185149181 ], [ -82.605299446413909, 28.017731185139716 ], [ -82.605309446415404, 28.017689185129321 ], [ -82.605327446419039, 28.017641185117302 ], [ -82.605363446428214, 28.017603185107266 ], [ -82.605402446438561, 28.017577185099935 ], [ -82.605481446458555, 28.01749118507723 ], [ -82.605517446468014, 28.017462185069292 ], [ -82.605549446475436, 28.01740718505522 ], [ -82.605585446485023, 28.017382185048287 ], [ -82.605602446488518, 28.017340185037718 ], [ -82.605624446494346, 28.017324185033278 ], [ -82.605685446511089, 28.017298185025449 ], [ -82.605713446517782, 28.01725618501461 ], [ -82.605724446520171, 28.017231185008317 ], [ -82.605763446529835, 28.017183184995762 ], [ -82.605810446542591, 28.017157184988278 ], [ -82.605892446559508, 28.016952184936795 ], [ -82.605978446582228, 28.01688818491915 ], [ -82.606013446591007, 28.016847184908354 ], [ -82.606033446595418, 28.016807184898209 ], [ -82.606100446613496, 28.016769184887334 ], [ -82.606133446621357, 28.016717184873936 ], [ -82.606200446638809, 28.016659184858259 ], [ -82.606242446648864, 28.016596184842019 ], [ -82.606307446666278, 28.016555184830434 ], [ -82.606426446695252, 28.016391184787878 ], [ -82.606497446713206, 28.016315184767716 ], [ -82.60651644671664, 28.016252184752087 ], [ -82.606530446720129, 28.016234184747361 ], [ -82.606556446733336, 28.016410184789109 ], [ -82.606626446759961, 28.016607184834761 ], [ -82.606661446769138, 28.016580184827376 ], [ -82.606682446774869, 28.016570184824438 ], [ -82.606679446772944, 28.016537184816546 ], [ -82.606696446777164, 28.016516184811042 ], [ -82.60675644679371, 28.01649218480372 ], [ -82.606772446797635, 28.016472184798491 ], [ -82.606774446797317, 28.016445184791944 ], [ -82.60678944680059, 28.016412184783647 ], [ -82.606820446808698, 28.016387184776793 ], [ -82.606851446817601, 28.01638518477554 ], [ -82.606871446823121, 28.016377184773052 ], [ -82.606924446836985, 28.016334184761316 ], [ -82.606917446834146, 28.01630818475526 ], [ -82.60696944684787, 28.016270184744755 ], [ -82.6069914468533, 28.016242184737443 ], [ -82.607012446858775, 28.016224184732561 ], [ -82.607026446861497, 28.016183184722362 ], [ -82.607065446872852, 28.016187184722316 ], [ -82.607086446877858, 28.016155184714034 ], [ -82.607101446881003, 28.016118184704752 ], [ -82.607096446878799, 28.016095184699346 ], [ -82.607121446885827, 28.016089184697233 ], [ -82.607157446895386, 28.016065184690522 ], [ -82.607179446900787, 28.016036184682992 ], [ -82.607187446902259, 28.016009184676282 ], [ -82.607185446901056, 28.01599018467174 ], [ -82.607205446906534, 28.015983184669551 ], [ -82.607235446914515, 28.015961184663485 ], [ -82.60726044692052, 28.015924184653922 ], [ -82.607266446921088, 28.015889184645349 ], [ -82.607280446924591, 28.01587218464088 ], [ -82.60728044692388, 28.015850184635593 ], [ -82.60729544692748, 28.015829184630139 ], [ -82.607331446936783, 28.015795184620984 ], [ -82.607343446939382, 28.015768184614185 ], [ -82.60736044694363, 28.015749184609163 ], [ -82.607344446937745, 28.015709184599984 ], [ -82.607384446948714, 28.015693184595072 ], [ -82.607411446955282, 28.015655184585203 ], [ -82.607469446969901, 28.015590184568037 ], [ -82.607477446970236, 28.015529184553191 ], [ -82.607504446977032, 28.015499184545238 ], [ -82.607535446985892, 28.015497184543943 ], [ -82.607553446989172, 28.015438184529245 ], [ -82.607566446992053, 28.015410184522189 ], [ -82.607582446994812, 28.015355184508536 ], [ -82.607598446998736, 28.015333184502815 ], [ -82.607589446995277, 28.015307184496809 ], [ -82.607601446998018, 28.015285184491198 ], [ -82.60762544700431, 28.015266184485984 ], [ -82.607638447007247, 28.015240184479381 ], [ -82.607641447007467, 28.015221184474711 ], [ -82.607678447015005, 28.015126184450903 ], [ -82.607683447015361, 28.015091184442316 ], [ -82.607686447012995, 28.0149921844184 ], [ -82.607679447010383, 28.014973184414014 ], [ -82.607689447012163, 28.014940184405727 ], [ -82.607679447007357, 28.014881184391832 ], [ -82.607694447011113, 28.014864184387335 ], [ -82.607690447008068, 28.01480618437343 ], [ -82.607695447007359, 28.014740184357407 ], [ -82.607686447003601, 28.014704184348997 ], [ -82.60770044700638, 28.014667184339689 ], [ -82.607696447002397, 28.014579184318578 ], [ -82.607688446998822, 28.014540184309428 ], [ -82.607685446996513, 28.014496184298899 ], [ -82.607701446997581, 28.014386184271977 ], [ -82.60765944698386, 28.014337184261251 ], [ -82.607670446986148, 28.014311184254669 ], [ -82.607675446986448, 28.014276184246111 ], [ -82.607692446990299, 28.014244184237956 ], [ -82.607680446984659, 28.014176184221849 ], [ -82.607680446982542, 28.014110184205951 ], [ -82.607674446979956, 28.014086184200323 ], [ -82.607678446975711, 28.013921184160488 ], [ -82.607635446961908, 28.013876184150742 ], [ -82.607662446968646, 28.013844184142357 ], [ -82.607668446969441, 28.013815184135183 ], [ -82.60764444696197, 28.01379918413199 ], [ -82.607644446960762, 28.013762184123063 ], [ -82.607665446965683, 28.013727184114046 ], [ -82.607626446953148, 28.013688184105686 ], [ -82.60761344694798, 28.013643184095191 ], [ -82.607631446948929, 28.013515184063859 ], [ -82.607606446938647, 28.013420184041614 ], [ -82.60763344694432, 28.013356184025483 ], [ -82.607626446939292, 28.013263184003296 ], [ -82.607616446917305, 28.012676183862073 ], [ -82.607588446905638, 28.012568183836748 ], [ -82.607572446900321, 28.012544183831388 ], [ -82.60756244689658, 28.012519183825603 ], [ -82.607557446894276, 28.012492183819262 ], [ -82.607554446889822, 28.012382183792809 ], [ -82.607573446884558, 28.012052183712768 ], [ -82.607547446862768, 28.011613183607665 ], [ -82.60754944685884, 28.011475183574309 ], [ -82.607592446865084, 28.011286183527684 ], [ -82.607601446864976, 28.011204183507665 ], [ -82.607614446867942, 28.011179183501319 ], [ -82.60763344687264, 28.011157183495545 ], [ -82.607640446873887, 28.011131183489095 ], [ -82.607640446872949, 28.01110318348238 ], [ -82.607652446875562, 28.011078183476037 ], [ -82.607684446883312, 28.011031183463903 ], [ -82.607757446899384, 28.010879183425367 ], [ -82.607835446917974, 28.010760183394705 ], [ -82.608115446987895, 28.010427183307247 ], [ -82.61047744771804, 28.011929183608618 ], [ -82.611501448034346, 28.012575183737951 ], [ -82.613307448592394, 28.013716183966565 ], [ -82.616456449565433, 28.015709184365971 ], [ -82.618677450251397, 28.017104184645014 ], [ -82.621796451215545, 28.019088185042985 ], [ -82.622944451571072, 28.019839185194424 ], [ -82.626275452600112, 28.021941185615255 ], [ -82.629927453729437, 28.024277186084195 ], [ -82.63163445425694, 28.025358186300725 ], [ -82.631930454348435, 28.025546186338389 ], [ -82.632587454551583, 28.025967186422928 ], [ -82.633908454960093, 28.026812186592561 ], [ -82.634217455055605, 28.027010186632261 ], [ -82.634452455128283, 28.027160186662368 ], [ -82.636253455685221, 28.028313186893804 ], [ -82.637261455995215, 28.028907187010994 ], [ -82.638514456380676, 28.029647187157032 ], [ -82.639230456601695, 28.030093187245996 ], [ -82.641190457201574, 28.0311571874519 ], [ -82.642344457548859, 28.03160318752963 ], [ -82.647598459121454, 28.03337018782009 ], [ -82.64823445931178, 28.033584187855237 ], [ -82.648558459408179, 28.033676187869112 ], [ -82.648558459542329, 28.037781188857689 ], [ -82.648559459559777, 28.038306188984087 ], [ -82.648559459566314, 28.03850618903224 ], [ -82.648560459570803, 28.038635189063299 ], [ -82.648560459571499, 28.038656189068355 ], [ -82.648570459609601, 28.039732189327221 ], [ -82.648548459637624, 28.040784189581093 ], [ -82.648529459661944, 28.041695189800972 ], [ -82.648531459676349, 28.042118189902741 ], [ -82.648540459751246, 28.044330190435197 ], [ -82.648542459769033, 28.044855190561545 ], [ -82.648544459782883, 28.045261190659254 ], [ -82.648546459806838, 28.045976190831375 ], [ -82.648546459813119, 28.046168190877591 ], [ -82.648546459815734, 28.046248190896865 ], [ -82.648547459836664, 28.046879191048756 ], [ -82.648547459837104, 28.046892191051924 ], [ -82.648363460025124, 28.054259192830383 ], [ -82.648366460045523, 28.054856192974011 ], [ -82.648369460060096, 28.055275193074838 ], [ -82.648371460073164, 28.055657193166741 ], [ -82.648375460092311, 28.056206193298792 ], [ -82.648375460093249, 28.056235193305803 ], [ -82.648375460096418, 28.056332193329162 ], [ -82.648376460101176, 28.056469193362108 ], [ -82.648377460104541, 28.05656319338469 ], [ -82.648428460151337, 28.05754319361932 ], [ -82.648435460157003, 28.057653193645596 ], [ -82.648435460157344, 28.057664193648272 ], [ -82.648435460157685, 28.057674193650666 ], [ -82.648440460162377, 28.057774193674636 ], [ -82.648513460229353, 28.059177194010491 ], [ -82.64858346027745, 28.060030194214033 ], [ -82.648619460302271, 28.060470194319066 ], [ -82.648630460307544, 28.06053519433441 ], [ -82.648663460323306, 28.060725194379284 ], [ -82.648665460324253, 28.060736194381857 ], [ -82.648670460349848, 28.061474194559402 ], [ -82.648675460359428, 28.061723194619187 ], [ -82.648652460369092, 28.062220194739417 ], [ -82.648912460485846, 28.063495195039668 ], [ -82.648913460494413, 28.063748195100551 ], [ -82.649015461004709, 28.078416198628318 ], [ -82.649025461053441, 28.079815198964727 ], [ -82.649043461160076, 28.082906199708084 ], [ -82.649045461171937, 28.0832501997908 ], [ -82.649061461266854, 28.086001200452408 ], [ -82.649092461444724, 28.0911472016898 ], [ -82.649103461537365, 28.093872202345171 ], [ -82.649110461554869, 28.094342202458058 ], [ -82.64912946159933, 28.09552820274293 ], [ -82.649152461716938, 28.098906203555025 ], [ -82.649159461726413, 28.099133203609455 ], [ -82.649167461736141, 28.099360203663849 ], [ -82.64956846225509, 28.11162520660384 ], [ -82.649701462422044, 28.115533207540306 ], [ -82.649719462444608, 28.116061207666867 ], [ -82.649729462457501, 28.11636620773994 ], [ -82.649744462476448, 28.116809207846089 ], [ -82.649772462513369, 28.117686208056295 ], [ -82.649783462526258, 28.117980208126717 ], [ -82.649784462527876, 28.118021208136572 ], [ -82.649785462529351, 28.118057208145164 ], [ -82.649786462531523, 28.118114208158911 ], [ -82.649787462532615, 28.118139208164862 ], [ -82.649789462536418, 28.118237208188354 ], [ -82.649794462544406, 28.118436208236112 ], [ -82.649794462544932, 28.118452208239955 ], [ -82.649794462545515, 28.1184702082443 ], [ -82.649797462551874, 28.118637208284358 ], [ -82.649801462560916, 28.118877208341999 ], [ -82.649803462571867, 28.119190208417216 ], [ -82.649823462592195, 28.119634208523447 ], [ -82.649838462610262, 28.120051208623373 ], [ -82.649872462648474, 28.120913208829766 ], [ -82.649877462651872, 28.120973208844099 ], [ -82.64989246266272, 28.121172208891576 ], [ -82.649901462681115, 28.121651209006519 ], [ -82.649901462681612, 28.121666209010154 ], [ -82.649901462682038, 28.121679209013234 ], [ -82.649907462694884, 28.122017209094363 ], [ -82.649941462740998, 28.12311820935825 ], [ -82.650269463180862, 28.133599211870042 ], [ -82.650366463311286, 28.136705212614309 ], [ -82.650597463621082, 28.144078214380848 ], [ -82.650605463651573, 28.144933214586178 ], [ -82.650992464068523, 28.154184216799823 ], [ -82.651059464329421, 28.161496218555481 ], [ -82.651127464590516, 28.168802220309388 ], [ -82.651147464670288, 28.171039220846449 ], [ -82.651168464750171, 28.173271221382201 ], [ -82.654083465591285, 28.173286221310061 ], [ -82.65410346573681, 28.17751022232444 ], [ -82.654077465768424, 28.17869322260935 ], [ -82.654119465786252, 28.178866222649791 ], [ -82.654130465823727, 28.179901222898149 ], [ -82.654918466040328, 28.179580222800588 ], [ -82.655560466218645, 28.179376222734884 ], [ -82.65620246639611, 28.179143222662233 ], [ -82.657077466640658, 28.178909222583233 ], [ -82.657972466891167, 28.178681222505208 ], [ -82.65814546694034, 28.178659222495455 ], [ -82.659007467185248, 28.178549222446623 ], [ -82.660020467473032, 28.178419222389049 ], [ -82.661269467830039, 28.178323222333521 ], [ -82.662083468062349, 28.178251222295081 ], [ -82.662920468299134, 28.178114222240421 ], [ -82.663362468423585, 28.17802322220707 ], [ -82.663698468518234, 28.177955222182007 ], [ -82.664988468879017, 28.177618222067522 ], [ -82.665094468915214, 28.177788222105587 ], [ -82.665664469107156, 28.178622222291118 ], [ -82.665852469174055, 28.179005222378226 ], [ -82.666011469231222, 28.17934822245655 ], [ -82.666209469305088, 28.179854222572938 ], [ -82.666295469339275, 28.180137222638709 ], [ -82.66637046937231, 28.180483222719836 ], [ -82.666437469407327, 28.18095722283196 ], [ -82.666461469427389, 28.181354222926746 ], [ -82.666461469441231, 28.181772223027121 ], [ -82.666435469454584, 28.182401223178893 ], [ -82.666433469482271, 28.18325522338408 ], [ -82.666429469532076, 28.184793223753662 ], [ -82.666428469565773, 28.185819224000113 ], [ -82.666427469593813, 28.186674224205497 ], [ -82.666426469597482, 28.186794224234344 ], [ -82.66640646967528, 28.189316224840631 ], [ -82.666405469680456, 28.189481224880328 ], [ -82.666398469716015, 28.190614225152611 ], [ -82.666357469945851, 28.197905226904751 ], [ -82.666343470020877, 28.200290227477893 ], [ -82.666341470034382, 28.20071422757978 ], [ -82.666331470092388, 28.202549228020661 ], [ -82.666315470096848, 28.202823228086856 ], [ -82.666108470074462, 28.203947228362171 ], [ -82.665983470062415, 28.204671228539265 ], [ -82.66596347006822, 28.205020228623631 ], [ -82.665957470077529, 28.205352228703504 ], [ -82.66597447010102, 28.205912228837544 ], [ -82.66597647010741, 28.206087228879468 ], [ -82.665998470159892, 28.20747822921291 ], [ -82.666001470168453, 28.207710229268532 ], [ -82.666007470183146, 28.208101229362288 ], [ -82.66601247019473, 28.208406229435365 ], [ -82.66601647020363, 28.208639229491244 ], [ -82.666021470225061, 28.209241229635605 ], [ -82.666036470289427, 28.211050230069628 ], [ -82.666042470311169, 28.211653230214257 ], [ -82.666043470322563, 28.21198723029438 ], [ -82.666048470357325, 28.212992230535558 ], [ -82.666050470369029, 28.213327230615938 ], [ -82.666051470378065, 28.213590230679088 ], [ -82.666055470405496, 28.214382230869109 ], [ -82.666057470414842, 28.214646230932416 ], [ -82.666058470424659, 28.214933231001297 ], [ -82.666061470437256, 28.215285231085751 ], [ -82.666025470438314, 28.215630231169506 ], [ -82.666010470439346, 28.215792231208798 ], [ -82.665991470441242, 28.216012231262109 ], [ -82.665989470442824, 28.21607923127825 ], [ -82.665982470447247, 28.216273231325033 ], [ -82.665980470449895, 28.216370231348353 ], [ -82.665977470465236, 28.216857231465379 ], [ -82.665977470471702, 28.217052231512142 ], [ -82.666128470515304, 28.217053231508455 ], [ -82.666191470533406, 28.217053231506799 ], [ -82.666583470646586, 28.217056231497349 ], [ -82.666735470690469, 28.217057231493637 ], [ -82.667131470804676, 28.217059231483798 ], [ -82.667302470854082, 28.217061231479811 ], [ -82.667449470896457, 28.217062231476213 ], [ -82.668187471109476, 28.217068231458413 ], [ -82.669006471345639, 28.2170692314373 ], [ -82.669574471509506, 28.217070231422735 ], [ -82.669692471543513, 28.217070231419669 ], [ -82.670048471646183, 28.217070231410382 ], [ -82.670167471680486, 28.217071231407512 ], [ -82.670761471851748, 28.217071231392055 ], [ -82.672544472366013, 28.217074231346277 ], [ -82.673139472537599, 28.21707523133103 ], [ -82.673309472586624, 28.217075231326589 ], [ -82.67373747271003, 28.21707523131543 ], [ -82.675531473227252, 28.217075231268677 ], [ -82.676130473400008, 28.217075231253066 ], [ -82.677115473684012, 28.217075231227394 ], [ -82.679222474291493, 28.217075231172458 ], [ -82.680070474536024, 28.217075231150375 ], [ -82.681055474820013, 28.217075231124699 ], [ -82.681395474918133, 28.217078231116595 ], [ -82.681476474941491, 28.217079231114742 ], [ -82.682102475122207, 28.217086231100076 ], [ -82.682417475212247, 28.217062231086114 ], [ -82.682626475271988, 28.217047231077057 ], [ -82.682754475307846, 28.217015231066028 ], [ -82.682863475338365, 28.216987231056439 ], [ -82.682957475364091, 28.216946231044194 ], [ -82.683066475393971, 28.216899231030062 ], [ -82.683242475439698, 28.216748230989225 ], [ -82.683474475500518, 28.216566230939474 ], [ -82.683637475541417, 28.216383230891321 ], [ -82.684111475687615, 28.216670230947823 ], [ -82.684690475862695, 28.216915230991539 ], [ -82.685163476002998, 28.217033231007576 ], [ -82.685596476129248, 28.217076231006576 ], [ -82.686226476310551, 28.217066230987786 ], [ -82.686461476377929, 28.217054230978743 ], [ -82.686881476497746, 28.217016230958709 ], [ -82.686896476502312, 28.217023230959985 ], [ -82.687203476591577, 28.217045230957247 ], [ -82.687795476762204, 28.217044230941593 ], [ -82.68844347694899, 28.217043230924464 ], [ -82.689570477273875, 28.217042230894858 ], [ -82.690163477444827, 28.2170422308794 ], [ -82.690679477593662, 28.217044230866406 ], [ -82.692229478040773, 28.217051230827643 ], [ -82.692746478189903, 28.217054230814906 ], [ -82.692747478195898, 28.217225230855938 ], [ -82.696740479345237, 28.217172230739141 ], [ -82.698945479979955, 28.217143230674665 ], [ -82.702267480936229, 28.217100230577731 ], [ -82.705718481931669, 28.217119230492326 ], [ -82.707078482323624, 28.217116230456142 ], [ -82.709295482962816, 28.217119230399032 ], [ -82.711801483684852, 28.217109230331324 ], [ -82.71529948469319, 28.217109230240105 ], [ -82.71876848569319, 28.217111230150127 ], [ -82.719396485874242, 28.217112230133989 ], [ -82.721418486458816, 28.21716623009419 ], [ -82.722960486902906, 28.217154230051118 ], [ -82.72593248775739, 28.217090229958245 ], [ -82.727802488296803, 28.217102229912392 ], [ -82.727958488341713, 28.217101229908089 ], [ -82.728643488539106, 28.21710022988993 ], [ -82.729998488929752, 28.217104229855593 ], [ -82.731734489429996, 28.217099229809062 ], [ -82.733829490034125, 28.217109229756865 ], [ -82.734807490314438, 28.217063229720324 ], [ -82.735496490512574, 28.217049229698958 ], [ -82.737001490946156, 28.217043229658298 ], [ -82.737226491009181, 28.21699022963972 ], [ -82.737460491076902, 28.2169982296355 ], [ -82.737936491214157, 28.217000229623576 ], [ -82.738943491504543, 28.217004229598249 ], [ -82.73917049156907, 28.216978229586097 ], [ -82.7391914915749, 28.216971229583894 ], [ -82.739328491613009, 28.216930229570476 ], [ -82.739514491663371, 28.21683322954237 ], [ -82.739752491724872, 28.21661922948477 ], [ -82.739793491734474, 28.216552229467638 ], [ -82.739870491752512, 28.216428229435888 ], [ -82.739909491760542, 28.216331229411562 ], [ -82.739923491757722, 28.216126229362025 ], [ -82.739948491747739, 28.215608229237066 ], [ -82.739941491710468, 28.214547228982678 ], [ -82.739935491703591, 28.214392228945627 ], [ -82.739920491684529, 28.213949228839756 ], [ -82.739931491687159, 28.213932228835375 ], [ -82.740016491707323, 28.213803228802185 ], [ -82.740187491755535, 28.213770228789841 ], [ -82.740265491778587, 28.213788228792072 ], [ -82.74029849178838, 28.213796228793175 ], [ -82.740559491869277, 28.213966228827129 ], [ -82.740755491929264, 28.214072228847456 ], [ -82.740893491970596, 28.214120228855382 ], [ -82.740943491985348, 28.214129228856269 ], [ -82.741015492006568, 28.214143228857711 ], [ -82.741197492058603, 28.214131228850107 ], [ -82.741262492077311, 28.21413022884818 ], [ -82.741134492031179, 28.213852228784781 ], [ -82.741054492002391, 28.213679228745384 ], [ -82.741010491986557, 28.2135842287237 ], [ -82.741001491980896, 28.213493228702092 ], [ -82.741029491985742, 28.213396228678111 ], [ -82.741096492002356, 28.213315228656899 ], [ -82.741168492021885, 28.21327722864595 ], [ -82.741233492039981, 28.213259228639924 ], [ -82.741405492088873, 28.213239228630634 ], [ -82.741709492175431, 28.213206228614816 ], [ -82.741772492193462, 28.213203228612386 ], [ -82.741895492228736, 28.213197228607772 ], [ -82.742109492290041, 28.213187228599804 ], [ -82.74232749235226, 28.213168228589552 ], [ -82.742454492388148, 28.213146228580968 ], [ -82.742639492440418, 28.213115228568668 ], [ -82.742671492455372, 28.213288228609365 ], [ -82.74276749250032, 28.213807228731387 ], [ -82.742800492515556, 28.213980228772069 ], [ -82.743120492604604, 28.213885228740931 ], [ -82.743442492694328, 28.21379122870999 ], [ -82.743687492763058, 28.213736228690369 ], [ -82.744040492863448, 28.213695228671327 ], [ -82.744244492921894, 28.213684228663372 ], [ -82.745956493414667, 28.213667228614643 ], [ -82.746098493456103, 28.213681228614316 ], [ -82.746257493503066, 28.213715228618305 ], [ -82.746405493548025, 28.213786228631474 ], [ -82.746504493578144, 28.213833228640169 ], [ -82.746627493617169, 28.213941228662872 ], [ -82.746679493634929, 28.214025228681702 ], [ -82.74678949367221, 28.214193228719097 ], [ -82.746875493701751, 28.214336228751215 ], [ -82.746902493710863, 28.214376228760123 ], [ -82.746932493720479, 28.214404228766035 ], [ -82.746977493734406, 28.214433228771824 ], [ -82.747045493754797, 28.214457228775789 ], [ -82.747173493792161, 28.214472228776078 ], [ -82.747783493968001, 28.21447422876064 ], [ -82.748260494105253, 28.214466228746257 ], [ -82.749303494405055, 28.214444228713816 ], [ -82.749438494443879, 28.214441228709518 ], [ -82.749625494496215, 28.214395228693601 ], [ -82.749850494557592, 28.21429122866282 ], [ -82.749976494592403, 28.214245228648515 ], [ -82.750033494608076, 28.214223228641725 ], [ -82.750054494613906, 28.214216228639472 ], [ -82.750209494657199, 28.214175228625631 ], [ -82.750268494673719, 28.214160228620496 ], [ -82.7504604947285, 28.214144228611616 ], [ -82.750731494806502, 28.214141228603832 ], [ -82.752125495207736, 28.214126228563849 ], [ -82.752431495295824, 28.214123228555149 ], [ -82.752590495341607, 28.214122228550782 ], [ -82.752839495413127, 28.21411522854261 ], [ -82.753587495627968, 28.214094228518064 ], [ -82.753658495648367, 28.214093228515974 ], [ -82.753746495674307, 28.214110228517772 ], [ -82.753813495695624, 28.214170228530385 ], [ -82.756501496470221, 28.21416922846004 ], [ -82.756502496447339, 28.213472228292762 ], [ -82.756514496448602, 28.213408228277139 ], [ -82.756553496458523, 28.213367228266303 ], [ -82.756679496493106, 28.213314228250244 ], [ -82.757152496628919, 28.213300228234591 ], [ -82.75816049691845, 28.213273228201849 ], [ -82.758888497127842, 28.213260228179699 ], [ -82.761074497756567, 28.213225228114258 ], [ -82.76180349796627, 28.213214228092639 ], [ -82.762351498123991, 28.213209228077137 ], [ -82.76399849859817, 28.213195228030809 ], [ -82.764055498614567, 28.21319522802931 ], [ -82.764226498663589, 28.213188228023188 ], [ -82.764339498695321, 28.21316322801426 ], [ -82.76443949872295, 28.213128228003217 ], [ -82.764522498745066, 28.213073227987874 ], [ -82.764634498777369, 28.213074227985192 ], [ -82.76467849879009, 28.213075227984294 ], [ -82.76514949892605, 28.213082227973672 ], [ -82.76530649897137, 28.213085227970275 ], [ -82.765215498948677, 28.213191227998109 ], [ -82.764898498868106, 28.213515228084084 ], [ -82.764706498821184, 28.213768228149778 ], [ -82.764631498803979, 28.213900228183402 ], [ -82.764588498794708, 28.213994228207145 ], [ -82.764538498783253, 28.21408222822949 ], [ -82.764470498766201, 28.21415922824978 ], [ -82.764271498718173, 28.214439228322131 ], [ -82.764227498708408, 28.214527228344387 ], [ -82.764078498673342, 28.214764228405159 ], [ -82.763973498647985, 28.214912228443374 ], [ -82.763811498604028, 28.214994228467287 ], [ -82.763681498567919, 28.215033228480049 ], [ -82.763619498549829, 28.215027228480189 ], [ -82.763432498495746, 28.21502222848391 ], [ -82.763271498447693, 28.214972228476103 ], [ -82.763234498433619, 28.214868228452104 ], [ -82.763203498420268, 28.214736228421227 ], [ -82.763203498409652, 28.214417228344704 ], [ -82.763116498384946, 28.214428228349643 ], [ -82.763085498377137, 28.214461228358363 ], [ -82.763066498374201, 28.214538228377343 ], [ -82.763072498379387, 28.214642228402106 ], [ -82.763097498391218, 28.214780228434556 ], [ -82.763097498393947, 28.214862228454244 ], [ -82.763159498414879, 28.214956228475163 ], [ -82.763215498433055, 28.215016228488121 ], [ -82.763308498461512, 28.215066228497673 ], [ -82.763364498478339, 28.215088228501511 ], [ -82.763401498489785, 28.215110228505811 ], [ -82.763600498547646, 28.215126228504474 ], [ -82.763724498584253, 28.215154228507931 ], [ -82.763786498603082, 28.21518222851304 ], [ -82.763848498623517, 28.215259228529909 ], [ -82.763873498633814, 28.215352228551573 ], [ -82.76384249863041, 28.215517228591931 ], [ -82.763730498608368, 28.215825228668784 ], [ -82.763438498539571, 28.216287228787198 ], [ -82.763388498542213, 28.216799228911356 ], [ -82.763307498522309, 28.216903228938445 ], [ -82.763208498496354, 28.216980228959471 ], [ -82.763164498487171, 28.21708522898583 ], [ -82.763046498459715, 28.217283229036418 ], [ -82.762978498447794, 28.217514229093592 ], [ -82.763003498459199, 28.217640229123145 ], [ -82.763003498463974, 28.217783229157462 ], [ -82.762897498441689, 28.21803122921974 ], [ -82.762767498408039, 28.218146229250713 ], [ -82.762543498348066, 28.218284229289658 ], [ -82.762530498349975, 28.218454229330785 ], [ -82.762579498367089, 28.218543229350882 ], [ -82.762629498384456, 28.21863222937094 ], [ -82.762669498398409, 28.218705229387385 ], [ -82.762710498412645, 28.218779229404053 ], [ -82.762717498417629, 28.218867229424998 ], [ -82.762698498413968, 28.218922229438636 ], [ -82.762717498421637, 28.218988229453988 ], [ -82.762797498446872, 28.219054229467734 ], [ -82.762915498481007, 28.219059229465895 ], [ -82.763102498536028, 28.219092229468927 ], [ -82.763306498597217, 28.219164229480864 ], [ -82.763474498648364, 28.219247229496396 ], [ -82.763580498681293, 28.219318229510659 ], [ -82.763592498691722, 28.219527229560477 ], [ -82.763741498737403, 28.219610229576507 ], [ -82.764027498826778, 28.219819229619151 ], [ -82.764207498882456, 28.21993422964206 ], [ -82.764548498987878, 28.220149229684765 ], [ -82.764623499011464, 28.22021022969745 ], [ -82.764598499007008, 28.22029222971771 ], [ -82.764582499002486, 28.220293229718386 ], [ -82.764594499080204, 28.222526230253727 ], [ -82.764613499204941, 28.226110231112983 ], [ -82.764621499257217, 28.227612231473007 ], [ -82.76463049931354, 28.229225231859676 ], [ -82.764638499366342, 28.230742232223296 ], [ -82.764641499384354, 28.231257232346753 ], [ -82.764643499391639, 28.231459232395135 ], [ -82.764157499329613, 28.23380123296954 ], [ -82.764127499325951, 28.233951233006316 ], [ -82.763766499268968, 28.235364233354638 ], [ -82.763523499239881, 28.236591233655243 ], [ -82.76318149920543, 28.238516234125854 ], [ -82.762888499154528, 28.239522234374721 ], [ -82.762546499096459, 28.240738234675284 ], [ -82.762537499095458, 28.240785234686768 ], [ -82.762409499082494, 28.241503234862311 ], [ -82.762191499048811, 28.242377235077615 ], [ -82.762117499040897, 28.242779235175959 ], [ -82.762129499051866, 28.243004235229595 ], [ -82.762036499027957, 28.243092235253137 ], [ -82.761950499006872, 28.243202235281775 ], [ -82.76169549894442, 28.24353423536806 ], [ -82.761610498923673, 28.243645235396894 ], [ -82.761416498889915, 28.244310235561429 ], [ -82.76083749878967, 28.246308236055686 ], [ -82.760644498756278, 28.246974236220399 ], [ -82.760212498682506, 28.248496236596658 ], [ -82.759434498549709, 28.251236237274025 ], [ -82.759333498532584, 28.251596237362989 ], [ -82.758917498461699, 28.253064237725841 ], [ -82.758741498431604, 28.253683237878818 ], [ -82.758657498417293, 28.25398023795228 ], [ -82.758486498388294, 28.254587238102296 ], [ -82.758415498370226, 28.254658238121163 ], [ -82.758162498305708, 28.254911238188424 ], [ -82.757970498256867, 28.255104238239706 ], [ -82.756839497953308, 28.255774238429943 ], [ -82.756143497755119, 28.255846238465391 ], [ -82.755540497579091, 28.255779238465088 ], [ -82.754919497394596, 28.255614238441815 ], [ -82.754503497266285, 28.255361238392041 ], [ -82.754248497184733, 28.255119238340676 ], [ -82.754214497174857, 28.255117238341089 ], [ -82.753664497015151, 28.25508023834659 ], [ -82.753161496873446, 28.255179238383523 ], [ -82.752726496744089, 28.255058238365855 ], [ -82.752260496611214, 28.255101238388338 ], [ -82.752111496563515, 28.254958238357979 ], [ -82.751242496317474, 28.255090238412354 ], [ -82.75039749607518, 28.255128238443611 ], [ -82.750428496091473, 28.255348238495507 ], [ -82.750260496046522, 28.255453238525096 ], [ -82.750006495973054, 28.255444238529602 ], [ -82.749812495920963, 28.255557238561753 ], [ -82.749815496032113, 28.25886223935407 ], [ -82.749816496040751, 28.259113239414283 ], [ -82.749818496096921, 28.260779239813658 ], [ -82.750401496275558, 28.261097239874644 ], [ -82.749871496176681, 28.26271124027544 ], [ -82.749821496163037, 28.262734240282249 ], [ -82.749826496267744, 28.265827241023679 ], [ -82.754348497570973, 28.265827240905285 ], [ -82.84008952227849, 28.2659842386972 ], [ -83.009923571177112, 28.266385234337598 ], [ -83.009163571015108, 28.268075234761913 ], [ -83.00740357063215, 28.271755235688545 ], [ -83.005193570140548, 28.276055236775331 ], [ -83.002823569600906, 28.280295237851924 ], [ -83.000993569176771, 28.283345238629668 ], [ -82.999713568877979, 28.285415239158485 ], [ -82.996473568108613, 28.290265240403766 ], [ -82.992583567168381, 28.295595241780941 ], [ -82.988213566095141, 28.301075243206569 ], [ -82.983813564997845, 28.306095244522965 ], [ -82.978633563688547, 28.31148524594839 ], [ -82.974183562551289, 28.31574524708428 ], [ -82.968953561201047, 28.320345248322031 ], [ -82.963493559777802, 28.324745249518056 ], [ -82.959263558666819, 28.327905250385115 ], [ -82.953783557217619, 28.331705251438208 ], [ -82.94676355534601, 28.336125252680098 ], [ -82.940723553723402, 28.339565253661885 ], [ -82.937733552916313, 28.341155254120931 ], [ -82.933813551854342, 28.34312525469533 ], [ -82.930923551068972, 28.344505255101485 ], [ -82.927093550024736, 28.346235255616183 ], [ -82.920963548345966, 28.348785256387576 ], [ -82.916813547204171, 28.350355256872497 ], [ -82.912813546105141, 28.351915257351003 ], [ -82.912793546119275, 28.352505257492641 ], [ -82.910493545482737, 28.353265257735004 ], [ -82.904893543928779, 28.35499525829643 ], [ -82.900393542674934, 28.356235258711678 ], [ -82.897363541828781, 28.357015258978162 ], [ -82.89664354167644, 28.358645259386869 ], [ -82.894933541404399, 28.365175260993272 ], [ -82.893923541225959, 28.368505261816068 ], [ -82.893303541112289, 28.370425262291484 ], [ -82.8922835409182, 28.373375263023643 ], [ -82.891653540795232, 28.375105263453779 ], [ -82.889633540387166, 28.380245264735851 ], [ -82.887693539977562, 28.384655265841232 ], [ -82.886753539774816, 28.386665266346466 ], [ -82.884763539336348, 28.390645267350347 ], [ -82.883903539183024, 28.39343526803988 ], [ -82.883203539071431, 28.396095268694069 ], [ -82.881753538820391, 28.401015269908136 ], [ -82.880063538503634, 28.406035271152398 ], [ -82.878393538172759, 28.410465272255131 ], [ -82.877613538023297, 28.412685272806208 ], [ -82.877513538037149, 28.41394527310992 ], [ -82.877263538050897, 28.416475273720959 ], [ -82.876623538037791, 28.421525274944322 ], [ -82.87573353796391, 28.426905276253084 ], [ -82.874943537868234, 28.430791277202271 ], [ -82.86582653524907, 28.43099027749156 ], [ -82.763550505826501, 28.432382280534277 ], [ -82.754245503148752, 28.432515280812467 ], [ -82.750004501928998, 28.432597280944389 ], [ -82.68831448416671, 28.433340282754838 ], [ -82.686519483649775, 28.433362282807579 ], [ -82.686005483501731, 28.433368282822578 ], [ -82.683827482874619, 28.433397282887196 ], [ -82.681134482098997, 28.433430282966306 ], [ -82.679340481582329, 28.433453283019254 ], [ -82.679221481548069, 28.433454283022645 ], [ -82.679043481496834, 28.433457283028076 ], [ -82.67886448144526, 28.433459283033276 ], [ -82.678745481411028, 28.433461283036895 ], [ -82.678462481329476, 28.433464283045165 ], [ -82.678066481215481, 28.433469283056812 ], [ -82.678041481208297, 28.433470283057719 ], [ -82.677616481085892, 28.433475283070116 ], [ -82.677334481004664, 28.433479283078555 ], [ -82.677152480952245, 28.433481283083818 ], [ -82.676617480798171, 28.433488283099695 ], [ -82.67660648079503, 28.43348828309999 ], [ -82.67642548074295, 28.433492283105732 ], [ -82.675662480523428, 28.433508283129697 ], [ -82.674014480049308, 28.433544283181913 ], [ -82.672780479693742, 28.433555283217224 ], [ -82.672630479650479, 28.433556283221414 ], [ -82.672033479478529, 28.433562283238636 ], [ -82.671435479306197, 28.433567283255641 ], [ -82.671341479279135, 28.433568283258353 ], [ -82.670700479094521, 28.433575283276969 ], [ -82.670060478910059, 28.433580283295143 ], [ -82.668283478397711, 28.433587283343794 ], [ -82.66797947831013, 28.433589283352315 ], [ -82.667891478284744, 28.433589283354642 ], [ -82.667806478260218, 28.433589283356905 ], [ -82.667581478195373, 28.433591283363313 ], [ -82.667341478126133, 28.433591283369662 ], [ -82.667095478055288, 28.433593283376641 ], [ -82.666990478025014, 28.433593283379416 ], [ -82.666412477858287, 28.433594283394953 ], [ -82.665306477539588, 28.433603283426375 ], [ -82.664479477301157, 28.433607283449213 ], [ -82.663828477113441, 28.433609283466918 ], [ -82.663752477091549, 28.433609283468904 ], [ -82.663676477069629, 28.433609283470926 ], [ -82.663475477011701, 28.43361028347649 ], [ -82.663058476891422, 28.433611283487739 ], [ -82.662408476704044, 28.433615283505887 ], [ -82.661808476531093, 28.43361828352246 ], [ -82.661757476516385, 28.433619283524031 ], [ -82.657462475277839, 28.433629283640069 ], [ -82.657182475197089, 28.433630283647709 ], [ -82.654140474320457, 28.433656283734372 ], [ -82.649469472974431, 28.433698283867944 ], [ -82.648677472746201, 28.433705283890543 ], [ -82.639968470238529, 28.433847284154847 ], [ -82.639765470180023, 28.433848284160447 ], [ -82.638531469824116, 28.433851284193778 ], [ -82.638390469783431, 28.43385128419752 ], [ -82.637257469456586, 28.433853284227947 ], [ -82.635701469007742, 28.433855284269569 ], [ -82.635203468864162, 28.433857284283189 ], [ -82.634566468680418, 28.433858284300268 ], [ -82.633602468402316, 28.433859284325997 ], [ -82.632974468221093, 28.433858284342378 ], [ -82.632659468130214, 28.433858284350698 ], [ -82.63168246784835, 28.433858284376523 ], [ -82.630724467571895, 28.433857284401633 ], [ -82.627831466737163, 28.43385528447763 ], [ -82.62745546662866, 28.433855284487564 ], [ -82.627340466595484, 28.433855284490619 ], [ -82.625134465958922, 28.433853284548469 ], [ -82.624827465870325, 28.433853284556577 ], [ -82.622951465328995, 28.433851284605701 ], [ -82.619738464401848, 28.433849284690154 ], [ -82.617659463801957, 28.433848284744883 ], [ -82.617186463665462, 28.433848284757374 ], [ -82.616695463523826, 28.433849284770584 ], [ -82.615841463277505, 28.433853284794111 ], [ -82.615723463243498, 28.433853284797241 ], [ -82.614928463014252, 28.43385728481919 ], [ -82.614734462958282, 28.433858284824577 ], [ -82.614353462848356, 28.43385928483487 ], [ -82.613973462738798, 28.433861284845388 ], [ -82.612984462453539, 28.433865284872478 ], [ -82.612946462442565, 28.433865284873509 ], [ -82.612563462332105, 28.433867284884073 ], [ -82.612030462178424, 28.433869284898687 ], [ -82.611233461948515, 28.433872284920469 ], [ -82.611125461917425, 28.433873284923564 ], [ -82.611056461897519, 28.433873284925394 ], [ -82.610866461842647, 28.433873284930407 ], [ -82.607137460767134, 28.433889285032745 ], [ -82.607001460727886, 28.433889285036358 ], [ -82.60698846072421, 28.43389028503692 ], [ -82.60617946049085, 28.433893285059082 ], [ -82.605798460380896, 28.433893285069157 ], [ -82.605623460330449, 28.433895285074254 ], [ -82.605207460210522, 28.433897285085713 ], [ -82.603935459843612, 28.433902285120517 ], [ -82.603807459806745, 28.433903285124131 ], [ -82.602152459329304, 28.433909285169296 ], [ -82.601087459022139, 28.433913285198393 ], [ -82.600693458908452, 28.433915285209341 ], [ -82.600639458892914, 28.433915285210755 ], [ -82.600510458855666, 28.433915285214177 ], [ -82.599017458424683, 28.433911285252634 ], [ -82.598233458198365, 28.433909285272854 ], [ -82.598195458187391, 28.43390928527386 ], [ -82.598052458146142, 28.433909285277636 ], [ -82.596703457756718, 28.433906285312574 ], [ -82.594892457233968, 28.433902285359501 ], [ -82.594475457113575, 28.433901285370286 ], [ -82.5931564567328, 28.433898285404421 ], [ -82.592446456527867, 28.433896285422708 ], [ -82.592145456441017, 28.433896285430684 ], [ -82.592074456420491, 28.433896285432542 ], [ -82.591292456194736, 28.433893285452491 ], [ -82.59113845615029, 28.433893285456577 ], [ -82.591032456119663, 28.433893285459373 ], [ -82.590126455858154, 28.433891285482787 ], [ -82.58997345581399, 28.433891285486823 ], [ -82.588728455454586, 28.433888285519011 ], [ -82.587036454966153, 28.433884285562769 ], [ -82.58607145468757, 28.433882285587789 ], [ -82.585107454409282, 28.433880285612791 ], [ -82.582553453671963, 28.433874285678833 ], [ -82.581573453389041, 28.433872285704258 ], [ -82.580608453110429, 28.433870285729274 ], [ -82.580510453082169, 28.433870285731846 ], [ -82.580013452938701, 28.433869285744766 ], [ -82.578427452480838, 28.433867285786132 ], [ -82.578343452456608, 28.433866285788113 ], [ -82.571892450594419, 28.433859285956881 ], [ -82.568317449562358, 28.433855286050388 ], [ -82.56830544955892, 28.433855286050704 ], [ -82.568107449501767, 28.433855286055934 ], [ -82.567831449422101, 28.43385528606321 ], [ -82.566884449148731, 28.433854286088003 ], [ -82.566736449105946, 28.433853286091662 ], [ -82.565569448769068, 28.433852286122256 ], [ -82.563669448220566, 28.433850286171978 ], [ -82.562925448005828, 28.433850286191621 ], [ -82.562845447982667, 28.433849286193503 ], [ -82.559557447033512, 28.433848286280124 ], [ -82.558254446657386, 28.433848286314536 ], [ -82.556152446050703, 28.433850286370536 ], [ -82.55544144584546, 28.433851286389533 ], [ -82.553395445254864, 28.433852286443809 ], [ -82.551811444797707, 28.433854286486131 ], [ -82.551335444660282, 28.43385428649869 ], [ -82.551284444645546, 28.433853286499804 ], [ -82.550879444528562, 28.433851286510027 ], [ -82.550017444279518, 28.433846286531544 ], [ -82.548664443888669, 28.433839286565625 ], [ -82.546157443164489, 28.433825286628508 ], [ -82.546132443157262, 28.433824286628933 ], [ -82.543411442371237, 28.43381028669744 ], [ -82.543353442354444, 28.433809286698708 ], [ -82.541990441960735, 28.433802286733044 ], [ -82.538378440917242, 28.433782286823636 ], [ -82.537962440797088, 28.433779286833904 ], [ -82.536234440297847, 28.433770286877351 ], [ -82.535195439997707, 28.433764286903372 ], [ -82.532397439189651, 28.433757286975581 ], [ -82.532077439097222, 28.433756286983744 ], [ -82.530956438773501, 28.433754287012871 ], [ -82.528331438015371, 28.433747287080511 ], [ -82.5279514379056, 28.43374628709029 ], [ -82.519745435535597, 28.433726287302164 ], [ -82.519734435532413, 28.433726287302445 ], [ -82.519286435403004, 28.433725287314044 ], [ -82.518791435260027, 28.433724287326861 ], [ -82.517764434963496, 28.433723287353729 ], [ -82.516776434678121, 28.433721287379342 ], [ -82.514594434047964, 28.433718287436236 ], [ -82.513896433846398, 28.433717287454439 ], [ -82.512916433563404, 28.433716287480056 ], [ -82.512890433554887, 28.433688287473991 ], [ -82.512889433555543, 28.43371528748051 ], [ -82.511263433086015, 28.433715287523448 ], [ -82.508468432278875, 28.433713287596746 ], [ -82.506839431808459, 28.433712287639487 ], [ -82.502863430660227, 28.433711287744149 ], [ -82.499172429594324, 28.433710287841333 ], [ -82.49777842919174, 28.433710287878124 ], [ -82.496630428860215, 28.433710287908429 ], [ -82.496612428855002, 28.433710287908912 ], [ -82.495971428669904, 28.433710287925805 ], [ -82.490850427191106, 28.433714288061939 ], [ -82.490433427070684, 28.433714288072967 ], [ -82.490176426996513, 28.433714288079738 ], [ -82.488409426486015, 28.433710288125368 ], [ -82.486367425896077, 28.433705288178068 ], [ -82.486153425834303, 28.433705288183717 ], [ -82.485902425761736, 28.433703288189868 ], [ -82.485567425664954, 28.433702288198464 ], [ -82.485244425571622, 28.433702288207002 ], [ -82.485115425534417, 28.433702288210398 ], [ -82.484971425492816, 28.433703288214435 ], [ -82.484403425328864, 28.433705288229874 ], [ -82.483702425126509, 28.433708288249083 ], [ -82.48122842441235, 28.43371928831704 ], [ -82.480816424293437, 28.433721288328396 ], [ -82.479795423998652, 28.433725288356285 ], [ -82.479783423995187, 28.433725288356591 ], [ -82.477619423370527, 28.433735288416106 ], [ -82.477593423363018, 28.433735288416791 ], [ -82.472481421887281, 28.433758288557183 ], [ -82.472264421824633, 28.433759288563142 ], [ -82.469358420985685, 28.433772288642885 ], [ -82.467968420584228, 28.433774288680016 ], [ -82.467798420535175, 28.433774288684521 ], [ -82.46670442021923, 28.43377628871384 ], [ -82.46619942007338, 28.433776288727174 ], [ -82.464068419457902, 28.433779288784169 ], [ -82.463639419334015, 28.433779288795453 ], [ -82.463520419299627, 28.433779288798608 ], [ -82.463469419284877, 28.43378028880019 ], [ -82.462117418894394, 28.433781288836094 ], [ -82.461892418829393, 28.433781288842024 ], [ -82.459184418044174, 28.433692288892129 ], [ -82.457687417613187, 28.433736288942175 ], [ -82.457580417582406, 28.433738288945463 ], [ -82.457480417553569, 28.43374128894882 ], [ -82.457057417431756, 28.433750288962102 ], [ -82.456852417372502, 28.433751288967752 ], [ -82.454461416681923, 28.433754289031516 ], [ -82.453884416515265, 28.433754289046732 ], [ -82.452912416234511, 28.433756289072846 ], [ -82.448304414903532, 28.433761289195637 ], [ -82.448044414828416, 28.433761289202494 ], [ -82.444746413875791, 28.43376528929042 ], [ -82.440556412665458, 28.433769289401869 ], [ -82.437988411923641, 28.433772289470287 ], [ -82.436475411486541, 28.433774289510676 ], [ -82.435871411312235, 28.433778289527549 ], [ -82.427752408968644, 28.433843289757213 ], [ -82.419937406712705, 28.433905289978124 ], [ -82.409932403824001, 28.433974290258412 ], [ -82.409873403806984, 28.433974290259965 ], [ -82.409790403782992, 28.433974290262153 ], [ -82.40954340371168, 28.433976290269147 ], [ -82.409461403687985, 28.433977290271542 ], [ -82.409374403662895, 28.433977290273834 ], [ -82.409245403625675, 28.433979290277719 ], [ -82.409116403588385, 28.433979290281105 ], [ -82.409030403563577, 28.433980290283614 ], [ -82.407697403178659, 28.43398829032072 ], [ -82.403700402024626, 28.434016290432773 ], [ -82.402368401639933, 28.434025290469997 ], [ -82.401793401473896, 28.434028290485934 ], [ -82.400069400976079, 28.434040290534238 ], [ -82.39949540081038, 28.434044290550311 ], [ -82.398578400545546, 28.434050290575943 ], [ -82.394559399385045, 28.434077290688336 ], [ -82.387220397265722, 28.434127290893716 ], [ -82.383923396313563, 28.434150290986132 ], [ -82.379751395105671, 28.434087291080946 ], [ -82.374816393676838, 28.434014291193488 ], [ -82.374472393577491, 28.434017291203286 ], [ -82.373443393280539, 28.434030291233512 ], [ -82.373100393181531, 28.434035291243749 ], [ -82.372392392977176, 28.434043291264288 ], [ -82.370759392505846, 28.434063291312114 ], [ -82.370604392461161, 28.434065291316678 ], [ -82.370165392334457, 28.434072291329962 ], [ -82.35538738807054, 28.434303291774665 ], [ -82.352498387236849, 28.434348291861543 ], [ -82.348352386040517, 28.434413291986338 ], [ -82.347171385699781, 28.434432292022024 ], [ -82.343877384749206, 28.434483292120987 ], [ -82.340639383814818, 28.434534292218487 ], [ -82.32688137984438, 28.434749292632389 ], [ -82.32030437794613, 28.434852292830222 ], [ -82.319428377696852, 28.434970292881601 ], [ -82.319413377692186, 28.43496029287963 ], [ -82.319376377680911, 28.434944292876729 ], [ -82.315286376497269, 28.434913292977022 ], [ -82.315262376490324, 28.434913292977647 ], [ -82.315233376481913, 28.434913292978422 ], [ -82.315212376475827, 28.434913292978969 ], [ -82.313162375882655, 28.434901293030027 ], [ -82.310558375129659, 28.434899293098134 ], [ -82.307103374129937, 28.434882293184984 ], [ -82.306979374094212, 28.434884293188784 ], [ -82.305876373775817, 28.434901293221852 ], [ -82.305319373614736, 28.434901293236507 ], [ -82.305287373605552, 28.434904293238073 ], [ -82.303551373103829, 28.43491329328598 ], [ -82.302826372893847, 28.43490229330239 ], [ -82.28547536787211, 28.43478729373151 ], [ -82.285348367835354, 28.434787293734857 ], [ -82.284819367682346, 28.434787293748776 ], [ -82.283233367223787, 28.434791293791463 ], [ -82.282705367071074, 28.4347922938056 ], [ -82.28261936704628, 28.434792293807838 ], [ -82.282364366972473, 28.434792293814571 ], [ -82.282280366948243, 28.43479329381708 ], [ -82.282247366938677, 28.434793293817943 ], [ -82.282149366910346, 28.434793293820526 ], [ -82.282117366901119, 28.434794293821614 ], [ -82.2813973666929, 28.434795293840789 ], [ -82.281209366638521, 28.434795293845738 ], [ -82.281219366600041, 28.433567293550855 ], [ -82.281229366540344, 28.431707293104317 ], [ -82.281243366518083, 28.430926292916617 ], [ -82.281253366502824, 28.430387292787046 ], [ -82.281317366485652, 28.429327292531056 ], [ -82.281415366492411, 28.428686292374646 ], [ -82.281541366508591, 28.428084292226941 ], [ -82.281700366535773, 28.427525292088628 ], [ -82.281884366570736, 28.426983291953768 ], [ -82.282116366619292, 28.42643329181567 ], [ -82.282385366678852, 28.425891291678543 ], [ -82.282638366737302, 28.425452291566593 ], [ -82.282924366804963, 28.425006291452046 ], [ -82.283235366881456, 28.424606291347875 ], [ -82.283554366960587, 28.42421629124593 ], [ -82.283906367050847, 28.423873291154372 ], [ -82.284450367191667, 28.423382291022243 ], [ -82.28486336730046, 28.423066290935576 ], [ -82.285341367428003, 28.42274729084647 ], [ -82.285859367567795, 28.42244929076131 ], [ -82.286302367688137, 28.422219290694489 ], [ -82.28712736791293, 28.421808290574191 ], [ -82.287299367959818, 28.421723290549274 ], [ -82.288180368199704, 28.421279290419534 ], [ -82.288915368398108, 28.420860290299714 ], [ -82.289746368620612, 28.420330290150687 ], [ -82.290452368808346, 28.41984029001452 ], [ -82.290986368948509, 28.41941728989902 ], [ -82.291320369035645, 28.419136289822784 ], [ -82.291418369061233, 28.419055289800799 ], [ -82.291754369147611, 28.418734289714916 ], [ -82.292350369301403, 28.418181289566576 ], [ -82.292974369459884, 28.417527289393256 ], [ -82.293714369648995, 28.416789289196718 ], [ -82.293837369680546, 28.416668289164448 ], [ -82.294490369846415, 28.415985288983368 ], [ -82.295119370006248, 28.415329288809421 ], [ -82.295556370117325, 28.414875288689004 ], [ -82.298588370888609, 28.411736287856058 ], [ -82.29876437093337, 28.411553287807511 ], [ -82.299836371206169, 28.410448287514182 ], [ -82.300173371291848, 28.410098287421391 ], [ -82.301137371537209, 28.409104287157533 ], [ -82.301187371549901, 28.409051287143456 ], [ -82.301524371635566, 28.408701287050636 ], [ -82.302067371773632, 28.40813728690102 ], [ -82.303282372083729, 28.406910286574639 ], [ -82.303774372209332, 28.406414286442683 ], [ -82.304458372387359, 28.405825286283388 ], [ -82.305220372587513, 28.405224286119122 ], [ -82.305813372745078, 28.404810286004192 ], [ -82.306395372900681, 28.404433285898417 ], [ -82.307146373102896, 28.403989285772123 ], [ -82.307701373253877, 28.403705285689441 ], [ -82.308542373483505, 28.403303285570857 ], [ -82.309548373758432, 28.402827285430213 ], [ -82.30997837387595, 28.402624285370187 ], [ -82.311824374380947, 28.40176828511629 ], [ -82.314266375048476, 28.400621284776868 ], [ -82.314990375246055, 28.40027128467386 ], [ -82.315218375307666, 28.400141284636643 ], [ -82.31556737540194, 28.39994428458024 ], [ -82.316110375547225, 28.399596284482431 ], [ -82.316611375679145, 28.399211284376879 ], [ -82.317204375832176, 28.398662284229573 ], [ -82.317647375943977, 28.39817828410176 ], [ -82.318061376045904, 28.397647283963494 ], [ -82.318441376136278, 28.397067283814298 ], [ -82.318714376197875, 28.396551283683319 ], [ -82.318948376247732, 28.396022283550174 ], [ -82.319144376284981, 28.395443283406109 ], [ -82.319315376312105, 28.394778283242008 ], [ -82.31941137631722, 28.394104283077709 ], [ -82.319451376308706, 28.393506282933185 ], [ -82.319482376215362, 28.390459282201046 ], [ -82.319522376100593, 28.386695281296564 ], [ -82.319528376080427, 28.386043281139933 ], [ -82.319549376020987, 28.384090280670623 ], [ -82.319556376001145, 28.383439280514185 ], [ -82.31956137598624, 28.382952280397138 ], [ -82.319576375941594, 28.381491280046028 ], [ -82.319581375926688, 28.38100427992898 ], [ -82.319591375895698, 28.379993279686072 ], [ -82.31960937584175, 28.378229279262115 ], [ -82.319622375803021, 28.376963278957856 ], [ -82.319633375772369, 28.375953278715091 ], [ -82.319669375653817, 28.372107277790818 ], [ -82.319701375550267, 28.368740276981629 ], [ -82.319779375299163, 28.36057127501811 ], [ -82.319780375299146, 28.360562275015884 ], [ -82.319785375262427, 28.359422274742048 ], [ -82.319827375208817, 28.357458274269323 ], [ -82.319859375193644, 28.356727274092915 ], [ -82.319874375189002, 28.356460274028386 ], [ -82.319891375184525, 28.356179273960496 ], [ -82.319935375179895, 28.355660273834697 ], [ -82.31995837517762, 28.355394273770212 ], [ -82.319969375176584, 28.355267273739418 ], [ -82.320025375176812, 28.354791273623633 ], [ -82.32013437518259, 28.354021273435887 ], [ -82.320247375191272, 28.353305273260951 ], [ -82.320386375208898, 28.352631273095465 ], [ -82.320551375231091, 28.351869272908122 ], [ -82.320708375254767, 28.351220272748183 ], [ -82.321033375307564, 28.349989272444024 ], [ -82.32179337542874, 28.347042271716326 ], [ -82.322230375497426, 28.345319271291043 ], [ -82.322268375498979, 28.345036271222089 ], [ -82.322551375510599, 28.342938270710782 ], [ -82.323312375612559, 28.339406269842481 ], [ -82.323911375568301, 28.332898268263481 ], [ -82.324472375592322, 28.328762267255161 ], [ -82.324519375580536, 28.328002267071337 ], [ -82.324617375566362, 28.326730266763199 ], [ -82.324621375565727, 28.326676266750084 ], [ -82.324736375553357, 28.325310266418931 ], [ -82.324741375550602, 28.325183266388255 ], [ -82.324747375547744, 28.325046266355194 ], [ -82.32488237551965, 28.323035265868505 ], [ -82.324956375511448, 28.322149265653671 ], [ -82.324996375511375, 28.321800265568783 ], [ -82.325101375490334, 28.320259265195745 ], [ -82.325167375477818, 28.319314264966962 ], [ -82.325393375440825, 28.316245264223621 ], [ -82.325442375434747, 28.31563826407649 ], [ -82.325479375430518, 28.315192263968321 ], [ -82.32555537541603, 28.314098263703492 ], [ -82.325583375410417, 28.313687263603946 ], [ -82.325647375383895, 28.312337263277918 ], [ -82.325663375369999, 28.311781263143882 ], [ -82.325639375323462, 28.310595262859469 ], [ -82.325596375283766, 28.309776262663792 ], [ -82.325563375259875, 28.309346262561331 ], [ -82.325551375250853, 28.309179262521475 ], [ -82.325452375184511, 28.308048262252253 ], [ -82.325349375119302, 28.306984261999265 ], [ -82.325283375074363, 28.306208261814472 ], [ -82.325147374987466, 28.304780261474829 ], [ -82.325005374893095, 28.303181261094245 ], [ -82.324965374867375, 28.302755260992882 ], [ -82.324874374808076, 28.301766260757553 ], [ -82.324709374686435, 28.299546260228244 ], [ -82.324691374656865, 28.298815260053019 ], [ -82.324695374637727, 28.298204259906054 ], [ -82.324698374626365, 28.297837259817776 ], [ -82.324741374602183, 28.296738259552495 ], [ -82.324861374592572, 28.295408259229653 ], [ -82.324899374594125, 28.295124259160378 ], [ -82.325064374600856, 28.293894258860394 ], [ -82.325119374606857, 28.293597258787557 ], [ -82.325215374617727, 28.293090258663216 ], [ -82.325494374653843, 28.29175225833427 ], [ -82.325766374689124, 28.290450258014172 ], [ -82.325776374690491, 28.290403258002613 ], [ -82.325953374710522, 28.289469257773508 ], [ -82.326085374722922, 28.288695257583939 ], [ -82.326191374726136, 28.287870257382885 ], [ -82.326384374713939, 28.285826256886434 ], [ -82.326415374703231, 28.285235256743569 ], [ -82.32641737469055, 28.284837256647826 ], [ -82.32641037467269, 28.284360256533322 ], [ -82.326395374627239, 28.283125256236783 ], [ -82.32639737448855, 28.278937255229824 ], [ -82.326397374467462, 28.278303255077372 ], [ -82.3264223744536, 28.277669254924298 ], [ -82.32648137444707, 28.276959254752018 ], [ -82.326557374450772, 28.276410254618046 ], [ -82.326667374460627, 28.275750254456433 ], [ -82.326836374488735, 28.275125254301805 ], [ -82.327056374525867, 28.274330254104864 ], [ -82.327324374575369, 28.273489253895679 ], [ -82.32822137475317, 28.27103625328245 ], [ -82.329390374985621, 28.267862252488758 ], [ -82.329600375028633, 28.267330252355386 ], [ -82.329894375091456, 28.266663252187307 ], [ -82.330337375192315, 28.265844251978834 ], [ -82.330808375302212, 28.265054251776519 ], [ -82.331188375393353, 28.264490251631013 ], [ -82.331662375509651, 28.263867251468898 ], [ -82.332122375624266, 28.263315251324137 ], [ -82.332517375723228, 28.26285625120347 ], [ -82.332965375837745, 28.262405251083358 ], [ -82.333814376056978, 28.261616250871519 ], [ -82.333870376071431, 28.261565250857753 ], [ -82.335293376439523, 28.260264250507863 ], [ -82.336504376753112, 28.259166250212274 ], [ -82.336804376830543, 28.258887250137395 ], [ -82.338255377206366, 28.257574249783804 ], [ -82.339183377445437, 28.256696249548483 ], [ -82.340096377678819, 28.255776249303455 ], [ -82.340934377890619, 28.254861249061626 ], [ -82.341562378047712, 28.254124248868006 ], [ -82.34230537823143, 28.253189248623794 ], [ -82.344319378725359, 28.250533247932566 ], [ -82.345062378907173, 28.249540247674421 ], [ -82.346481379254911, 28.247660247185326 ], [ -82.347477379498926, 28.246339246841668 ], [ -82.347920379607515, 28.245752246688955 ], [ -82.349326379951506, 28.243871246199983 ], [ -82.350462380230184, 28.242375245810557 ], [ -82.35070938029088, 28.24205224572647 ], [ -82.351456380473607, 28.241053245466713 ], [ -82.351580380503648, 28.240877245421199 ], [ -82.351966380598185, 28.240364245287751 ], [ -82.352094380629424, 28.240192245243026 ], [ -82.352585380750028, 28.239549245075629 ], [ -82.353305380926969, 28.238610244831019 ], [ -82.354063381113335, 28.237623244573857 ], [ -82.354557381234869, 28.23698224440686 ], [ -82.354402381189033, 28.236951244403393 ], [ -82.354192381126978, 28.236909244398735 ], [ -82.353939381052157, 28.236859244393308 ], [ -82.353785381006702, 28.236829244390112 ], [ -82.353446380906348, 28.236757244381607 ], [ -82.353126380811617, 28.236690244373811 ], [ -82.352792380712557, 28.236614244364173 ], [ -82.352429380605386, 28.236545244357004 ], [ -82.352089380505006, 28.236481244350443 ], [ -82.351605380362429, 28.236398244343093 ], [ -82.351131380223464, 28.236339244341202 ], [ -82.350696380096821, 28.236311244345764 ], [ -82.350197379952689, 28.236314244359463 ], [ -82.350149379938941, 28.236318244361666 ], [ -82.349663379799836, 28.236359244384158 ], [ -82.350097379873361, 28.234791243995655 ], [ -82.350441379931596, 28.233549243687918 ], [ -82.350754379984764, 28.23242224340866 ], [ -82.35076137998584, 28.232395243401989 ], [ -82.350806379993514, 28.232234243362104 ], [ -82.351115380046622, 28.231141243091088 ], [ -82.351628380134983, 28.229332242642563 ], [ -82.352348380262299, 28.226893242036997 ], [ -82.352892380354547, 28.22493124155082 ], [ -82.352920380357787, 28.224785241514976 ], [ -82.35306538037544, 28.224052241334832 ], [ -82.35316238038132, 28.22338324117138 ], [ -82.353207380379828, 28.222945241064789 ], [ -82.353232380336294, 28.22141224069528 ], [ -82.353235380331185, 28.221231240651651 ], [ -82.353246380316449, 28.22068924052094 ], [ -82.353291380195941, 28.216654239548834 ], [ -82.353305380156868, 28.215352239235159 ], [ -82.353312380139101, 28.214752239090565 ], [ -82.353313380131155, 28.214503239030627 ], [ -82.353322380059353, 28.212254238489155 ], [ -82.353325380033553, 28.211447238294863 ], [ -82.353330379991959, 28.210146237981675 ], [ -82.353332379969856, 28.209460237816501 ], [ -82.353333379964951, 28.209302237778449 ], [ -82.353333379962336, 28.20922323775946 ], [ -82.353336379942832, 28.208607237611101 ], [ -82.353338379927237, 28.208118237493395 ], [ -82.353347379854554, 28.205841236945069 ], [ -82.353352379810943, 28.204478236616932 ], [ -82.353354379799683, 28.204120236530695 ], [ -82.353362379768399, 28.203102236285496 ], [ -82.353366379753197, 28.202607236166241 ], [ -82.353376379709673, 28.201203235828014 ], [ -82.353375379678326, 28.200263235601799 ], [ -82.353375379676606, 28.200211235589265 ], [ -82.353404379595148, 28.197490234933529 ], [ -82.3534223795467, 28.19586723454238 ], [ -82.353446379481994, 28.193695234018911 ], [ -82.353436379470494, 28.193435233956574 ], [ -82.35343537946585, 28.193303233924858 ], [ -82.353431379460218, 28.193168233892468 ], [ -82.353495379456263, 28.19248723372683 ], [ -82.35356437944067, 28.191411233466006 ], [ -82.353574379438882, 28.191270233431808 ], [ -82.353587379426486, 28.1907802333135 ], [ -82.35359037942402, 28.190679233289121 ], [ -82.353598379418884, 28.19045423323476 ], [ -82.353647379405302, 28.189614233031293 ], [ -82.353648379402316, 28.189514233007159 ], [ -82.353659379403027, 28.189439232988835 ], [ -82.353667379403007, 28.189369232971778 ], [ -82.353669379393764, 28.189072232900223 ], [ -82.353679379383124, 28.188660232800746 ], [ -82.353684379376148, 28.188406232739478 ], [ -82.353682379363661, 28.18804523265262 ], [ -82.353679379347128, 28.18756923253811 ], [ -82.353678379297051, 28.186061232175071 ], [ -82.353684379287174, 28.185709232090133 ], [ -82.353678379284972, 28.185695232086974 ], [ -82.353692379244904, 28.184359231764908 ], [ -82.353706379205747, 28.183048231448907 ], [ -82.353712379189673, 28.182509231318981 ], [ -82.353712379155809, 28.181482231071683 ], [ -82.353720379119892, 28.180322230792196 ], [ -82.353734379062942, 28.178473230346619 ], [ -82.353752378990578, 28.176120229779535 ], [ -82.353765378985685, 28.175857229715902 ], [ -82.353766378980794, 28.175700229678068 ], [ -82.353785378914509, 28.173522229153086 ], [ -82.353801378857042, 28.171639228699206 ], [ -82.353790378852509, 28.171597228689343 ], [ -82.353703378817087, 28.171285228616537 ], [ -82.353868378864775, 28.171286228612495 ], [ -82.353928378882145, 28.171286228610942 ], [ -82.355724379401281, 28.171291228565671 ], [ -82.355745379407395, 28.17129222856537 ], [ -82.355877379445488, 28.171292228561935 ], [ -82.355892379449841, 28.171292228561541 ], [ -82.356970379761464, 28.171296228534622 ], [ -82.357084379794387, 28.171295228531424 ], [ -82.357144379811729, 28.171295228529875 ], [ -82.358511380206295, 28.171283228491582 ], [ -82.359762380567901, 28.17128622845998 ], [ -82.360368380743068, 28.171287228444537 ], [ -82.361762381145724, 28.17128322840745 ], [ -82.362175381265004, 28.171282228396532 ], [ -82.362212381275739, 28.171282228395576 ], [ -82.362339381312481, 28.171283228392529 ], [ -82.363148381546551, 28.171295228374483 ], [ -82.363877381755955, 28.171256228346227 ], [ -82.363967381781833, 28.171252228342954 ], [ -82.36400838179361, 28.171250228341407 ], [ -82.364025381798399, 28.171247228340249 ], [ -82.364174381840797, 28.171227228331585 ], [ -82.364318381881759, 28.171208228323277 ], [ -82.381864386946049, 28.171049227830871 ], [ -82.38223038705398, 28.171116227837533 ], [ -82.382482387127993, 28.171153227839934 ], [ -82.382790387218307, 28.171193227841542 ], [ -82.383151387323707, 28.171227227840429 ], [ -82.383559387442219, 28.171246227834448 ], [ -82.384242387639546, 28.171247227816998 ], [ -82.385431387982507, 28.171230227782111 ], [ -82.385486387998398, 28.171229227780451 ], [ -82.385887388114085, 28.171225227769124 ], [ -82.388569388889792, 28.171251227705948 ], [ -82.388681388922208, 28.171253227703513 ], [ -82.389593389185819, 28.171258227681104 ], [ -82.391964389870893, 28.171262227620726 ], [ -82.39200538988274, 28.171262227619685 ], [ -82.392157389926666, 28.171262227615742 ], [ -82.392360389985328, 28.171262227610498 ], [ -82.392423390003543, 28.171262227608846 ], [ -82.393697390371543, 28.17126222757587 ], [ -82.393999390458902, 28.171265227568771 ], [ -82.394632390641661, 28.171262227551672 ], [ -82.394722390663233, 28.171128227517073 ], [ -82.394917390708059, 28.170778227427725 ], [ -82.402463392542089, 28.160284224705915 ], [ -82.404141392941227, 28.157688224037443 ], [ -82.405489393250051, 28.155241223413359 ], [ -82.406699393499352, 28.152197222649111 ], [ -82.407729393699142, 28.149227221907275 ], [ -82.408102393772211, 28.148175221644294 ], [ -82.409383394036823, 28.144971220839594 ], [ -82.410286394216755, 28.142512220224077 ], [ -82.410850394329231, 28.140979219840304 ], [ -82.41246139466665, 28.137089218861789 ], [ -82.417989395904684, 28.126178216090924 ], [ -82.418760396077474, 28.124657215704669 ], [ -82.418897396108008, 28.124383215635078 ], [ -82.420552396478257, 28.121103214802265 ], [ -82.420786396530289, 28.120630214682279 ], [ -82.423980397241507, 28.114195213049612 ], [ -82.424272397306567, 28.113607212900423 ], [ -82.424641397392165, 28.112968212736909 ], [ -82.425259397535669, 28.111903212464398 ], [ -82.425896397691886, 28.111057212244127 ], [ -82.426222397771895, 28.110625212131648 ], [ -82.42772539816346, 28.1093302117809 ], [ -82.427854398198093, 28.109251211758529 ], [ -82.429802398721705, 28.108063211422113 ], [ -82.430753398983043, 28.107658211299995 ], [ -82.430754398975921, 28.107432211245463 ], [ -82.430754398971885, 28.107309211215856 ], [ -82.430757398943612, 28.106421211001841 ], [ -82.430759398921509, 28.105729210835054 ], [ -82.430720398808504, 28.102625210088149 ], [ -82.430711398770001, 28.10153120982476 ], [ -82.430678398725007, 28.100448209564661 ], [ -82.430704398706297, 28.099649209371496 ], [ -82.43071639869882, 28.099314209290426 ], [ -82.43072139868228, 28.098766209158278 ], [ -82.430731398653265, 28.097793208923509 ], [ -82.430728398626584, 28.097005208733709 ], [ -82.430720398568411, 28.095299208322853 ], [ -82.430720398566962, 28.095255208312235 ], [ -82.430719398552768, 28.094831208210088 ], [ -82.43072639853456, 28.094214208061167 ], [ -82.430747398482353, 28.092435207631908 ], [ -82.430757398456336, 28.091553207419128 ], [ -82.43077139840976, 28.090007207046195 ], [ -82.430773398368856, 28.088741206741009 ], [ -82.430788398359283, 28.088315206637926 ], [ -82.430807398348264, 28.08781120651599 ], [ -82.430820398333921, 28.087259206382591 ], [ -82.430838398314719, 28.086513206202344 ], [ -82.430823398255114, 28.084825205795898 ], [ -82.430820398239121, 28.084363205684621 ], [ -82.430836398221999, 28.083698205523906 ], [ -82.430841398202404, 28.083056205369083 ], [ -82.430857398191336, 28.082575205252681 ], [ -82.430853398178655, 28.082223205167999 ], [ -82.430836398115133, 28.08043220473672 ], [ -82.429107397615439, 28.08042120477857 ], [ -82.428466397430512, 28.080425204796015 ], [ -82.427609397183289, 28.080433204820004 ], [ -82.426622396897571, 28.080412204840325 ], [ -82.426129396753623, 28.080364204841448 ], [ -82.425673396613931, 28.08011920479413 ], [ -82.425325396503297, 28.079810204728624 ], [ -82.425702396597231, 28.079353204608744 ], [ -82.425937396653865, 28.079010204520021 ], [ -82.426092396688318, 28.078695204440102 ], [ -82.426159396699944, 28.078459204381513 ], [ -82.426206396707371, 28.078271204334957 ], [ -82.426233396703751, 28.077922204250157 ], [ -82.426235396680639, 28.077197204075336 ], [ -82.426219396663569, 28.07681620398391 ], [ -82.426209396653149, 28.076587203928923 ], [ -82.426208396651802, 28.076555203921252 ], [ -82.426154396594441, 28.07527720361454 ], [ -82.426145396566028, 28.074487203424326 ], [ -82.426124396532884, 28.073659203225244 ], [ -82.42609539649925, 28.07288820304014 ], [ -82.426107396476553, 28.072087202846763 ], [ -82.426101396449695, 28.071318202661462 ], [ -82.426030396359181, 28.069177202147124 ], [ -82.426088396316999, 28.067374201710937 ], [ -82.426097396262108, 28.065615201286619 ], [ -82.426068396077355, 28.060216199985543 ], [ -82.426066396009205, 28.058146199486444 ], [ -82.42606539597223, 28.057023199215728 ], [ -82.426096395918393, 28.05510019875117 ], [ -82.426099395913184, 28.05491419870625 ], [ -82.426106395900703, 28.054469198598767 ], [ -82.426176395868396, 28.052860198208958 ], [ -82.426178395804286, 28.050878197730921 ], [ -82.426186395686983, 28.047213196846801 ], [ -82.426189395642311, 28.045817196510047 ], [ -82.426192395618457, 28.045058196326888 ], [ -82.426192395570098, 28.04357519596919 ], [ -82.427314395893688, 28.043564195937762 ], [ -82.427314395844618, 28.042059195574762 ], [ -82.427313395812035, 28.041069195335982 ], [ -82.428112396042792, 28.041069195315487 ], [ -82.428901396270533, 28.041067195294765 ], [ -82.428904396235808, 28.039975195031271 ], [ -82.429003396261677, 28.039892195008729 ], [ -82.428112396004664, 28.039900195033507 ], [ -82.427514395831835, 28.039896195047891 ], [ -82.42771839588805, 28.039813195022628 ], [ -82.427703395862522, 28.039162194865977 ], [ -82.429103396266882, 28.039165194830758 ], [ -82.429094396240856, 28.038446194657578 ], [ -82.42909439621728, 28.037722194482928 ], [ -82.429096396194169, 28.036996194307772 ], [ -82.429105396175629, 28.03634819415122 ], [ -82.429127396180505, 28.036303194139808 ], [ -82.429255396215694, 28.036248194123282 ], [ -82.429439396266247, 28.036169194099486 ], [ -82.429456396269927, 28.036131194089918 ], [ -82.429467396157122, 28.03257319323135 ], [ -82.430499396455303, 28.032578193206078 ], [ -82.434641397650665, 28.032559193095231 ], [ -82.434644397628261, 28.031845192922908 ], [ -82.434643397604646, 28.0311291927502 ], [ -82.434643397581524, 28.03041919257895 ], [ -82.434641397557499, 28.029699192405321 ], [ -82.43464139753101, 28.028886192209185 ], [ -82.434641397509992, 28.028241192053574 ], [ -82.434641397488861, 28.027592191897007 ], [ -82.436700398082962, 28.027580191841324 ], [ -82.436701398061231, 28.026904191678224 ], [ -82.434635397464575, 28.02689919173001 ], [ -82.434376397367984, 28.026230191575255 ], [ -82.434044397261118, 28.025892191502219 ], [ -82.434608397405867, 28.025337191353845 ], [ -82.434661397398244, 28.024632191182413 ], [ -82.434667397377581, 28.023944191016248 ], [ -82.434701397364506, 28.023241190845802 ], [ -82.434960397426039, 28.022834190740951 ], [ -82.4352433974977, 28.022525190659135 ], [ -82.435063397436423, 28.022239190594789 ], [ -82.434910397384286, 28.02199519053983 ], [ -82.434898397380138, 28.021975190535311 ], [ -82.435061397423382, 28.021856190502451 ], [ -82.435229397467253, 28.021714190463825 ], [ -82.435283397481314, 28.021668190451351 ], [ -82.43551139754257, 28.021526190411262 ], [ -82.435618397570821, 28.021446190389192 ], [ -82.436178397716802, 28.020963190258342 ], [ -82.436408397777299, 28.020782190208784 ], [ -82.436543397813423, 28.020694190184074 ], [ -82.436939397920256, 28.020463190118214 ], [ -82.437199397990085, 28.020303190072941 ], [ -82.437261398006399, 28.020254190059504 ], [ -82.437403398042491, 28.020101190018963 ], [ -82.437541398076235, 28.019914189970287 ], [ -82.437653398103009, 28.019743189926189 ], [ -82.437749398124879, 28.019564189880519 ], [ -82.437793398133778, 28.019447189851192 ], [ -82.437857398143564, 28.019180189785125 ], [ -82.438045398176783, 28.018533189624186 ], [ -82.438102398188718, 28.018393189588977 ], [ -82.438128398193072, 28.0182971895651 ], [ -82.43814339819339, 28.018174189535074 ], [ -82.438136398185705, 28.018000189493243 ], [ -82.438149398187107, 28.017927189475319 ], [ -82.43820539819869, 28.01778718944011 ], [ -82.438262398211478, 28.017673189411152 ], [ -82.438518398272933, 28.017291189312402 ], [ -82.438818398344054, 28.016815189189892 ], [ -82.438955398377217, 28.016619189139064 ], [ -82.439182398433587, 28.016336189064933 ], [ -82.439406398490078, 28.016084188998406 ], [ -82.439518398517734, 28.015942188961304 ], [ -82.439746398572524, 28.015601188873191 ], [ -82.439894398608388, 28.015391188818672 ], [ -82.4402213986898, 28.014990188713604 ], [ -82.440401398732618, 28.014709188641159 ], [ -82.440454398746098, 28.014654188626555 ], [ -82.440701398812081, 28.014490188580616 ], [ -82.440801398838133, 28.014404188557361 ], [ -82.440908398865332, 28.014290188527053 ], [ -82.441021398893398, 28.014149188490148 ], [ -82.441090398909765, 28.014041188462318 ], [ -82.441171398928063, 28.013883188422128 ], [ -82.441215398938738, 28.013821188406066 ], [ -82.441289398957636, 28.01374618838604 ], [ -82.441356398974534, 28.013670188365992 ], [ -82.441377398980094, 28.013655188361824 ], [ -82.441400398986573, 28.01365018836006 ], [ -82.441425398993815, 28.013651188359646 ], [ -82.441479399009765, 28.013661188360704 ], [ -82.441693399073955, 28.01373618837329 ], [ -82.441809399109175, 28.013789188383093 ], [ -82.441897399136536, 28.013849188395312 ], [ -82.441994399167456, 28.013939188414575 ], [ -82.442085399196856, 28.01403418843514 ], [ -82.442128399211299, 28.014097188449256 ], [ -82.442146399218018, 28.014144188460115 ], [ -82.442154399221963, 28.014193188471733 ], [ -82.442148399222603, 28.014267188489711 ], [ -82.442124399219409, 28.014382188518155 ], [ -82.442075399206189, 28.014410188526142 ], [ -82.442056399201277, 28.014428188530996 ], [ -82.442650399374898, 28.014492188531158 ], [ -82.442634399366469, 28.01437518850333 ], [ -82.442943399455316, 28.014364188492806 ], [ -82.442966399431057, 28.013414188262999 ], [ -82.442969399414991, 28.012894188137398 ], [ -82.442990399407719, 28.012484188037941 ], [ -82.443001399381558, 28.011582187820032 ], [ -82.442975399343652, 28.010648187595343 ], [ -82.442987399322249, 28.00988218741022 ], [ -82.442979399289968, 28.008962187188423 ], [ -82.442983399260939, 28.008034186964391 ], [ -82.442981399239486, 28.007392186809504 ], [ -82.442985399227766, 28.006996186713884 ], [ -82.442989399218902, 28.006686186638944 ], [ -82.44298939919922, 28.006081186492956 ], [ -82.442979399166873, 28.005176186274831 ], [ -82.442963399132339, 28.004255186052976 ], [ -82.44297139910519, 28.003349185834146 ], [ -82.442958399072097, 28.002447185616759 ], [ -82.442964399043291, 28.001506185389573 ], [ -82.442969399016093, 28.000625185176823 ], [ -82.442963398984773, 27.999714184957082 ], [ -82.44296139895458, 27.998804184737562 ], [ -82.442965398926518, 27.99790418452022 ], [ -82.442968398897804, 27.996993184300262 ], [ -82.442957398864692, 27.996072184078258 ], [ -82.442962398836514, 27.995161183858261 ], [ -82.442968398809967, 27.994288183647413 ], [ -82.442970398779053, 27.993319183413487 ], [ -82.442972398750086, 27.992409183193789 ], [ -82.442970398730438, 27.991822183052175 ], [ -82.442965398706193, 27.991119182882567 ], [ -82.442979398693538, 27.990606182758444 ], [ -82.4429793986818, 27.990245182671231 ], [ -82.442969398656999, 27.989569182508323 ], [ -82.442968398630825, 27.988772182316016 ], [ -82.442976398611421, 27.988103182154319 ], [ -82.442976398587533, 27.98736718197668 ], [ -82.442972398573247, 27.986963181879247 ], [ -82.442969398560592, 27.986599181791476 ], [ -82.442967398548447, 27.986243181705579 ], [ -82.442966398536242, 27.985875181616734 ], [ -82.442966398512183, 27.985134181437857 ], [ -82.442968398483245, 27.98422418121816 ], [ -82.442969398454423, 27.983327181001577 ], [ -82.442953398420386, 27.982421180783295 ], [ -82.442936398385129, 27.98148618055799 ], [ -82.442942398358269, 27.980603180344684 ], [ -82.442952398324437, 27.979472180071404 ], [ -82.442942398295727, 27.978675179879264 ], [ -82.442944398268764, 27.977826179674224 ], [ -82.442926398251743, 27.977462179586833 ], [ -82.442927398233323, 27.976885179447482 ], [ -82.442940398208123, 27.975993179231747 ], [ -82.442950398181026, 27.975067179007954 ], [ -82.442976398158891, 27.974153178786636 ], [ -82.442984398137767, 27.973431178612135 ], [ -82.442986398114499, 27.972694178434111 ], [ -82.442978398097509, 27.972242178325189 ], [ -82.442977398088502, 27.97197317826026 ], [ -82.442981398065555, 27.971230178080763 ], [ -82.442971398039248, 27.970507177906448 ], [ -82.442955397974259, 27.968644177457012 ], [ -82.442956397962135, 27.968261177364507 ], [ -82.442954397934514, 27.967426177162942 ], [ -82.442960397916352, 27.966813177014799 ], [ -82.442962397891293, 27.966021176823507 ], [ -82.442959397863461, 27.965188176622419 ], [ -82.442950397854901, 27.96500417657818 ], [ -82.442939397844057, 27.964768176521524 ], [ -82.44294039784117, 27.964671176498062 ], [ -82.442942397833178, 27.964404176433536 ], [ -82.442971397824095, 27.963866176302876 ], [ -82.442966397798799, 27.963129176125019 ], [ -82.44296639777636, 27.962436175957652 ], [ -82.442969397753899, 27.961716175783693 ], [ -82.442972397731708, 27.961004175611723 ], [ -82.442971397708405, 27.960293175440036 ], [ -82.442978397684655, 27.95949817524788 ], [ -82.442970397661114, 27.958841175089422 ], [ -82.442973397638895, 27.958129174917374 ], [ -82.442969397614121, 27.957399174741212 ], [ -82.44297339759251, 27.956696174571288 ], [ -82.442967397567202, 27.955967174395408 ], [ -82.442966397562145, 27.955819174359672 ], [ -82.444263397936666, 27.955823174327591 ] ] ] ] } }
]
}
