{
"type": "FeatureCollection",
"name": "DISTRICT_13",
"crs": { "type": "name", "properties": { "name": "urn:ogc:def:crs:OGC:1.3:CRS84" } },
"xy_coordinate_resolution": 1e-15,
"features": [
{ "type": "Feature", "properties": { "LONGNAME": "District 13", "SHORTNAME": "D13", "DISTRICT": 13, "COLOR": -136297088, "TOTAL": 769221, "TARGET_DEV": 0 }, "geometry": { "type": "MultiPolygon", "coordinates": [ [ [ [ -82.736732477964281, 27.822027134572689 ], [ -82.736728477972306, 27.822315134642338 ], [ -82.73672147798564, 27.822793134757951 ], [ -82.736711477993026, 27.823112134835242 ], [ -82.736712478017935, 27.82387913502043 ], [ -82.736710478040237, 27.824591135192478 ], [ -82.73671547806471, 27.825310135365989 ], [ -82.736706478074623, 27.825700135460377 ], [ -82.736711478079627, 27.825809135486573 ], [ -82.736698478106689, 27.826770135719002 ], [ -82.73670347812876, 27.82741313587411 ], [ -82.736688478139897, 27.827893135990394 ], [ -82.736676478147842, 27.828249136076682 ], [ -82.736848478197174, 27.828241136070403 ], [ -82.737108478271651, 27.82822913606088 ], [ -82.737180478292274, 27.828226136058323 ], [ -82.737860478488628, 27.828240136044485 ], [ -82.73831947862061, 27.828233136031162 ], [ -82.739100478845515, 27.8282311360108 ], [ -82.739940479087267, 27.828225135988042 ], [ -82.740243479174467, 27.828223135979879 ], [ -82.740564479267078, 27.828227135972668 ], [ -82.74073047931472, 27.82822213596728 ], [ -82.74263447986128, 27.828163135904681 ], [ -82.742534479835669, 27.828263135931412 ], [ -82.742515479833159, 27.828356135954323 ], [ -82.742540479841821, 27.828400135964319 ], [ -82.742587479851636, 27.828284135935135 ], [ -82.742751479894721, 27.828155135899802 ], [ -82.742918479943896, 27.828190135904052 ], [ -82.743027479976959, 27.828241135913579 ], [ -82.742786479919261, 27.828606136007817 ], [ -82.742701479910295, 27.829088136126412 ], [ -82.742742479938528, 27.829601136249185 ], [ -82.742749479946653, 27.829790136294665 ], [ -82.742522479881345, 27.82979213630092 ], [ -82.742522479887853, 27.82999513634994 ], [ -82.74254147989528, 27.830056136364188 ], [ -82.742671479937115, 27.830193136393966 ], [ -82.742776479976385, 27.830474136459131 ], [ -82.7428074799911, 27.830655136502049 ], [ -82.742950480038914, 27.830859136547687 ], [ -82.74309948009379, 27.831233136634214 ], [ -82.743210480130742, 27.831387136668599 ], [ -82.743606480257867, 27.831794136756809 ], [ -82.743712480292473, 27.831920136784507 ], [ -82.74353848024235, 27.831920136788934 ], [ -82.743408480203811, 27.831887136784289 ], [ -82.743346480187896, 27.831948136800609 ], [ -82.743596480261729, 27.832005136808 ], [ -82.743826480327556, 27.831990136798513 ], [ -82.744049480389435, 27.831917136775235 ], [ -82.744350480481685, 27.832090136809377 ], [ -82.74491448065433, 27.832408136871855 ], [ -82.746273481070943, 27.833192137026643 ], [ -82.746367481099014, 27.833221137031249 ], [ -82.746460481126746, 27.833251137036097 ], [ -82.746680481193948, 27.833371137059537 ], [ -82.747896481571857, 27.834232137236537 ], [ -82.748426481734185, 27.83453313729574 ], [ -82.750001482217712, 27.835462137480043 ], [ -82.752703483043092, 27.836929137765591 ], [ -82.752733483052879, 27.836965137773483 ], [ -82.752750483058236, 27.836979137776449 ], [ -82.752496483019982, 27.838064138044842 ], [ -82.752158482941354, 27.838647138194176 ], [ -82.751900482882903, 27.839141138319995 ], [ -82.752040482923235, 27.839142138316678 ], [ -82.752182482964201, 27.839143138313311 ], [ -82.7538554834465, 27.839156138273975 ], [ -82.754317483579655, 27.839158138262697 ], [ -82.755331483873093, 27.839202138247565 ], [ -82.756208484126432, 27.839225138230837 ], [ -82.756495484208855, 27.839219138222113 ], [ -82.75671548427249, 27.83922713821844 ], [ -82.757671484548823, 27.839257138201372 ], [ -82.757814484590128, 27.83926113819869 ], [ -82.758056484660017, 27.83926713819406 ], [ -82.758119484678204, 27.839269138192908 ], [ -82.75936048503651, 27.839295138167657 ], [ -82.759952485207265, 27.839303138154534 ], [ -82.760697485422583, 27.839327138141385 ], [ -82.761308485599116, 27.839345138130209 ], [ -82.762158485844836, 27.83937313811537 ], [ -82.762910486061159, 27.839366138094594 ], [ -82.763625486267145, 27.839367138076685 ], [ -82.763973486367618, 27.83937613807004 ], [ -82.764402486491235, 27.839376138059137 ], [ -82.765790486890225, 27.839354138018543 ], [ -82.766548487108508, 27.839353137998984 ], [ -82.767455487369688, 27.839353137975959 ], [ -82.767972487518804, 27.839359137964301 ], [ -82.769291487898869, 27.839365137932216 ], [ -82.769642487999988, 27.839367137923777 ], [ -82.769977488095876, 27.839348137910672 ], [ -82.770149488145378, 27.839347137906053 ], [ -82.770535488256471, 27.839345137895776 ], [ -82.770747488317511, 27.839345137890394 ], [ -82.770926488369071, 27.839345137885839 ], [ -82.774028489262321, 27.839343137806534 ], [ -82.77405648927035, 27.839342137805591 ], [ -82.77424048932356, 27.839347137802111 ], [ -82.774442489381812, 27.839352137798173 ], [ -82.779031490703019, 27.839342137679168 ], [ -82.779973490974754, 27.839356137658626 ], [ -82.781246491342756, 27.839399137636672 ], [ -82.781470491407461, 27.839406137632654 ], [ -82.783038491860665, 27.839459137605552 ], [ -82.783238491918439, 27.839464137601688 ], [ -82.78459349230981, 27.839502137576435 ], [ -82.785666492620237, 27.83954613755979 ], [ -82.787066493024881, 27.839594137535794 ], [ -82.78818149334586, 27.839590137506491 ], [ -82.789022493588561, 27.839607137489232 ], [ -82.789376493690568, 27.839609137480714 ], [ -82.790151493913868, 27.839614137462199 ], [ -82.791268494236789, 27.839653137443257 ], [ -82.791330494254751, 27.83965613744239 ], [ -82.791583494328222, 27.83967613744079 ], [ -82.791999494449598, 27.839726137442259 ], [ -82.79246749458845, 27.839853137461056 ], [ -82.793150494796606, 27.840211137530105 ], [ -82.793325494850492, 27.840319137551663 ], [ -82.793681494961547, 27.840585137606809 ], [ -82.794293495152658, 27.841048137703027 ], [ -82.795318495471079, 27.841771137851438 ], [ -82.796318495782558, 27.842503138002623 ], [ -82.796643495883842, 27.842742138052078 ], [ -82.797021495999672, 27.842960138095091 ], [ -82.797258496071692, 27.843077138117295 ], [ -82.797374496106727, 27.84312813812663 ], [ -82.797709496207375, 27.843258138149483 ], [ -82.797903496264638, 27.843301138154935 ], [ -82.798069496313744, 27.843343138160865 ], [ -82.798582496463823, 27.843416138165413 ], [ -82.798981496579287, 27.843435138159855 ], [ -82.799415496704313, 27.843436138149055 ], [ -82.800168496921302, 27.843442138131358 ], [ -82.800297496958535, 27.843444138128568 ], [ -82.800613497049582, 27.843446138121017 ], [ -82.800813497107214, 27.843447138116161 ], [ -82.801285497243356, 27.843455138106119 ], [ -82.801730497371736, 27.843463138096723 ], [ -82.801988497446033, 27.84346413809039 ], [ -82.802091497475743, 27.843465138088014 ], [ -82.802407497567032, 27.843474138082186 ], [ -82.80263349763203, 27.843472138075906 ], [ -82.802868497699563, 27.843469138069214 ], [ -82.803411497856516, 27.843488138060003 ], [ -82.803449497867518, 27.843489138059269 ], [ -82.803542497894853, 27.843507138061263 ], [ -82.80357449790408, 27.843508138060681 ], [ -82.803665497930325, 27.843509138058611 ], [ -82.804132498065002, 27.84351513804819 ], [ -82.804237498095276, 27.843517138045982 ], [ -82.804224498084551, 27.843300137993982 ], [ -82.805454498439403, 27.843322137968013 ], [ -82.805535498469681, 27.843537138017805 ], [ -82.806607498778277, 27.843537137990555 ], [ -82.806823498840572, 27.843539137985527 ], [ -82.807176498942511, 27.843550137979232 ], [ -82.807582499059507, 27.843553137969614 ], [ -82.807938499162105, 27.843556137961304 ], [ -82.808110499211708, 27.843558137957395 ], [ -82.808494499322336, 27.843560137948117 ], [ -82.809147499510587, 27.843568137933467 ], [ -82.809214499530057, 27.843573137932964 ], [ -82.809274499547342, 27.84357313793145 ], [ -82.809639499652945, 27.843589137926042 ], [ -82.810760499976197, 27.84360513790136 ], [ -82.810788499984127, 27.843601137899693 ], [ -82.811464500179127, 27.843613137885402 ], [ -82.811694500245451, 27.843617137880518 ], [ -82.81169750022751, 27.843032137739304 ], [ -82.811700500214272, 27.842595137633751 ], [ -82.811701500207818, 27.842385137583051 ], [ -82.811697500198591, 27.842134137522617 ], [ -82.811691500186328, 27.841806137443591 ], [ -82.811697500154338, 27.840759137190833 ], [ -82.811689500125809, 27.839943136994137 ], [ -82.811684500006407, 27.836276136109376 ], [ -82.811720499989107, 27.835417135901189 ], [ -82.81168449995856, 27.834788135750298 ], [ -82.811650499928419, 27.834156135598644 ], [ -82.811519499850121, 27.83289413529743 ], [ -82.811506499836369, 27.832582135222445 ], [ -82.811507499805998, 27.831628134992165 ], [ -82.811530499800114, 27.831240134897964 ], [ -82.817030501308665, 27.828911134196169 ], [ -82.818068501600536, 27.828695134117659 ], [ -82.818921501870818, 27.829464134281547 ], [ -82.820381502333575, 27.830783134562797 ], [ -82.821728502740854, 27.831390134675054 ], [ -82.826534504194072, 27.833558135076068 ], [ -82.827129504368116, 27.833643135081456 ], [ -82.827259504405916, 27.833656135081277 ], [ -82.827524504483591, 27.83369913508492 ], [ -82.828224504688293, 27.833798135091062 ], [ -82.832801506026243, 27.834432135127663 ], [ -82.83381250635999, 27.835761135422615 ], [ -82.834452506571438, 27.8366061356102 ], [ -82.834725506661385, 27.836960135688699 ], [ -82.835131506773152, 27.836801135640016 ], [ -82.835563506891873, 27.836626135586794 ], [ -82.835898506988613, 27.836636135580729 ], [ -82.836072507038651, 27.836634135575821 ], [ -82.836198507081846, 27.836850135624701 ], [ -82.83649950716422, 27.836717135584941 ], [ -82.836460507150662, 27.836644135568342 ], [ -82.836973507298552, 27.836651135556959 ], [ -82.837620507485241, 27.836664135543689 ], [ -82.84157750862839, 27.836795135474695 ], [ -82.842083508774451, 27.836807135464678 ], [ -82.845938509888953, 27.836959135403333 ], [ -82.836564506686216, 27.821267131855222 ], [ -82.83608450651974, 27.820387131655057 ], [ -82.834836506110676, 27.818835131312163 ], [ -82.84401850874238, 27.818485130994581 ], [ -82.854035511612494, 27.818082130642949 ], [ -82.864385514604734, 27.818504130481873 ], [ -82.875003517629324, 27.817538129979152 ], [ -83.010443556524436, 27.815645126079815 ], [ -83.011103556787518, 27.817925126612643 ], [ -83.011813557076309, 27.820555127228427 ], [ -83.012513557368663, 27.823385127892649 ], [ -83.015123558475977, 27.834465130496181 ], [ -83.015973558835071, 27.83802513133228 ], [ -83.016813559202717, 27.841935132252924 ], [ -83.017303559423837, 27.844425132840321 ], [ -83.017953559737862, 27.848365133772916 ], [ -83.018383559959616, 27.851405134494225 ], [ -83.018743560161894, 27.854465135222117 ], [ -83.019003560323881, 27.857165135865824 ], [ -83.019083560375933, 27.858065136080548 ], [ -83.020162561132423, 27.871871139377799 ], [ -83.020333561252258, 27.874055139899305 ], [ -83.020463561345935, 27.875795140314949 ], [ -83.020543561450452, 27.878315140919629 ], [ -83.020543561538489, 27.881035141574522 ], [ -83.02047356161809, 27.884115142317857 ], [ -83.02043356164188, 27.885205142581281 ], [ -83.020343561674608, 27.887015143019291 ], [ -83.020043561760758, 27.892335144307662 ], [ -83.019983561778503, 27.893415144569161 ], [ -83.019793561805244, 27.895925145178161 ], [ -83.019523561820336, 27.898785145873468 ], [ -83.01935356182365, 27.900395146265343 ], [ -83.019053561812669, 27.902715146831419 ], [ -83.018803561798535, 27.904495147266204 ], [ -83.018533561778668, 27.906275147701496 ], [ -83.017384561678597, 27.913370149438347 ], [ -83.016053561562728, 27.921585151449161 ], [ -83.014743561449365, 27.929685153431567 ], [ -83.014403561415662, 27.931655153914189 ], [ -83.014083561381838, 27.933445154353059 ], [ -83.013613561322188, 27.935765154923207 ], [ -83.013281561278262, 27.937350155312984 ], [ -83.010783560948539, 27.949285158247825 ], [ -83.010173560863706, 27.952065158932129 ], [ -83.009493560758784, 27.954845159618134 ], [ -83.009003560680085, 27.956755160090076 ], [ -83.00670356029751, 27.965305162205198 ], [ -83.005083560027742, 27.971315163691926 ], [ -83.004193559874935, 27.974475164474548 ], [ -83.003223559698171, 27.977605165252015 ], [ -83.002423559547097, 27.9800251658544 ], [ -83.001503559366839, 27.982605166498271 ], [ -83.000343559134208, 27.985695167270933 ], [ -82.999383558935889, 27.98807516786778 ], [ -82.998453558740025, 27.990265168418112 ], [ -82.998333558764358, 27.99206516885388 ], [ -82.997573558991647, 28.005695172149291 ], [ -82.997513559082392, 28.008995172943802 ], [ -82.997463559191146, 28.012755173848575 ], [ -82.998383559509136, 28.01438517421655 ], [ -82.99929355983042, 28.016205174630372 ], [ -82.999363559933172, 28.018725175233968 ], [ -82.99937356000747, 28.020905175757481 ], [ -82.999373560054977, 28.022355176105862 ], [ -82.999243560165795, 28.02687517719502 ], [ -82.999893560427495, 28.029155177725965 ], [ -83.000523560677891, 28.031265178216493 ], [ -83.001393561032117, 28.034435178955452 ], [ -83.002423561436942, 28.03774517972386 ], [ -83.003483561849833, 28.041035180486613 ], [ -83.004663562320872, 28.045045181419106 ], [ -83.005623562718213, 28.048735182280385 ], [ -83.006083562913901, 28.050665182731933 ], [ -83.006823563237816, 28.054045183524366 ], [ -83.007533563565616, 28.057805184408746 ], [ -83.008193563891624, 28.061945185385593 ], [ -83.008753564201101, 28.066455186453744 ], [ -83.009163564468125, 28.070985187530553 ], [ -83.009413564677345, 28.075155188524985 ], [ -83.009523564852643, 28.079515189568564 ], [ -83.009533564915131, 28.081325190002666 ], [ -83.009503565079569, 28.086575191263346 ], [ -83.009503565096097, 28.08707519138331 ], [ -83.009613565184139, 28.088785191790805 ], [ -83.010213565445028, 28.09146519241833 ], [ -83.010723565674212, 28.093965193004951 ], [ -83.011203565901013, 28.096655193637957 ], [ -83.011733566160373, 28.099895194401533 ], [ -83.012303566467281, 28.104225195425503 ], [ -83.012613566657848, 28.107295196153878 ], [ -83.012933566887668, 28.111465197145893 ], [ -83.013123567098361, 28.116185198273055 ], [ -83.013163567175667, 28.118175198749341 ], [ -83.013143567284345, 28.121635199579611 ], [ -83.013113567329611, 28.12326519997135 ], [ -83.013033567378727, 28.125445200496248 ], [ -83.012803567438382, 28.129245201413443 ], [ -83.012593567462361, 28.131795202030414 ], [ -83.01251356750393, 28.13374520250002 ], [ -83.012783567620019, 28.134905202771161 ], [ -83.013823568070123, 28.139465203837389 ], [ -83.014273568270809, 28.141615204341154 ], [ -83.014633568445603, 28.143765204847195 ], [ -83.017173569692545, 28.159335208513205 ], [ -83.017513569861691, 28.161485209019588 ], [ -83.017863570045662, 28.16399520961204 ], [ -83.018753570533832, 28.170985211263847 ], [ -83.019276570820807, 28.175094212234793 ], [ -83.020203571328153, 28.18233521394539 ], [ -83.02141357200594, 28.192245216287805 ], [ -83.022053572412119, 28.198915217868631 ], [ -83.022363572723847, 28.205595219460282 ], [ -83.022363572916873, 28.211385220846847 ], [ -83.022243572997127, 28.214825221673653 ], [ -83.02163357303121, 28.221105223193231 ], [ -83.020253572976515, 28.231355225683242 ], [ -83.019423572905566, 28.236375226906638 ], [ -83.018563572785851, 28.240195227843468 ], [ -83.016983572540738, 28.246455229383159 ], [ -83.015293572248993, 28.252265230817915 ], [ -83.013993572003216, 28.256095231768548 ], [ -83.012403571690527, 28.260415232844004 ], [ -83.010943571390754, 28.264005233741337 ], [ -83.009923571177112, 28.266385234337598 ], [ -82.84008952227849, 28.2659842386972 ], [ -82.754348497570973, 28.265827240905285 ], [ -82.749826496267744, 28.265827241023679 ], [ -82.749821496163037, 28.262734240282249 ], [ -82.749871496176681, 28.26271124027544 ], [ -82.750401496275558, 28.261097239874644 ], [ -82.749818496096921, 28.260779239813658 ], [ -82.749816496040751, 28.259113239414283 ], [ -82.749815496032113, 28.25886223935407 ], [ -82.749812495920963, 28.255557238561753 ], [ -82.750006495973054, 28.255444238529602 ], [ -82.750260496046522, 28.255453238525096 ], [ -82.750428496091473, 28.255348238495507 ], [ -82.75039749607518, 28.255128238443611 ], [ -82.751242496317474, 28.255090238412354 ], [ -82.752111496563515, 28.254958238357979 ], [ -82.752260496611214, 28.255101238388338 ], [ -82.752726496744089, 28.255058238365855 ], [ -82.753161496873446, 28.255179238383523 ], [ -82.753664497015151, 28.25508023834659 ], [ -82.754214497174857, 28.255117238341089 ], [ -82.754248497184733, 28.255119238340676 ], [ -82.754503497266285, 28.255361238392041 ], [ -82.754919497394596, 28.255614238441815 ], [ -82.755540497579091, 28.255779238465088 ], [ -82.756143497755119, 28.255846238465391 ], [ -82.756839497953308, 28.255774238429943 ], [ -82.757970498256867, 28.255104238239706 ], [ -82.758162498305708, 28.254911238188424 ], [ -82.758415498370226, 28.254658238121163 ], [ -82.758486498388294, 28.254587238102296 ], [ -82.758657498417293, 28.25398023795228 ], [ -82.758741498431604, 28.253683237878818 ], [ -82.758917498461699, 28.253064237725841 ], [ -82.759333498532584, 28.251596237362989 ], [ -82.759434498549709, 28.251236237274025 ], [ -82.760212498682506, 28.248496236596658 ], [ -82.760644498756278, 28.246974236220399 ], [ -82.76083749878967, 28.246308236055686 ], [ -82.761416498889915, 28.244310235561429 ], [ -82.761610498923673, 28.243645235396894 ], [ -82.76169549894442, 28.24353423536806 ], [ -82.761950499006872, 28.243202235281775 ], [ -82.762036499027957, 28.243092235253137 ], [ -82.762129499051866, 28.243004235229595 ], [ -82.762117499040897, 28.242779235175959 ], [ -82.762191499048811, 28.242377235077615 ], [ -82.762409499082494, 28.241503234862311 ], [ -82.762537499095458, 28.240785234686768 ], [ -82.762546499096459, 28.240738234675284 ], [ -82.762888499154528, 28.239522234374721 ], [ -82.76318149920543, 28.238516234125854 ], [ -82.763523499239881, 28.236591233655243 ], [ -82.763766499268968, 28.235364233354638 ], [ -82.764127499325951, 28.233951233006316 ], [ -82.764157499329613, 28.23380123296954 ], [ -82.764643499391639, 28.231459232395135 ], [ -82.764641499384354, 28.231257232346753 ], [ -82.764638499366342, 28.230742232223296 ], [ -82.76463049931354, 28.229225231859676 ], [ -82.764621499257217, 28.227612231473007 ], [ -82.764613499204941, 28.226110231112983 ], [ -82.764594499080204, 28.222526230253727 ], [ -82.764582499002486, 28.220293229718386 ], [ -82.764598499007008, 28.22029222971771 ], [ -82.764623499011464, 28.22021022969745 ], [ -82.764548498987878, 28.220149229684765 ], [ -82.764207498882456, 28.21993422964206 ], [ -82.764027498826778, 28.219819229619151 ], [ -82.763741498737403, 28.219610229576507 ], [ -82.763592498691722, 28.219527229560477 ], [ -82.763580498681293, 28.219318229510659 ], [ -82.763474498648364, 28.219247229496396 ], [ -82.763306498597217, 28.219164229480864 ], [ -82.763102498536028, 28.219092229468927 ], [ -82.762915498481007, 28.219059229465895 ], [ -82.762797498446872, 28.219054229467734 ], [ -82.762717498421637, 28.218988229453988 ], [ -82.762698498413968, 28.218922229438636 ], [ -82.762717498417629, 28.218867229424998 ], [ -82.762710498412645, 28.218779229404053 ], [ -82.762669498398409, 28.218705229387385 ], [ -82.762629498384456, 28.21863222937094 ], [ -82.762579498367089, 28.218543229350882 ], [ -82.762530498349975, 28.218454229330785 ], [ -82.762543498348066, 28.218284229289658 ], [ -82.762767498408039, 28.218146229250713 ], [ -82.762897498441689, 28.21803122921974 ], [ -82.763003498463974, 28.217783229157462 ], [ -82.763003498459199, 28.217640229123145 ], [ -82.762978498447794, 28.217514229093592 ], [ -82.763046498459715, 28.217283229036418 ], [ -82.763164498487171, 28.21708522898583 ], [ -82.763208498496354, 28.216980228959471 ], [ -82.763307498522309, 28.216903228938445 ], [ -82.763388498542213, 28.216799228911356 ], [ -82.763438498539571, 28.216287228787198 ], [ -82.763730498608368, 28.215825228668784 ], [ -82.76384249863041, 28.215517228591931 ], [ -82.763873498633814, 28.215352228551573 ], [ -82.763848498623517, 28.215259228529909 ], [ -82.763786498603082, 28.21518222851304 ], [ -82.763724498584253, 28.215154228507931 ], [ -82.763600498547646, 28.215126228504474 ], [ -82.763401498489785, 28.215110228505811 ], [ -82.763364498478339, 28.215088228501511 ], [ -82.763308498461512, 28.215066228497673 ], [ -82.763215498433055, 28.215016228488121 ], [ -82.763159498414879, 28.214956228475163 ], [ -82.763097498393947, 28.214862228454244 ], [ -82.763097498391218, 28.214780228434556 ], [ -82.763072498379387, 28.214642228402106 ], [ -82.763066498374201, 28.214538228377343 ], [ -82.763085498377137, 28.214461228358363 ], [ -82.763116498384946, 28.214428228349643 ], [ -82.763203498409652, 28.214417228344704 ], [ -82.763203498420268, 28.214736228421227 ], [ -82.763234498433619, 28.214868228452104 ], [ -82.763271498447693, 28.214972228476103 ], [ -82.763432498495746, 28.21502222848391 ], [ -82.763619498549829, 28.215027228480189 ], [ -82.763681498567919, 28.215033228480049 ], [ -82.763811498604028, 28.214994228467287 ], [ -82.763973498647985, 28.214912228443374 ], [ -82.764078498673342, 28.214764228405159 ], [ -82.764227498708408, 28.214527228344387 ], [ -82.764271498718173, 28.214439228322131 ], [ -82.764470498766201, 28.21415922824978 ], [ -82.764538498783253, 28.21408222822949 ], [ -82.764588498794708, 28.213994228207145 ], [ -82.764631498803979, 28.213900228183402 ], [ -82.764706498821184, 28.213768228149778 ], [ -82.764898498868106, 28.213515228084084 ], [ -82.765215498948677, 28.213191227998109 ], [ -82.76530649897137, 28.213085227970275 ], [ -82.76514949892605, 28.213082227973672 ], [ -82.76467849879009, 28.213075227984294 ], [ -82.764634498777369, 28.213074227985192 ], [ -82.764522498745066, 28.213073227987874 ], [ -82.76443949872295, 28.213128228003217 ], [ -82.764339498695321, 28.21316322801426 ], [ -82.764226498663589, 28.213188228023188 ], [ -82.764055498614567, 28.21319522802931 ], [ -82.76399849859817, 28.213195228030809 ], [ -82.762351498123991, 28.213209228077137 ], [ -82.76180349796627, 28.213214228092639 ], [ -82.761074497756567, 28.213225228114258 ], [ -82.758888497127842, 28.213260228179699 ], [ -82.75816049691845, 28.213273228201849 ], [ -82.757152496628919, 28.213300228234591 ], [ -82.756679496493106, 28.213314228250244 ], [ -82.756553496458523, 28.213367228266303 ], [ -82.756514496448602, 28.213408228277139 ], [ -82.756502496447339, 28.213472228292762 ], [ -82.756501496470221, 28.21416922846004 ], [ -82.753813495695624, 28.214170228530385 ], [ -82.753746495674307, 28.214110228517772 ], [ -82.753658495648367, 28.214093228515974 ], [ -82.753587495627968, 28.214094228518064 ], [ -82.752839495413127, 28.21411522854261 ], [ -82.752590495341607, 28.214122228550782 ], [ -82.752431495295824, 28.214123228555149 ], [ -82.752125495207736, 28.214126228563849 ], [ -82.750731494806502, 28.214141228603832 ], [ -82.7504604947285, 28.214144228611616 ], [ -82.750268494673719, 28.214160228620496 ], [ -82.750209494657199, 28.214175228625631 ], [ -82.750054494613906, 28.214216228639472 ], [ -82.750033494608076, 28.214223228641725 ], [ -82.749976494592403, 28.214245228648515 ], [ -82.749850494557592, 28.21429122866282 ], [ -82.749625494496215, 28.214395228693601 ], [ -82.749438494443879, 28.214441228709518 ], [ -82.749303494405055, 28.214444228713816 ], [ -82.748260494105253, 28.214466228746257 ], [ -82.747783493968001, 28.21447422876064 ], [ -82.747173493792161, 28.214472228776078 ], [ -82.747045493754797, 28.214457228775789 ], [ -82.746977493734406, 28.214433228771824 ], [ -82.746932493720479, 28.214404228766035 ], [ -82.746902493710863, 28.214376228760123 ], [ -82.746875493701751, 28.214336228751215 ], [ -82.74678949367221, 28.214193228719097 ], [ -82.746679493634929, 28.214025228681702 ], [ -82.746627493617169, 28.213941228662872 ], [ -82.746504493578144, 28.213833228640169 ], [ -82.746405493548025, 28.213786228631474 ], [ -82.746257493503066, 28.213715228618305 ], [ -82.746098493456103, 28.213681228614316 ], [ -82.745956493414667, 28.213667228614643 ], [ -82.744244492921894, 28.213684228663372 ], [ -82.744040492863448, 28.213695228671327 ], [ -82.743687492763058, 28.213736228690369 ], [ -82.743442492694328, 28.21379122870999 ], [ -82.743120492604604, 28.213885228740931 ], [ -82.742800492515556, 28.213980228772069 ], [ -82.74276749250032, 28.213807228731387 ], [ -82.742671492455372, 28.213288228609365 ], [ -82.742639492440418, 28.213115228568668 ], [ -82.742454492388148, 28.213146228580968 ], [ -82.74232749235226, 28.213168228589552 ], [ -82.742109492290041, 28.213187228599804 ], [ -82.741895492228736, 28.213197228607772 ], [ -82.741772492193462, 28.213203228612386 ], [ -82.741709492175431, 28.213206228614816 ], [ -82.741405492088873, 28.213239228630634 ], [ -82.741233492039981, 28.213259228639924 ], [ -82.741168492021885, 28.21327722864595 ], [ -82.741096492002356, 28.213315228656899 ], [ -82.741029491985742, 28.213396228678111 ], [ -82.741001491980896, 28.213493228702092 ], [ -82.741010491986557, 28.2135842287237 ], [ -82.741054492002391, 28.213679228745384 ], [ -82.741134492031179, 28.213852228784781 ], [ -82.741262492077311, 28.21413022884818 ], [ -82.741197492058603, 28.214131228850107 ], [ -82.741015492006568, 28.214143228857711 ], [ -82.740943491985348, 28.214129228856269 ], [ -82.740893491970596, 28.214120228855382 ], [ -82.740755491929264, 28.214072228847456 ], [ -82.740559491869277, 28.213966228827129 ], [ -82.74029849178838, 28.213796228793175 ], [ -82.740265491778587, 28.213788228792072 ], [ -82.740187491755535, 28.213770228789841 ], [ -82.740016491707323, 28.213803228802185 ], [ -82.739931491687159, 28.213932228835375 ], [ -82.739920491684529, 28.213949228839756 ], [ -82.739935491703591, 28.214392228945627 ], [ -82.739941491710468, 28.214547228982678 ], [ -82.739948491747739, 28.215608229237066 ], [ -82.739923491757722, 28.216126229362025 ], [ -82.739909491760542, 28.216331229411562 ], [ -82.739870491752512, 28.216428229435888 ], [ -82.739793491734474, 28.216552229467638 ], [ -82.739752491724872, 28.21661922948477 ], [ -82.739514491663371, 28.21683322954237 ], [ -82.739328491613009, 28.216930229570476 ], [ -82.7391914915749, 28.216971229583894 ], [ -82.73917049156907, 28.216978229586097 ], [ -82.738943491504543, 28.217004229598249 ], [ -82.737936491214157, 28.217000229623576 ], [ -82.737460491076902, 28.2169982296355 ], [ -82.737226491009181, 28.21699022963972 ], [ -82.737001490946156, 28.217043229658298 ], [ -82.735496490512574, 28.217049229698958 ], [ -82.734807490314438, 28.217063229720324 ], [ -82.733829490034125, 28.217109229756865 ], [ -82.731734489429996, 28.217099229809062 ], [ -82.729998488929752, 28.217104229855593 ], [ -82.728643488539106, 28.21710022988993 ], [ -82.727958488341713, 28.217101229908089 ], [ -82.727802488296803, 28.217102229912392 ], [ -82.72593248775739, 28.217090229958245 ], [ -82.722960486902906, 28.217154230051118 ], [ -82.721418486458816, 28.21716623009419 ], [ -82.719396485874242, 28.217112230133989 ], [ -82.71876848569319, 28.217111230150127 ], [ -82.71529948469319, 28.217109230240105 ], [ -82.711801483684852, 28.217109230331324 ], [ -82.709295482962816, 28.217119230399032 ], [ -82.707078482323624, 28.217116230456142 ], [ -82.705718481931669, 28.217119230492326 ], [ -82.702267480936229, 28.217100230577731 ], [ -82.698945479979955, 28.217143230674665 ], [ -82.696740479345237, 28.217172230739141 ], [ -82.692747478195898, 28.217225230855938 ], [ -82.692746478189903, 28.217054230814906 ], [ -82.692229478040773, 28.217051230827643 ], [ -82.690679477593662, 28.217044230866406 ], [ -82.690163477444827, 28.2170422308794 ], [ -82.689570477273875, 28.217042230894858 ], [ -82.68844347694899, 28.217043230924464 ], [ -82.687795476762204, 28.217044230941593 ], [ -82.687203476591577, 28.217045230957247 ], [ -82.686896476502312, 28.217023230959985 ], [ -82.686881476497746, 28.217016230958709 ], [ -82.686461476377929, 28.217054230978743 ], [ -82.686226476310551, 28.217066230987786 ], [ -82.685596476129248, 28.217076231006576 ], [ -82.685163476002998, 28.217033231007576 ], [ -82.684690475862695, 28.216915230991539 ], [ -82.684111475687615, 28.216670230947823 ], [ -82.683637475541417, 28.216383230891321 ], [ -82.683474475500518, 28.216566230939474 ], [ -82.683242475439698, 28.216748230989225 ], [ -82.683066475393971, 28.216899231030062 ], [ -82.682957475364091, 28.216946231044194 ], [ -82.682863475338365, 28.216987231056439 ], [ -82.682754475307846, 28.217015231066028 ], [ -82.682626475271988, 28.217047231077057 ], [ -82.682417475212247, 28.217062231086114 ], [ -82.682102475122207, 28.217086231100076 ], [ -82.681476474941491, 28.217079231114742 ], [ -82.681395474918133, 28.217078231116595 ], [ -82.681055474820013, 28.217075231124699 ], [ -82.680070474536024, 28.217075231150375 ], [ -82.679222474291493, 28.217075231172458 ], [ -82.677115473684012, 28.217075231227394 ], [ -82.676130473400008, 28.217075231253066 ], [ -82.675531473227252, 28.217075231268677 ], [ -82.67373747271003, 28.21707523131543 ], [ -82.673309472586624, 28.217075231326589 ], [ -82.673139472537599, 28.21707523133103 ], [ -82.672544472366013, 28.217074231346277 ], [ -82.670761471851748, 28.217071231392055 ], [ -82.670167471680486, 28.217071231407512 ], [ -82.670048471646183, 28.217070231410382 ], [ -82.669692471543513, 28.217070231419669 ], [ -82.669574471509506, 28.217070231422735 ], [ -82.669006471345639, 28.2170692314373 ], [ -82.668187471109476, 28.217068231458413 ], [ -82.667449470896457, 28.217062231476213 ], [ -82.667302470854082, 28.217061231479811 ], [ -82.667131470804676, 28.217059231483798 ], [ -82.666735470690469, 28.217057231493637 ], [ -82.666583470646586, 28.217056231497349 ], [ -82.666191470533406, 28.217053231506799 ], [ -82.666128470515304, 28.217053231508455 ], [ -82.665977470471702, 28.217052231512142 ], [ -82.665977470465236, 28.216857231465379 ], [ -82.665980470449895, 28.216370231348353 ], [ -82.665982470447247, 28.216273231325033 ], [ -82.665989470442824, 28.21607923127825 ], [ -82.665991470441242, 28.216012231262109 ], [ -82.666010470439346, 28.215792231208798 ], [ -82.666025470438314, 28.215630231169506 ], [ -82.666061470437256, 28.215285231085751 ], [ -82.666058470424659, 28.214933231001297 ], [ -82.666057470414842, 28.214646230932416 ], [ -82.666055470405496, 28.214382230869109 ], [ -82.666051470378065, 28.213590230679088 ], [ -82.666050470369029, 28.213327230615938 ], [ -82.666048470357325, 28.212992230535558 ], [ -82.666043470322563, 28.21198723029438 ], [ -82.666042470311169, 28.211653230214257 ], [ -82.666036470289427, 28.211050230069628 ], [ -82.666021470225061, 28.209241229635605 ], [ -82.66601647020363, 28.208639229491244 ], [ -82.66601247019473, 28.208406229435365 ], [ -82.666007470183146, 28.208101229362288 ], [ -82.666001470168453, 28.207710229268532 ], [ -82.665998470159892, 28.20747822921291 ], [ -82.66597647010741, 28.206087228879468 ], [ -82.66597447010102, 28.205912228837544 ], [ -82.665957470077529, 28.205352228703504 ], [ -82.66596347006822, 28.205020228623631 ], [ -82.665983470062415, 28.204671228539265 ], [ -82.666108470074462, 28.203947228362171 ], [ -82.666315470096848, 28.202823228086856 ], [ -82.666331470092388, 28.202549228020661 ], [ -82.666341470034382, 28.20071422757978 ], [ -82.666343470020877, 28.200290227477893 ], [ -82.666357469945851, 28.197905226904751 ], [ -82.666398469716015, 28.190614225152611 ], [ -82.666405469680456, 28.189481224880328 ], [ -82.66640646967528, 28.189316224840631 ], [ -82.666426469597482, 28.186794224234344 ], [ -82.666427469593813, 28.186674224205497 ], [ -82.666428469565773, 28.185819224000113 ], [ -82.666429469532076, 28.184793223753662 ], [ -82.666433469482271, 28.18325522338408 ], [ -82.666435469454584, 28.182401223178893 ], [ -82.666461469441231, 28.181772223027121 ], [ -82.666461469427389, 28.181354222926746 ], [ -82.666437469407327, 28.18095722283196 ], [ -82.66637046937231, 28.180483222719836 ], [ -82.666295469339275, 28.180137222638709 ], [ -82.666209469305088, 28.179854222572938 ], [ -82.666011469231222, 28.17934822245655 ], [ -82.665852469174055, 28.179005222378226 ], [ -82.665664469107156, 28.178622222291118 ], [ -82.665094468915214, 28.177788222105587 ], [ -82.664988468879017, 28.177618222067522 ], [ -82.663698468518234, 28.177955222182007 ], [ -82.663362468423585, 28.17802322220707 ], [ -82.662920468299134, 28.178114222240421 ], [ -82.662083468062349, 28.178251222295081 ], [ -82.661269467830039, 28.178323222333521 ], [ -82.660020467473032, 28.178419222389049 ], [ -82.659007467185248, 28.178549222446623 ], [ -82.65814546694034, 28.178659222495455 ], [ -82.657972466891167, 28.178681222505208 ], [ -82.657077466640658, 28.178909222583233 ], [ -82.65620246639611, 28.179143222662233 ], [ -82.655560466218645, 28.179376222734884 ], [ -82.654918466040328, 28.179580222800588 ], [ -82.654130465823727, 28.179901222898149 ], [ -82.654119465786252, 28.178866222649791 ], [ -82.654077465768424, 28.17869322260935 ], [ -82.65410346573681, 28.17751022232444 ], [ -82.654083465591285, 28.173286221310061 ], [ -82.651168464750171, 28.173271221382201 ], [ -82.651147464670288, 28.171039220846449 ], [ -82.651127464590516, 28.168802220309388 ], [ -82.651059464329421, 28.161496218555481 ], [ -82.650992464068523, 28.154184216799823 ], [ -82.650605463651573, 28.144933214586178 ], [ -82.650597463621082, 28.144078214380848 ], [ -82.650366463311286, 28.136705212614309 ], [ -82.650269463180862, 28.133599211870042 ], [ -82.649941462740998, 28.12311820935825 ], [ -82.649907462694884, 28.122017209094363 ], [ -82.649901462682038, 28.121679209013234 ], [ -82.649901462681612, 28.121666209010154 ], [ -82.649901462681115, 28.121651209006519 ], [ -82.64989246266272, 28.121172208891576 ], [ -82.649877462651872, 28.120973208844099 ], [ -82.649872462648474, 28.120913208829766 ], [ -82.649838462610262, 28.120051208623373 ], [ -82.649823462592195, 28.119634208523447 ], [ -82.649803462571867, 28.119190208417216 ], [ -82.649801462560916, 28.118877208341999 ], [ -82.649797462551874, 28.118637208284358 ], [ -82.649794462545515, 28.1184702082443 ], [ -82.649794462544932, 28.118452208239955 ], [ -82.649794462544406, 28.118436208236112 ], [ -82.649789462536418, 28.118237208188354 ], [ -82.649787462532615, 28.118139208164862 ], [ -82.649786462531523, 28.118114208158911 ], [ -82.649785462529351, 28.118057208145164 ], [ -82.649784462527876, 28.118021208136572 ], [ -82.649783462526258, 28.117980208126717 ], [ -82.649772462513369, 28.117686208056295 ], [ -82.649744462476448, 28.116809207846089 ], [ -82.649729462457501, 28.11636620773994 ], [ -82.649719462444608, 28.116061207666867 ], [ -82.649701462422044, 28.115533207540306 ], [ -82.64956846225509, 28.11162520660384 ], [ -82.649167461736141, 28.099360203663849 ], [ -82.649159461726413, 28.099133203609455 ], [ -82.649152461716938, 28.098906203555025 ], [ -82.64912946159933, 28.09552820274293 ], [ -82.649110461554869, 28.094342202458058 ], [ -82.649103461537365, 28.093872202345171 ], [ -82.649092461444724, 28.0911472016898 ], [ -82.649061461266854, 28.086001200452408 ], [ -82.649045461171937, 28.0832501997908 ], [ -82.649043461160076, 28.082906199708084 ], [ -82.649025461053441, 28.079815198964727 ], [ -82.649015461004709, 28.078416198628318 ], [ -82.648913460494413, 28.063748195100551 ], [ -82.648912460485846, 28.063495195039668 ], [ -82.648652460369092, 28.062220194739417 ], [ -82.648675460359428, 28.061723194619187 ], [ -82.648670460349848, 28.061474194559402 ], [ -82.648665460324253, 28.060736194381857 ], [ -82.648663460323306, 28.060725194379284 ], [ -82.648630460307544, 28.06053519433441 ], [ -82.648619460302271, 28.060470194319066 ], [ -82.64858346027745, 28.060030194214033 ], [ -82.648513460229353, 28.059177194010491 ], [ -82.648440460162377, 28.057774193674636 ], [ -82.648435460157685, 28.057674193650666 ], [ -82.648435460157344, 28.057664193648272 ], [ -82.648435460157003, 28.057653193645596 ], [ -82.648428460151337, 28.05754319361932 ], [ -82.648377460104541, 28.05656319338469 ], [ -82.648376460101176, 28.056469193362108 ], [ -82.648375460096418, 28.056332193329162 ], [ -82.648375460093249, 28.056235193305803 ], [ -82.648375460092311, 28.056206193298792 ], [ -82.648371460073164, 28.055657193166741 ], [ -82.648369460060096, 28.055275193074838 ], [ -82.648366460045523, 28.054856192974011 ], [ -82.648363460025124, 28.054259192830383 ], [ -82.648547459837104, 28.046892191051924 ], [ -82.648547459836664, 28.046879191048756 ], [ -82.648546459815734, 28.046248190896865 ], [ -82.648546459813119, 28.046168190877591 ], [ -82.648546459806838, 28.045976190831375 ], [ -82.648544459782883, 28.045261190659254 ], [ -82.648542459769033, 28.044855190561545 ], [ -82.648540459751246, 28.044330190435197 ], [ -82.648531459676349, 28.042118189902741 ], [ -82.648529459661944, 28.041695189800972 ], [ -82.648548459637624, 28.040784189581093 ], [ -82.648570459609601, 28.039732189327221 ], [ -82.648560459571499, 28.038656189068355 ], [ -82.648560459570803, 28.038635189063299 ], [ -82.648559459566314, 28.03850618903224 ], [ -82.648559459559777, 28.038306188984087 ], [ -82.648558459542329, 28.037781188857689 ], [ -82.648558459408179, 28.033676187869112 ], [ -82.648568459402469, 28.033412187805272 ], [ -82.648570459401625, 28.033369187794847 ], [ -82.648568459393317, 28.033132187737777 ], [ -82.648562459362168, 28.03223318752142 ], [ -82.648564459353622, 28.031954187454211 ], [ -82.648568459338605, 28.0314571873344 ], [ -82.648565459333398, 28.031324187302438 ], [ -82.64856345932948, 28.031223187278211 ], [ -82.648546459299027, 28.030440187090033 ], [ -82.648544459294371, 28.030315187059969 ], [ -82.64854245928899, 28.030168187024632 ], [ -82.648538459278925, 28.029896186959245 ], [ -82.648521459238566, 28.028809186697806 ], [ -82.648504459197966, 28.027716186435033 ], [ -82.648516459170793, 28.026779186209019 ], [ -82.648517459167778, 28.026678186184689 ], [ -82.648519459162671, 28.026504186142706 ], [ -82.64852845914038, 28.02574118595869 ], [ -82.648529459138771, 28.025683185944747 ], [ -82.648527459094922, 28.02435718562538 ], [ -82.648526459090547, 28.024232185595281 ], [ -82.648518459062672, 28.023450185407118 ], [ -82.648515459051538, 28.023135185331295 ], [ -82.648511459038033, 28.022757185240401 ], [ -82.648511459034026, 28.022634185210741 ], [ -82.648513459023036, 28.022280185125403 ], [ -82.6485144590077, 28.021801185009998 ], [ -82.648515458998588, 28.021513184940606 ], [ -82.64851745898693, 28.021139184850494 ], [ -82.648527458919133, 28.018971184327931 ], [ -82.648528458914271, 28.018814184290097 ], [ -82.648532458898984, 28.018310184168616 ], [ -82.648533458896708, 28.018231184149577 ], [ -82.648531458893288, 28.018144184128687 ], [ -82.648530458891059, 28.018085184114458 ], [ -82.648525458880854, 28.017816184049785 ], [ -82.648523458877051, 28.017716184025762 ], [ -82.648523458876284, 28.017693184020228 ], [ -82.648523458874863, 28.01764918400962 ], [ -82.648527458856307, 28.017046183864263 ], [ -82.648533458838187, 28.016438183717629 ], [ -82.648533458837477, 28.016416183712337 ], [ -82.648534458836409, 28.016374183702187 ], [ -82.648535458832427, 28.016244183670821 ], [ -82.648535458831077, 28.016202183660692 ], [ -82.648540458812718, 28.015596183514585 ], [ -82.648542458803234, 28.015286183439891 ], [ -82.64854645878863, 28.014803183323377 ], [ -82.648551458769532, 28.014174183171736 ], [ -82.648551458768353, 28.014137183162848 ], [ -82.648557458744023, 28.013339182970412 ], [ -82.64856345872262, 28.012630182799473 ], [ -82.648602458572768, 28.007688181607783 ], [ -82.648602458571347, 28.007645181597422 ], [ -82.648602458569854, 28.007599181586336 ], [ -82.648603458566797, 28.007497181561764 ], [ -82.648755457980485, 27.988149176895401 ], [ -82.648823457718819, 27.979502174809486 ], [ -82.648820457707586, 27.979183174732668 ], [ -82.648752457425061, 27.971094172784451 ], [ -82.648665457281595, 27.967450171908151 ], [ -82.648641457262769, 27.967083171820303 ], [ -82.648611457240889, 27.966676171722945 ], [ -82.648619457232371, 27.9663421716422 ], [ -82.648593457172169, 27.964720171251791 ], [ -82.648443456815173, 27.955054168924871 ], [ -82.648323456532438, 27.947403167082861 ], [ -82.622623448983674, 27.943104166702835 ], [ -82.617462447459403, 27.94198616656497 ], [ -82.614209446498663, 27.941282166478246 ], [ -82.612923446118771, 27.941004166443978 ], [ -82.601422442682605, 27.937304165845006 ], [ -82.59952244210227, 27.936304165652242 ], [ -82.597222441403417, 27.935204165445505 ], [ -82.591622439655794, 27.931104164599017 ], [ -82.591363439574948, 27.930913164559509 ], [ -82.588287438614529, 27.928647164091124 ], [ -82.587976438517444, 27.928418164043759 ], [ -82.587822438469374, 27.928304164020165 ], [ -82.587704438431118, 27.928175163992087 ], [ -82.587610438400702, 27.928072163969581 ], [ -82.587289438296693, 27.927718163892333 ], [ -82.587105438237103, 27.927516163848278 ], [ -82.58525343763705, 27.925478163403643 ], [ -82.585206437621849, 27.925427163392538 ], [ -82.585120437594028, 27.925332163371746 ], [ -82.585102437588219, 27.925313163367623 ], [ -82.585050437571326, 27.925256163355197 ], [ -82.581822436525542, 27.921704162580134 ], [ -82.580738436166513, 27.92026816226111 ], [ -82.577522435101272, 27.916005161313954 ], [ -82.576982434915749, 27.915083161105112 ], [ -82.573422433692713, 27.909005159728324 ], [ -82.571412432939425, 27.903627158480855 ], [ -82.57002243241844, 27.899905157617425 ], [ -82.568722431817775, 27.892905155959891 ], [ -82.567938431301329, 27.883895153803461 ], [ -82.567919431289809, 27.883706153758236 ], [ -82.567905431275079, 27.883374153678453 ], [ -82.567422430760118, 27.871706150871749 ], [ -82.567219430552711, 27.867078149758676 ], [ -82.56687543020044, 27.85920614786507 ], [ -82.566822430146672, 27.858007147576686 ], [ -82.566815430132763, 27.857637147487477 ], [ -82.566712429940011, 27.852562146263494 ], [ -82.566142428872837, 27.82441813947408 ], [ -82.566122428834703, 27.823408139230349 ], [ -82.565822428562399, 27.8176081378354 ], [ -82.563622427585585, 27.806908135303139 ], [ -82.560466426473653, 27.800599133856839 ], [ -82.559621426175923, 27.798909133469355 ], [ -82.558421425785113, 27.797509133161007 ], [ -82.597174436954489, 27.797335132139334 ], [ -82.598241437161761, 27.794196131353196 ], [ -82.601778438031303, 27.789495130126735 ], [ -82.60412143865554, 27.78788912967909 ], [ -82.6100434403631, 27.787896129531134 ], [ -82.619523443096455, 27.787909129294729 ], [ -82.620323443347075, 27.788536129426095 ], [ -82.620838443508461, 27.788940129510795 ], [ -82.622282443931709, 27.789159129527285 ], [ -82.622359443959155, 27.789322129564749 ], [ -82.622551444018143, 27.789437129587697 ], [ -82.623219444217398, 27.789646129621396 ], [ -82.623241444223936, 27.789652129622283 ], [ -82.626336445198149, 27.792219130164835 ], [ -82.626849445342273, 27.792101130123349 ], [ -82.626905445356869, 27.792053130110325 ], [ -82.628790445912188, 27.792427130153072 ], [ -82.629026445972798, 27.792194130090792 ], [ -82.63033444634992, 27.792197130058426 ], [ -82.631648446727851, 27.792172130019168 ], [ -82.632000446830219, 27.792199130016783 ], [ -82.632384446940364, 27.792182130002949 ], [ -82.632937447099408, 27.792172129986575 ], [ -82.634416447525524, 27.792165129947502 ], [ -82.636472448117814, 27.792155129893075 ], [ -82.637518448418575, 27.792131129860831 ], [ -82.637976448551044, 27.792146129852888 ], [ -82.638548448715198, 27.792122129832631 ], [ -82.639051448860542, 27.792134129822777 ], [ -82.639867449095689, 27.792133129801911 ], [ -82.640091449160394, 27.792137129797208 ], [ -82.640569449298567, 27.792149129788054 ], [ -82.64161344959885, 27.792129129756805 ], [ -82.642643449895161, 27.792113129726861 ], [ -82.642680449905953, 27.792116129726654 ], [ -82.64272344991825, 27.792113129724836 ], [ -82.644667450477783, 27.792089129669883 ], [ -82.645858450820739, 27.792079129637376 ], [ -82.64670445106529, 27.792100129621062 ], [ -82.647227451215826, 27.792094129606369 ], [ -82.647779451374845, 27.792091129591675 ], [ -82.649759451944746, 27.792067129535805 ], [ -82.650823452251316, 27.792065129508419 ], [ -82.651871452552868, 27.792050129478284 ], [ -82.652855452836462, 27.792050129453415 ], [ -82.653776453101273, 27.792029129425075 ], [ -82.65460245333901, 27.792019129401741 ], [ -82.654927453433345, 27.792040129398604 ], [ -82.656973454021241, 27.791985129333579 ], [ -82.658103454346346, 27.79196812930088 ], [ -82.658205454375945, 27.791974129299735 ], [ -82.658664454507942, 27.79196512928597 ], [ -82.659071454625149, 27.791963129275199 ], [ -82.660334454988856, 27.79195412924107 ], [ -82.660500455036711, 27.791953129236624 ], [ -82.660663455083636, 27.791952129232257 ], [ -82.661091455206858, 27.791948129220472 ], [ -82.661481455319333, 27.791951129211323 ], [ -82.661723455389037, 27.791949129204728 ], [ -82.661763455400688, 27.791953129204678 ], [ -82.663154455802015, 27.791967129172903 ], [ -82.663634455940169, 27.791962129159565 ], [ -82.664015456078431, 27.792852129365059 ], [ -82.664534456258266, 27.793798129580612 ], [ -82.665610456631114, 27.795760130027709 ], [ -82.665244456522558, 27.795665130014012 ], [ -82.665273456556136, 27.79645213020353 ], [ -82.665268456575575, 27.797106130361758 ], [ -82.665280456590295, 27.797457130446325 ], [ -82.664817456458152, 27.797498130467886 ], [ -82.664817456485764, 27.798361130676557 ], [ -82.664834456507293, 27.798880130801571 ], [ -82.664845456522571, 27.799258130892667 ], [ -82.664866456528756, 27.799261130892859 ], [ -82.665123456602387, 27.799249130883446 ], [ -82.665202456625224, 27.799252130882159 ], [ -82.665272456645582, 27.7992561308814 ], [ -82.665494456709411, 27.799253130875016 ], [ -82.665757456785158, 27.799251130867859 ], [ -82.666273456933794, 27.799249130854339 ], [ -82.666724457063822, 27.799251130843405 ], [ -82.66676345707522, 27.799255130843356 ], [ -82.666803457086701, 27.799253130841887 ], [ -82.667285457225546, 27.799252130829441 ], [ -82.667699457344696, 27.799248130818 ], [ -82.668421457572933, 27.799878130952028 ], [ -82.668714457666013, 27.800148131009873 ], [ -82.668939457736656, 27.800329131047928 ], [ -82.669332457862239, 27.800714131131038 ], [ -82.670706458298724, 27.801980131402306 ], [ -82.670740458309325, 27.802006131407726 ], [ -82.671351458501775, 27.802516131515493 ], [ -82.671364458482444, 27.801796131341135 ], [ -82.672296458776472, 27.802590131509486 ], [ -82.673677459213025, 27.803796131765978 ], [ -82.675186459690124, 27.805115132046602 ], [ -82.675672459844861, 27.805573132144964 ], [ -82.675749459869138, 27.805639132158976 ], [ -82.676668460161466, 27.806498132343297 ], [ -82.677680460481596, 27.807387132532543 ], [ -82.678314460682515, 27.807957132654206 ], [ -82.678780460829984, 27.808368132741734 ], [ -82.679503461042827, 27.808509132757543 ], [ -82.679509461054892, 27.808832132835434 ], [ -82.679514461063718, 27.809062132890883 ], [ -82.681574461716977, 27.810923133288433 ], [ -82.683483462320652, 27.812597133644555 ], [ -82.683633462372569, 27.81286813370626 ], [ -82.684980462789596, 27.813769133889831 ], [ -82.68529746289488, 27.814204133986891 ], [ -82.686323463221015, 27.815155134190736 ], [ -82.687511463597346, 27.816217134417215 ], [ -82.687546463607447, 27.816217134416352 ], [ -82.687738463662129, 27.816198134406875 ], [ -82.687787463676173, 27.816194134404668 ], [ -82.688109463762601, 27.815996134348648 ], [ -82.688085463754817, 27.815969134342765 ], [ -82.688115463760624, 27.815881134320726 ], [ -82.688171463775021, 27.815826134306054 ], [ -82.688555463885493, 27.81582013429481 ], [ -82.688852463970363, 27.815798134281962 ], [ -82.689223464077585, 27.815809134275263 ], [ -82.689656464203637, 27.815848134273676 ], [ -82.68982346425085, 27.815820134262701 ], [ -82.689902464273558, 27.815818134260212 ], [ -82.690207464361137, 27.81580913425033 ], [ -82.690448464431981, 27.815853134254841 ], [ -82.690514464450942, 27.815851134252707 ], [ -82.690621464481637, 27.815848134249222 ], [ -82.690716464509606, 27.815865134250931 ], [ -82.690801464534559, 27.815881134252635 ], [ -82.691017464595774, 27.815848134239186 ], [ -82.691116464621444, 27.815760134215466 ], [ -82.691147464625999, 27.815622134181258 ], [ -82.691166464626363, 27.815463134142387 ], [ -82.691098464599548, 27.815237134089497 ], [ -82.691098464595839, 27.815121134061496 ], [ -82.691129464600692, 27.814995134030298 ], [ -82.691197464615868, 27.814857133995186 ], [ -82.691333464654193, 27.814830133985218 ], [ -82.691358464662244, 27.814857133991076 ], [ -82.691450464690504, 27.814912134002096 ], [ -82.691481464702278, 27.815000134022569 ], [ -82.69150646471337, 27.81512113405114 ], [ -82.691494464712719, 27.815209134072706 ], [ -82.691580464740525, 27.815303134093231 ], [ -82.691618464753418, 27.815364134107035 ], [ -82.691642464764399, 27.815490134136894 ], [ -82.691642464767213, 27.815578134158095 ], [ -82.691723464791053, 27.815595134160183 ], [ -82.691778464803761, 27.815496134134882 ], [ -82.691835464814361, 27.815315134089705 ], [ -82.691846464816464, 27.815281134081186 ], [ -82.691809464802077, 27.815165134054098 ], [ -82.691797464792842, 27.814984134010675 ], [ -82.691828464799627, 27.814918133993938 ], [ -82.692082464872811, 27.814918133987486 ], [ -82.692224464912726, 27.81488513397596 ], [ -82.692280464930377, 27.814934133986355 ], [ -82.692335464946254, 27.81493413398498 ], [ -82.692471464983328, 27.814868133965575 ], [ -82.692626465029036, 27.81490113396961 ], [ -82.69288046510313, 27.814929133969976 ], [ -82.692966465129132, 27.814967133976918 ], [ -82.693028465151173, 27.815099134007248 ], [ -82.693486465278596, 27.814956133961125 ], [ -82.693783465359232, 27.81480213391637 ], [ -82.693876465385856, 27.81479713391284 ], [ -82.69391946540334, 27.814956133950147 ], [ -82.695695465884569, 27.814004133675144 ], [ -82.695937465949839, 27.813865133635371 ], [ -82.695939465945642, 27.813716133599364 ], [ -82.696240466032293, 27.813714133591265 ], [ -82.697915466514615, 27.813706133546834 ], [ -82.69953946698277, 27.813712133507178 ], [ -82.700031467124603, 27.813715133495421 ], [ -82.700048467100572, 27.812813133277064 ], [ -82.701405467491156, 27.812801133239752 ], [ -82.702058467679521, 27.81280813322487 ], [ -82.702564467825184, 27.812803133210856 ], [ -82.703038467961377, 27.812792133196208 ], [ -82.704085468263088, 27.812792133169683 ], [ -82.704087468264831, 27.812829133178543 ], [ -82.704083468266148, 27.812908133197759 ], [ -82.704087468268852, 27.812954133208756 ], [ -82.704086468292715, 27.813708133390943 ], [ -82.706137468883981, 27.813719133341625 ], [ -82.707065469151445, 27.813723133319069 ], [ -82.707733469343935, 27.813723133302151 ], [ -82.708038469431784, 27.813723133294413 ], [ -82.708250469491858, 27.813693133281816 ], [ -82.708235469483981, 27.813580133254895 ], [ -82.708237469475776, 27.813307133188893 ], [ -82.708240469471079, 27.813134133147013 ], [ -82.708241469460503, 27.812795133065066 ], [ -82.708243469454274, 27.812583133013771 ], [ -82.708244469448374, 27.81239013296717 ], [ -82.708248469440477, 27.812108132898896 ], [ -82.708249469437675, 27.812011132875472 ], [ -82.708250469431448, 27.811808132826389 ], [ -82.708252469425659, 27.811607132777784 ], [ -82.708255469414638, 27.811237132688333 ], [ -82.708258469401628, 27.810805132583841 ], [ -82.708264469388283, 27.810335132470168 ], [ -82.708263469385912, 27.810270132454491 ], [ -82.708227469368168, 27.810040132399855 ], [ -82.708199469354483, 27.809865132358251 ], [ -82.708196469352046, 27.809815132346269 ], [ -82.708202469334509, 27.809215132201128 ], [ -82.708208469305049, 27.808240131965412 ], [ -82.708330469340126, 27.80823913196209 ], [ -82.708620469423693, 27.808239131954736 ], [ -82.708988469529658, 27.808238131945124 ], [ -82.709372469640243, 27.808237131935162 ], [ -82.709398469647766, 27.808238131934743 ], [ -82.709525469686255, 27.808297131945803 ], [ -82.709746469750641, 27.80831913194551 ], [ -82.711235470179531, 27.808316131907052 ], [ -82.712087470425118, 27.808320131886433 ], [ -82.712274470476487, 27.80824213186288 ], [ -82.712455470528624, 27.8082421318583 ], [ -82.712718470604372, 27.8082411318514 ], [ -82.712763470617332, 27.80824013185001 ], [ -82.713124470721098, 27.808233131839142 ], [ -82.713937470955116, 27.808227131817109 ], [ -82.715358471364894, 27.80824013178426 ], [ -82.715920471526388, 27.80822713176687 ], [ -82.716763471769426, 27.808232131746699 ], [ -82.717575472003489, 27.808236131727085 ], [ -82.71802447213237, 27.808222131712348 ], [ -82.718376472233558, 27.808216131701968 ], [ -82.719066472432388, 27.80821713168476 ], [ -82.719419472534213, 27.808220131676553 ], [ -82.720395472814616, 27.80819713164626 ], [ -82.720480472828044, 27.807851131560479 ], [ -82.720640472861021, 27.807443131457838 ], [ -82.720756472890244, 27.807312131423249 ], [ -82.720920472922955, 27.806859131309668 ], [ -82.720988472927047, 27.806376131191261 ], [ -82.722490473359542, 27.806369131151488 ], [ -82.724010473797449, 27.806371131113522 ], [ -82.724551473953156, 27.806365131098321 ], [ -82.725071474102933, 27.806365131085151 ], [ -82.725557474242834, 27.806363131072345 ], [ -82.726191474425491, 27.806364131056522 ], [ -82.727957474934115, 27.806360131010834 ], [ -82.728638475129827, 27.806346130990157 ], [ -82.728625475143915, 27.806903131125079 ], [ -82.728627475158106, 27.807326131227232 ], [ -82.728600475177629, 27.808179131433981 ], [ -82.728602475207026, 27.809079131651337 ], [ -82.728592475217113, 27.809482131748958 ], [ -82.728590475219335, 27.809570131770283 ], [ -82.728587475224003, 27.809742131811866 ], [ -82.728581475230499, 27.809998131873893 ], [ -82.728582475237047, 27.810193131920947 ], [ -82.729390475469117, 27.81017413189586 ], [ -82.729394475477932, 27.810411131953042 ], [ -82.730679475848177, 27.810414131921185 ], [ -82.730675475856742, 27.810717131994533 ], [ -82.730673475861394, 27.810882132034418 ], [ -82.730673475862318, 27.810911132041404 ], [ -82.728574475257545, 27.810906132093404 ], [ -82.728574475279345, 27.811586132257641 ], [ -82.728575475288736, 27.811870132326256 ], [ -82.728580475314459, 27.812628132509182 ], [ -82.728580475317258, 27.812715132530201 ], [ -82.728581475347028, 27.813633132751963 ], [ -82.728567475352136, 27.8139191328214 ], [ -82.728557475368689, 27.814525132968054 ], [ -82.728572475404661, 27.815511133205852 ], [ -82.728564475417329, 27.815978133318815 ], [ -82.728558475428727, 27.816388133418002 ], [ -82.728534475451227, 27.817305133640094 ], [ -82.728525475478136, 27.818224133862334 ], [ -82.728533475492469, 27.818600133952952 ], [ -82.728530475509174, 27.819148134085367 ], [ -82.728533475523463, 27.819566134186282 ], [ -82.728511475536664, 27.820175134333937 ], [ -82.728487475554829, 27.820956134523126 ], [ -82.7295334758563, 27.820960134497621 ], [ -82.730506476136895, 27.820971134475577 ], [ -82.731559476439841, 27.820958134445707 ], [ -82.731842476520995, 27.820948134436126 ], [ -82.732587476736015, 27.82096113442039 ], [ -82.733058476871562, 27.820957134407447 ], [ -82.733118476888833, 27.820956134405687 ], [ -82.733270476932603, 27.820955134401601 ], [ -82.733694477054939, 27.820961134392299 ], [ -82.733847477098962, 27.82096113438843 ], [ -82.733869477105316, 27.820961134387872 ], [ -82.734319477234919, 27.820960134376225 ], [ -82.734714477348518, 27.820954134364726 ], [ -82.735068477450312, 27.820948134354296 ], [ -82.736169477767618, 27.82095313432756 ], [ -82.736700477920422, 27.820949134313143 ], [ -82.736718477945132, 27.821557134459525 ], [ -82.736731477963119, 27.822000134566196 ], [ -82.736732477964281, 27.822027134572689 ] ] ] ] } }
]
}
