{
"type": "FeatureCollection",
"name": "DISTRICT_14",
"crs": { "type": "name", "properties": { "name": "urn:ogc:def:crs:OGC:1.3:CRS84" } },
"xy_coordinate_resolution": 1e-15,
"features": [
{ "type": "Feature", "properties": { "LONGNAME": "District 14", "SHORTNAME": "D14", "DISTRICT": 14, "COLOR": -14056064, "TOTAL": 769221, "TARGET_DEV": 0 }, "geometry": { "type": "MultiPolygon", "coordinates": [ [ [ [ -82.525763423245536, 28.010844185520639 ], [ -82.524266422812872, 28.010821185553475 ], [ -82.52374342266198, 28.010823185567386 ], [ -82.523018422452495, 28.01081418558384 ], [ -82.519343421391881, 28.010809185676859 ], [ -82.518170421053597, 28.010815185708381 ], [ -82.517349420816771, 28.010819185730394 ], [ -82.517357420794355, 28.01005818554669 ], [ -82.517342420767804, 28.009376185382564 ], [ -82.517347420750923, 28.008813185246677 ], [ -82.517369420730518, 28.007991185047885 ], [ -82.517388420709949, 28.007190184854192 ], [ -82.517395420688771, 28.006478184682347 ], [ -82.51740342066924, 28.00580618452004 ], [ -82.517392420647155, 28.005226184380447 ], [ -82.517397420620838, 28.004372184174319 ], [ -82.517394420594783, 28.003599183987973 ], [ -82.517397420576245, 28.00300118384364 ], [ -82.517434420564641, 28.002317183677736 ], [ -82.5174314205413, 28.001625183510907 ], [ -82.517428420518726, 28.000958183350068 ], [ -82.517425420495371, 28.000266183183268 ], [ -82.517401420483438, 28.00011318314699 ], [ -82.517352420466338, 28.000021183126066 ], [ -82.517304420451879, 28.000004183123163 ], [ -82.517220420426739, 27.999975183118341 ], [ -82.516399420190297, 27.999990183142955 ], [ -82.515501419930601, 27.999973183161906 ], [ -82.514589419667331, 27.999969183184255 ], [ -82.513556419369024, 27.999963183209296 ], [ -82.512772419142749, 27.999962183229137 ], [ -82.511866418881183, 27.999958183251398 ], [ -82.510954418617843, 27.999954183273811 ], [ -82.510037418353065, 27.99994818329581 ], [ -82.509119418087948, 27.999942183317913 ], [ -82.507507417622364, 27.99993118335658 ], [ -82.507200417533767, 27.99993018336421 ], [ -82.507031417484257, 27.999908183363221 ], [ -82.506445417314765, 27.999896183375309 ], [ -82.506345417285331, 27.999878183373522 ], [ -82.505556417058756, 27.999913183402207 ], [ -82.505270416976686, 27.999927183412936 ], [ -82.50527141697215, 27.999779183377175 ], [ -82.505272416848172, 27.995957182455147 ], [ -82.503940416463138, 27.995937182484433 ], [ -82.503182416244016, 27.995926182501218 ], [ -82.502765416123992, 27.995935182514039 ], [ -82.501016415621407, 27.996002182575005 ], [ -82.501075415562283, 27.993658182008005 ], [ -82.501117415520255, 27.99199418160546 ], [ -82.501139415501243, 27.991213181416448 ], [ -82.501162415481787, 27.99041018122216 ], [ -82.501185415462103, 27.989600181026141 ], [ -82.501208415442022, 27.988776180826704 ], [ -82.501230415416856, 27.987807180592373 ], [ -82.501305415331814, 27.984521179797561 ], [ -82.501377415249735, 27.981353179031334 ], [ -82.501426415181967, 27.978831178421483 ], [ -82.501446415142723, 27.977443178086006 ], [ -82.501452415104268, 27.976205177787087 ], [ -82.50145341506601, 27.975017177500362 ], [ -82.501448415033153, 27.974048177266628 ], [ -82.501445415009343, 27.973341177096117 ], [ -82.501441414984939, 27.972624176923148 ], [ -82.501459414965964, 27.971879176742906 ], [ -82.501112414865801, 27.971879176751774 ], [ -82.50111841485618, 27.971528176666876 ], [ -82.501028414830216, 27.971528176669203 ], [ -82.501036414820391, 27.971154176578757 ], [ -82.501476414947405, 27.971156176567977 ], [ -82.501493414928646, 27.970426176391346 ], [ -82.50112541482234, 27.970423176400036 ], [ -82.501129414812098, 27.970071176314942 ], [ -82.500976414767848, 27.970069176318383 ], [ -82.50097841475619, 27.969692176227365 ], [ -82.49933641428207, 27.969684176267396 ], [ -82.497270413685598, 27.969675176318059 ], [ -82.495195413086435, 27.969666176368875 ], [ -82.495207413066225, 27.968935176192161 ], [ -82.493142412469979, 27.968927176243032 ], [ -82.493148412447852, 27.968190176064958 ], [ -82.491075411849295, 27.968183176116288 ], [ -82.491083411827958, 27.967452175939599 ], [ -82.489006411228829, 27.96746217599512 ], [ -82.486933410630257, 27.967454176046132 ], [ -82.486949410611544, 27.966734175871927 ], [ -82.486156410382506, 27.966729175890993 ], [ -82.484881410013685, 27.966703175917313 ], [ -82.484881409990493, 27.965988175744684 ], [ -82.484894409970721, 27.965261175568877 ], [ -82.484902409949086, 27.964523175390518 ], [ -82.484911409928017, 27.963792175213843 ], [ -82.484922409907114, 27.963049175034218 ], [ -82.484926409884281, 27.962309174855445 ], [ -82.484937409863889, 27.961581174679367 ], [ -82.484946409842152, 27.9608311744981 ], [ -82.484955409821254, 27.960104174322392 ], [ -82.484961409799368, 27.959376174146442 ], [ -82.484971409778737, 27.958650173970916 ], [ -82.484981409758234, 27.957928173796365 ], [ -82.484991409737049, 27.957185173616715 ], [ -82.48499240971374, 27.956456173440735 ], [ -82.484995409706343, 27.956202173379285 ], [ -82.484997409700668, 27.95600917333266 ], [ -82.485000409692674, 27.955734173266219 ], [ -82.485004409688912, 27.955582173229399 ], [ -82.485008409684724, 27.955418173189717 ], [ -82.485020409674945, 27.955008173090363 ], [ -82.485033409655259, 27.954285172915487 ], [ -82.485039409633501, 27.953559172740054 ], [ -82.485056409614913, 27.952834172564582 ], [ -82.485065409594, 27.952106172388593 ], [ -82.485063409569435, 27.951367172210194 ], [ -82.485082409551424, 27.950641172034377 ], [ -82.485067409499877, 27.94918117168227 ], [ -82.485065409475723, 27.948453171506507 ], [ -82.485061409450793, 27.947719171329386 ], [ -82.485062409427456, 27.946989171153071 ], [ -82.485065409392121, 27.945869170882531 ], [ -82.485061409355481, 27.944773170618017 ], [ -82.484027409056665, 27.944761170641481 ], [ -82.482991408757499, 27.944756170666714 ], [ -82.481960408459528, 27.944742170689622 ], [ -82.480921408159375, 27.944735170714427 ], [ -82.479885407860081, 27.944726170738729 ], [ -82.478849407560787, 27.944717170762942 ], [ -82.477814407261732, 27.944707170786963 ], [ -82.476779406962791, 27.944701170811911 ], [ -82.475762406669034, 27.944693170835887 ], [ -82.474718406367401, 27.944683170860134 ], [ -82.473737406083814, 27.944670170882016 ], [ -82.472676405777307, 27.944662170907172 ], [ -82.47169540549389, 27.944652170929743 ], [ -82.471344405392472, 27.944650170938232 ], [ -82.470989405289941, 27.944648170946799 ], [ -82.470583405172675, 27.944646170956688 ], [ -82.470165405052072, 27.944646170967324 ], [ -82.469458404847842, 27.944642170984419 ], [ -82.468531404579991, 27.944633171005897 ], [ -82.467602404311691, 27.944628171028359 ], [ -82.466668404041528, 27.944611171048098 ], [ -82.46611540388551, 27.944722171089033 ], [ -82.465181403627668, 27.945086171200749 ], [ -82.464978403571436, 27.945159171223544 ], [ -82.464684403490054, 27.945266171256904 ], [ -82.464359403400067, 27.945384171293679 ], [ -82.463847403258313, 27.945571171351887 ], [ -82.462766402958991, 27.945964171474401 ], [ -82.46220840280418, 27.946157171535216 ], [ -82.461519402613646, 27.946415171615136 ], [ -82.461459402597015, 27.94643717162198 ], [ -82.460759402403454, 27.946699171703077 ], [ -82.4605654023498, 27.946772171725705 ], [ -82.460505402333212, 27.946794171732535 ], [ -82.45966040209953, 27.947111171830656 ], [ -82.458775401853799, 27.947411171925669 ], [ -82.457944401622782, 27.947686172013281 ], [ -82.457096401387545, 27.947981172106147 ], [ -82.456251401152983, 27.948269172197271 ], [ -82.455412400920167, 27.94856117228921 ], [ -82.454573400687437, 27.948853172381124 ], [ -82.453739400456101, 27.949144172472693 ], [ -82.452882400218357, 27.949442172566513 ], [ -82.452248400042464, 27.949662172635829 ], [ -82.452025399980499, 27.949737172659614 ], [ -82.451375399799872, 27.949954172728635 ], [ -82.451317399794007, 27.950289172811026 ], [ -82.451260399788083, 27.95061617289144 ], [ -82.451102399754163, 27.950976172982415 ], [ -82.450874399705157, 27.951496173113803 ], [ -82.450701399663529, 27.951754173180571 ], [ -82.450591399637091, 27.951918173222964 ], [ -82.450547399626558, 27.951985173240264 ], [ -82.450287399563123, 27.952343173333354 ], [ -82.449861399455671, 27.952823173460146 ], [ -82.449575399382397, 27.953111173537007 ], [ -82.449318399315118, 27.953324173595036 ], [ -82.449117399262505, 27.953491173640479 ], [ -82.449078399252187, 27.953521173648689 ], [ -82.449076399252533, 27.953549173655542 ], [ -82.449061399251349, 27.953647173679592 ], [ -82.449046399250491, 27.953753173705582 ], [ -82.449030399248585, 27.953837173726246 ], [ -82.449006399244666, 27.95393017374936 ], [ -82.448976399239243, 27.954029173774014 ], [ -82.448937399231539, 27.954140173801818 ], [ -82.448893399222385, 27.954250173829518 ], [ -82.448842399210761, 27.95434517385376 ], [ -82.448793399199189, 27.954426173874587 ], [ -82.448727399183483, 27.954527173900622 ], [ -82.448665399168263, 27.954611173922519 ], [ -82.448588399148946, 27.954702173946451 ], [ -82.448508399128741, 27.954790173969752 ], [ -82.44842639910776, 27.95487317399186 ], [ -82.448340399085367, 27.954949174012427 ], [ -82.448246399060821, 27.955029174034131 ], [ -82.448149399035032, 27.955097174053012 ], [ -82.448057399010537, 27.955161174070835 ], [ -82.447953398982548, 27.955224174088716 ], [ -82.447845398953262, 27.955283174105769 ], [ -82.447751398927679, 27.955331174119724 ], [ -82.447636398896108, 27.955381174134718 ], [ -82.447491398855988, 27.955433174150965 ], [ -82.447394398828806, 27.955460174159953 ], [ -82.447278398796371, 27.955493174170908 ], [ -82.447136398756371, 27.955523174181753 ], [ -82.447021398723905, 27.955545174190007 ], [ -82.446900398689436, 27.95556117419698 ], [ -82.446802398661575, 27.955573174202407 ], [ -82.446755398648037, 27.955574174203836 ], [ -82.4466833986327, 27.955742174246229 ], [ -82.446506398583963, 27.955815174268363 ], [ -82.445582398317853, 27.955835174296773 ], [ -82.445478398287776, 27.955834174299188 ], [ -82.444263397936666, 27.955823174327591 ], [ -82.442966397562145, 27.955819174359672 ], [ -82.440473396842279, 27.955816174422559 ], [ -82.438013396130913, 27.955780174476676 ], [ -82.43551139540844, 27.955776174539562 ], [ -82.434716395179237, 27.955787174562477 ], [ -82.430655394006095, 27.955766174661029 ], [ -82.428066393256032, 27.955687174708032 ], [ -82.427401393056812, 27.955464174671132 ], [ -82.426504392783229, 27.955014174585322 ], [ -82.426083392656366, 27.954849174556188 ], [ -82.425861392589454, 27.954762174540832 ], [ -82.425542392493298, 27.954636174518551 ], [ -82.425412392454078, 27.95458517450956 ], [ -82.422451391598102, 27.954554174577588 ], [ -82.421792391407877, 27.954555174594628 ], [ -82.420969391175234, 27.954708174652584 ], [ -82.41922839068512, 27.955098174791196 ], [ -82.41786539030187, 27.955416174902844 ], [ -82.417180390106537, 27.955493174938887 ], [ -82.416603389940306, 27.955504174956243 ], [ -82.415972389756206, 27.955445174958111 ], [ -82.415575389638434, 27.955348174944813 ], [ -82.41557938962778, 27.954984174856747 ], [ -82.41557938961779, 27.954675174782157 ], [ -82.415580389611605, 27.954475174733812 ], [ -82.414405389260395, 27.954106174674607 ], [ -82.413211388898347, 27.953572174576109 ], [ -82.411895388499858, 27.953000174471473 ], [ -82.410520388081324, 27.952336174346144 ], [ -82.410336388025229, 27.952245174328862 ], [ -82.410315388018859, 27.952236174327187 ], [ -82.406165386761757, 27.950420173994328 ], [ -82.405123386451621, 27.950133173951528 ], [ -82.404789386352306, 27.950045173938801 ], [ -82.404089386145898, 27.949913173924745 ], [ -82.403249385900466, 27.949824173924647 ], [ -82.402447385667628, 27.949786173935895 ], [ -82.401795385479375, 27.949787173952807 ], [ -82.3993533847744, 27.949793174016492 ], [ -82.398058384399448, 27.949764174042485 ], [ -82.397527384246217, 27.949768174057027 ], [ -82.397519384202795, 27.94849617374987 ], [ -82.397408384108232, 27.946562173285397 ], [ -82.397425384095229, 27.946008173151121 ], [ -82.397472384080672, 27.945137172939454 ], [ -82.397485384076816, 27.944901172882123 ], [ -82.397587384046403, 27.943050172432212 ], [ -82.397613383747853, 27.933574170141561 ], [ -82.393838382657492, 27.933567170236021 ], [ -82.39200138212675, 27.933560170281133 ], [ -82.389567381423518, 27.933550170340659 ], [ -82.385030380113164, 27.933549170455944 ], [ -82.383974379808279, 27.933552170483551 ], [ -82.382380379348092, 27.933556170525129 ], [ -82.380962378938676, 27.933560170562206 ], [ -82.380949378816524, 27.929892169675913 ], [ -82.380937378697439, 27.926307168809615 ], [ -82.380934378668073, 27.925425168596441 ], [ -82.380955378586961, 27.922722167942467 ], [ -82.379931378292213, 27.922752167975815 ], [ -82.378875377986432, 27.922727167996644 ], [ -82.377885377700778, 27.922736168023981 ], [ -82.376927377423797, 27.922728168046444 ], [ -82.375804377099357, 27.922723168073738 ], [ -82.374853376825001, 27.922734168100639 ], [ -82.372861376248821, 27.922707168144793 ], [ -82.371733375922545, 27.922692168169835 ], [ -82.370789375650304, 27.922705168197034 ], [ -82.368701375046641, 27.922687168245776 ], [ -82.368701374962001, 27.920062167611082 ], [ -82.368701374930708, 27.919091167376322 ], [ -82.368701374908042, 27.918388167206359 ], [ -82.368700374885591, 27.917700167039992 ], [ -82.368699374857741, 27.916845166833284 ], [ -82.368697374843705, 27.916427166732284 ], [ -82.368699374812877, 27.915453166496725 ], [ -82.368683374731617, 27.913074165921866 ], [ -82.368672374678624, 27.911527165548051 ], [ -82.368662374627093, 27.910018165183406 ], [ -82.368652374573045, 27.908428164799179 ], [ -82.368651374568628, 27.908300164768217 ], [ -82.36864337452927, 27.9071491644901 ], [ -82.368639374514188, 27.906718164385971 ], [ -82.368639374509698, 27.906578164352073 ], [ -82.368636374495722, 27.906171164253735 ], [ -82.368620374409488, 27.903637163641317 ], [ -82.368618374401606, 27.903409163586247 ], [ -82.368616374379883, 27.902752163427355 ], [ -82.368624374370711, 27.902394163340613 ], [ -82.368622374353393, 27.901874163214845 ], [ -82.368644374328014, 27.900888162975853 ], [ -82.368702374290834, 27.899212162568997 ], [ -82.365341373319751, 27.899202162651957 ], [ -82.364693373132781, 27.899208162669844 ], [ -82.363087372669042, 27.899212162711589 ], [ -82.362152372398583, 27.899200162732456 ], [ -82.360492371918426, 27.899179162769535 ], [ -82.35856937136225, 27.899156162812815 ], [ -82.356555370779731, 27.899131162857906 ], [ -82.354506370186115, 27.899076162896591 ], [ -82.354318370131608, 27.89907116290016 ], [ -82.352605369618161, 27.898491162803353 ], [ -82.351986369426385, 27.898087162721339 ], [ -82.351932369409624, 27.898052162714254 ], [ -82.35185636938607, 27.898002162704067 ], [ -82.351496369274557, 27.897768162656618 ], [ -82.348645368374534, 27.89539016215371 ], [ -82.348198368235884, 27.895094162093443 ], [ -82.347689368136201, 27.896565162462274 ], [ -82.346799367930558, 27.898166162872169 ], [ -82.344973367510107, 27.901493163723295 ], [ -82.343920367268083, 27.903426164217642 ], [ -82.343898367262994, 27.903465164227644 ], [ -82.342217366876724, 27.906550165016558 ], [ -82.339924366347475, 27.910687166075476 ], [ -82.339251366194361, 27.911970166402877 ], [ -82.337320365751353, 27.915537167314689 ], [ -82.337033365685571, 27.916067167450176 ], [ -82.334800365173251, 27.920190168504089 ], [ -82.333873364961093, 27.921917168945356 ], [ -82.333365364851574, 27.923071169237314 ], [ -82.332911364753528, 27.924100169497734 ], [ -82.332625364692333, 27.924764169665547 ], [ -82.332103364591617, 27.926318170054628 ], [ -82.331729364525174, 27.927609170376314 ], [ -82.331698364521472, 27.927771170416317 ], [ -82.331609364510612, 27.928232170530045 ], [ -82.33151836449963, 27.928706170646979 ], [ -82.331407364491326, 27.929444170828262 ], [ -82.331215364477174, 27.930726171143167 ], [ -82.331063364466289, 27.931750171394611 ], [ -82.331032364463908, 27.931953171444459 ], [ -82.331016364462783, 27.932062171471237 ], [ -82.330496364424945, 27.935546172326919 ], [ -82.330460364422393, 27.935789172386606 ], [ -82.330333364413249, 27.936643172596323 ], [ -82.32980236437561, 27.94023117347734 ], [ -82.329603364364829, 27.941677173832002 ], [ -82.329452364319366, 27.941620173822084 ], [ -82.329172364234836, 27.94150917380237 ], [ -82.328587364216332, 27.946171174944354 ], [ -82.328029364177127, 27.949947175871415 ], [ -82.32800136417525, 27.950140175918769 ], [ -82.327687364153164, 27.952265176440473 ], [ -82.32700036410516, 27.956921177583386 ], [ -82.326730364086302, 27.958751178032632 ], [ -82.326555364073926, 27.959932178322546 ], [ -82.326262364053349, 27.961914178809057 ], [ -82.326090364076947, 27.964180179361115 ], [ -82.326097364164312, 27.966817179998262 ], [ -82.326113364365966, 27.972906181469313 ], [ -82.326114364378626, 27.97328818156161 ], [ -82.326116364397663, 27.973859181699563 ], [ -82.326123364485824, 27.976520182342391 ], [ -82.326180364528938, 27.977343182539762 ], [ -82.32617536465338, 27.98123018347912 ], [ -82.326174364692392, 27.982443183772226 ], [ -82.326128364819425, 27.986774184819776 ], [ -82.326152365007701, 27.992368186170626 ], [ -82.326168365137377, 27.996223187101464 ], [ -82.326290365205693, 27.997243187344697 ], [ -82.326611365385304, 27.999919187982893 ], [ -82.326798365490106, 28.001484188356166 ], [ -82.326854365521598, 28.001957188468964 ], [ -82.326863365526549, 28.002029188486116 ], [ -82.326891365542281, 28.002264188542146 ], [ -82.32595536527549, 28.002378188593589 ], [ -82.32590236526039, 28.002384188596448 ], [ -82.324810364949172, 28.002516188656255 ], [ -82.324115364751066, 28.00260018869427 ], [ -82.320336363677185, 28.003157188925435 ], [ -82.319508363443248, 28.003322188986466 ], [ -82.319085363322898, 28.003381189011535 ], [ -82.317967363004982, 28.003538189078032 ], [ -82.314606362049048, 28.004011189278227 ], [ -82.311039361040727, 28.004702189536346 ], [ -82.307851360139438, 28.005319189766855 ], [ -82.302403358598369, 28.006347190154482 ], [ -82.302393358627256, 28.007325190390951 ], [ -82.302479358730793, 28.009749190974318 ], [ -82.302482358759903, 28.010619191184357 ], [ -82.302498358884307, 28.014307192074735 ], [ -82.302499359012884, 28.018257193028759 ], [ -82.302501359033911, 28.018886193180617 ], [ -82.302509359062782, 28.019704193377954 ], [ -82.302523359111063, 28.021065193706264 ], [ -82.302529359129963, 28.021593193833638 ], [ -82.302538359213855, 28.024095194437635 ], [ -82.302542359252513, 28.025247194715718 ], [ -82.302573359378897, 28.028859195587195 ], [ -82.302615359508138, 28.032459196455321 ], [ -82.302659359641751, 28.036175197351486 ], [ -82.30266035964712, 28.036331197389099 ], [ -82.302706359861446, 28.042507198879029 ], [ -82.302713359892621, 28.043403199095149 ], [ -82.302708360129714, 28.050726200863039 ], [ -82.302704360155388, 28.051549201061771 ], [ -82.30269536021197, 28.053367201500851 ], [ -82.302691360240928, 28.054290201723731 ], [ -82.302689360253794, 28.054702201823208 ], [ -82.30269036026553, 28.055053201907949 ], [ -82.302690360272493, 28.055267201959623 ], [ -82.302697360363496, 28.057997202618346 ], [ -82.302707360403872, 28.059146202895413 ], [ -82.302729360494112, 28.061718203515561 ], [ -82.302735360543949, 28.063193203871432 ], [ -82.302744360616757, 28.065344204390279 ], [ -82.302741360710755, 28.068253205092354 ], [ -82.302762360720237, 28.068357205116925 ], [ -82.302816360738959, 28.068452205138446 ], [ -82.30310436082776, 28.068622205172119 ], [ -82.302782360748424, 28.069044205282154 ], [ -82.302354360642994, 28.069604205428284 ], [ -82.301173360340485, 28.07079320574557 ], [ -82.300320360120054, 28.071593205960532 ], [ -82.299567359922236, 28.072201206126593 ], [ -82.298496359636985, 28.072945206333625 ], [ -82.297990359500332, 28.073240206417818 ], [ -82.296954359220706, 28.073847206590873 ], [ -82.28738835662044, 28.0788932080542 ], [ -82.286567356394571, 28.079243208159713 ], [ -82.285730356160201, 28.079475208237245 ], [ -82.285229356018704, 28.079576208274464 ], [ -82.285199355997591, 28.079196208183536 ], [ -82.285199355992106, 28.079028208143011 ], [ -82.285192355899682, 28.076259207475012 ], [ -82.277827353772054, 28.076301207674305 ], [ -82.272697352290052, 28.076331207813276 ], [ -82.272247352159908, 28.076330207824583 ], [ -82.27130335188734, 28.076340207851224 ], [ -82.269780351447594, 28.076357207894443 ], [ -82.267205350702852, 28.076346207957922 ], [ -82.266735350566904, 28.076345207969787 ], [ -82.265811350299657, 28.076341207992545 ], [ -82.265278350145451, 28.07633820800547 ], [ -82.263298349572551, 28.076322208052481 ], [ -82.26186734915845, 28.076311208086544 ], [ -82.261529349060638, 28.07630820809451 ], [ -82.253825346833707, 28.076321208295457 ], [ -82.253419346716356, 28.076322208306138 ], [ -82.252820346543174, 28.076323208321764 ], [ -82.252062346324067, 28.076325208341693 ], [ -82.249179345490361, 28.076320208414522 ], [ -82.24875234536681, 28.076318208424997 ], [ -82.240930343104012, 28.076283208617333 ], [ -82.237037341977924, 28.076270208714099 ], [ -82.236735341890579, 28.076269208721612 ], [ -82.231630340414853, 28.076284208856286 ], [ -82.229139339694584, 28.076286208920706 ], [ -82.226517338936446, 28.076288208988473 ], [ -82.222354337732739, 28.076293209096516 ], [ -82.220360337156123, 28.076295209148164 ], [ -82.216398336009846, 28.076280209246256 ], [ -82.214609335492312, 28.076274209290723 ], [ -82.210307334247275, 28.076248209394802 ], [ -82.206592333172154, 28.076227209485047 ], [ -82.204992332709665, 28.076235209528079 ], [ -82.199873331227977, 28.076201209651199 ], [ -82.197346330497069, 28.076201209716018 ], [ -82.191649328849238, 28.076200209861923 ], [ -82.189039328094637, 28.076211209931571 ], [ -82.18756232766728, 28.076206209968255 ], [ -82.182127326094701, 28.076194210104756 ], [ -82.179221325254247, 28.076199210180498 ], [ -82.175147324075951, 28.076206210286717 ], [ -82.171132322915923, 28.076250210400271 ], [ -82.168395322125079, 28.076280210477741 ], [ -82.164372320962073, 28.076305210586948 ], [ -82.158799319349512, 28.076298210728211 ], [ -82.156650318728737, 28.076327210790296 ], [ -82.154588318132852, 28.076349210848498 ], [ -82.153797317905926, 28.076408210883045 ], [ -82.15341631779647, 28.076432210898609 ], [ -82.15295931766461, 28.076443210912966 ], [ -82.152907317649593, 28.076445210914766 ], [ -82.151996317386278, 28.076452210939795 ], [ -82.151050317112862, 28.076461210966254 ], [ -82.147980316225585, 28.076490211051976 ], [ -82.146982315937066, 28.07649921107976 ], [ -82.14460931525123, 28.07652221114617 ], [ -82.142963314775287, 28.076532211190763 ], [ -82.137855313298616, 28.076573211331635 ], [ -82.137619313230147, 28.076568211336497 ], [ -82.138285313536073, 28.080041212158385 ], [ -82.140408314511205, 28.091104214776024 ], [ -82.138999314103756, 28.091111214813886 ], [ -82.134236312727253, 28.091165214949147 ], [ -82.133510312517316, 28.091169214968716 ], [ -82.133272312448454, 28.091170214975083 ], [ -82.130089311527982, 28.091188215061131 ], [ -82.130012311505666, 28.091188215063088 ], [ -82.129728311423577, 28.091190215070856 ], [ -82.127279310715295, 28.091203215136847 ], [ -82.122481309327668, 28.091229215266246 ], [ -82.115931307432859, 28.091253215440101 ], [ -82.115600307337118, 28.091255215449067 ], [ -82.115250307235897, 28.091256215458294 ], [ -82.111396306120994, 28.091271215560791 ], [ -82.111410306039076, 28.088636214923905 ], [ -82.11128530599747, 28.088469214886747 ], [ -82.109559305495765, 28.088403214915072 ], [ -82.109423305452111, 28.08827121488665 ], [ -82.109431305283664, 28.083034213621289 ], [ -82.109433305258619, 28.082248213431342 ], [ -82.109435305243068, 28.081751213311215 ], [ -82.10944230520343, 28.080474213002471 ], [ -82.109425305192346, 28.080285212957275 ], [ -82.109018305076745, 28.0803522129839 ], [ -82.108624304963897, 28.080388213002667 ], [ -82.099146302220589, 28.080383213244421 ], [ -82.097050301613834, 28.080382213297913 ], [ -82.095063301038977, 28.080390213350743 ], [ -82.089935299554227, 28.080376213478811 ], [ -82.089443299411826, 28.080375213491187 ], [ -82.088866299244771, 28.080374213505763 ], [ -82.086537298570505, 28.080372213564949 ], [ -82.076298295606335, 28.080362213824891 ], [ -82.073465294786118, 28.080359213896759 ], [ -82.072783294588746, 28.080360213914471 ], [ -82.072534294516672, 28.080360213920873 ], [ -82.071345294172559, 28.080363213952015 ], [ -82.067808293148858, 28.080371214044639 ], [ -82.063036291767688, 28.080381214169279 ], [ -82.061434291304039, 28.08038521421128 ], [ -82.057511290168335, 28.080388214312507 ], [ -82.057233290087865, 28.080388214319644 ], [ -82.056407289848778, 28.080390214341268 ], [ -82.056408289838174, 28.080056214260537 ], [ -82.056393289784211, 28.078531213892315 ], [ -82.056383289738889, 28.077229213577855 ], [ -82.05637528970378, 28.076221213334385 ], [ -82.056366289665519, 28.075127213070221 ], [ -82.056358289632101, 28.0741712128393 ], [ -82.056347289582732, 28.072751212496328 ], [ -82.05634528957556, 28.072550212447787 ], [ -82.056334289523761, 28.071055212086698 ], [ -82.056334289523278, 28.071040212083052 ], [ -82.056330289506462, 28.07055821196667 ], [ -82.056329289504887, 28.07051921195724 ], [ -82.056329289504475, 28.070507211954304 ], [ -82.05632928950358, 28.070479211947568 ], [ -82.056329289502784, 28.070455211941759 ], [ -82.056329289502202, 28.070437211937389 ], [ -82.056325289482444, 28.069865211799254 ], [ -82.056324289480088, 28.069801211783783 ], [ -82.056324289479321, 28.069778211778249 ], [ -82.056319289453768, 28.069038211599462 ], [ -82.056314289431214, 28.068389211442692 ], [ -82.056313289427962, 28.068298211420714 ], [ -82.056310289417866, 28.068014211352164 ], [ -82.056309289412667, 28.067863211315679 ], [ -82.056308289411888, 28.067848211312072 ], [ -82.056308289411476, 28.067835211308953 ], [ -82.056308289411007, 28.067821211305539 ], [ -82.056308289410651, 28.067810211302898 ], [ -82.05630728940821, 28.067744211286978 ], [ -82.056307289406945, 28.067705211277524 ], [ -82.05630128939498, 28.067390211201509 ], [ -82.056294289382691, 28.067075211125548 ], [ -82.056294289381697, 28.067045211118316 ], [ -82.056296289367936, 28.066604211011626 ], [ -82.056296289367097, 28.066579211005585 ], [ -82.056298289357557, 28.066267210930093 ], [ -82.056293289340744, 28.06579521081613 ], [ -82.056292289335587, 28.065645210779842 ], [ -82.056291289332407, 28.065556210758434 ], [ -82.056291289330474, 28.065496210743895 ], [ -82.056270289226191, 28.062477210014539 ], [ -82.056270289225807, 28.062465210011631 ], [ -82.056269289222939, 28.062386209992564 ], [ -82.056252289144837, 28.060135209448759 ], [ -82.056249289130363, 28.059716209347499 ], [ -82.056247289124912, 28.059566209311285 ], [ -82.056247289124499, 28.059554209308402 ], [ -82.056247289123974, 28.059538209304506 ], [ -82.056247289123462, 28.059522209300678 ], [ -82.056234289065372, 28.057850208896713 ], [ -82.056234289063923, 28.057805208885824 ], [ -82.056232289054961, 28.057549208824 ], [ -82.056231289050785, 28.057429208795039 ], [ -82.05623128905016, 28.057410208790422 ], [ -82.056231289048554, 28.057360208778292 ], [ -82.056230289046098, 28.057294208762421 ], [ -82.056223289009026, 28.056215208501687 ], [ -82.056220288994027, 28.055780208396538 ], [ -82.056219288991485, 28.055710208379644 ], [ -82.056219288991045, 28.055697208376525 ], [ -82.056219288990462, 28.05567920837218 ], [ -82.05621928898988, 28.055661208367809 ], [ -82.056219288989453, 28.05564820836463 ], [ -82.056208288933988, 28.054040207976133 ], [ -82.056199288896622, 28.052969207717354 ], [ -82.056198288892546, 28.052853207689324 ], [ -82.056196288881011, 28.052515207607659 ], [ -82.056193288869167, 28.052177207525997 ], [ -82.056187288841826, 28.051391207336074 ], [ -82.056181288814543, 28.050604207145909 ], [ -82.056180288811547, 28.050520207125679 ], [ -82.056172288766803, 28.049213206809821 ], [ -82.056170288757713, 28.048951206746498 ], [ -82.056169288753523, 28.048831206717512 ], [ -82.056168288750271, 28.048739206695291 ], [ -82.056167288745485, 28.048601206661896 ], [ -82.056167288744575, 28.048573206655146 ], [ -82.056167288743239, 28.048532206645213 ], [ -82.056163288718949, 28.047821206473412 ], [ -82.056161288717178, 28.047784206464488 ], [ -82.056162288717061, 28.047772206461602 ], [ -82.056164288716559, 28.047739206453546 ], [ -82.056164288714967, 28.047689206441454 ], [ -82.056162288710084, 28.047557206409596 ], [ -82.05612128852971, 28.042365205154947 ], [ -82.056120288525406, 28.042243205125498 ], [ -82.056118288516089, 28.04197420506048 ], [ -82.056116288508406, 28.041755205007554 ], [ -82.056114288496218, 28.041397204921001 ], [ -82.056114288495536, 28.041376204915984 ], [ -82.056103288490306, 28.04131220490078 ], [ -82.056046288462667, 28.040970204819534 ], [ -82.056040288459798, 28.040935204811188 ], [ -82.056034288457013, 28.040902204803348 ], [ -82.056032288456038, 28.040890204800515 ], [ -82.056027288453393, 28.040854204791913 ], [ -82.056022288451246, 28.040832204786724 ], [ -82.056016288448433, 28.040798204778675 ], [ -82.056012288446496, 28.040774204772973 ], [ -82.056010288445464, 28.040760204769608 ], [ -82.055935288409202, 28.040313204663416 ], [ -82.055931288407251, 28.040288204657479 ], [ -82.055957288360659, 28.038620204253377 ], [ -82.055949288310316, 28.037140203895603 ], [ -82.055949288303893, 28.036942203847762 ], [ -82.055950288297595, 28.036739203798639 ], [ -82.055952288286036, 28.03636520370808 ], [ -82.055950288230292, 28.034664203296686 ], [ -82.055947288191419, 28.033492203013267 ], [ -82.055944288182602, 28.033247202954072 ], [ -82.055943288178526, 28.033130202925811 ], [ -82.055941288173443, 28.032991202892234 ], [ -82.055933288133858, 28.031843202614766 ], [ -82.055870288036473, 28.029402202025921 ], [ -82.055838287997446, 28.028484201804652 ], [ -82.055833287978317, 28.027938201672715 ], [ -82.055832287972805, 28.027777201633782 ], [ -82.055791287949447, 28.027422201548948 ], [ -82.055770287937477, 28.027241201505703 ], [ -82.055709287910318, 28.02694820143639 ], [ -82.055704287908114, 28.026925201430931 ], [ -82.055697287905005, 28.02689120142287 ], [ -82.055689287901529, 28.026856201414628 ], [ -82.055687287891743, 28.026572201345964 ], [ -82.055686287889543, 28.026513201331696 ], [ -82.055670287874378, 28.026186201253026 ], [ -82.055668287871626, 28.026121201237338 ], [ -82.055660287863532, 28.025942201194241 ], [ -82.055655287858883, 28.025843201170439 ], [ -82.055654287856072, 28.025765201151568 ], [ -82.05565428785485, 28.025727201142349 ], [ -82.055652287849043, 28.025566201103455 ], [ -82.055650287843264, 28.025405201064576 ], [ -82.055746287862888, 28.025154201001424 ], [ -82.055747287846089, 28.024627200873923 ], [ -82.055748287835641, 28.024296200793788 ], [ -82.055748287834362, 28.024256200784112 ], [ -82.055749287828434, 28.024064200737655 ], [ -82.055728287765575, 28.022312200314317 ], [ -82.055721287728659, 28.021235200053923 ], [ -82.055640287697912, 28.021010200001559 ], [ -82.055634287682736, 28.020595199901333 ], [ -82.055634287662969, 28.019985199753698 ], [ -82.055634287652765, 28.019670199677481 ], [ -82.055635287642019, 28.019329199594953 ], [ -82.055709287658146, 28.019166199553649 ], [ -82.055709287628332, 28.018246199331035 ], [ -82.055699287595189, 28.017311199105094 ], [ -82.055704287584845, 28.016948199017147 ], [ -82.0557062875817, 28.016833198989236 ], [ -82.055703287572456, 28.016573198926444 ], [ -82.055693287539881, 28.015656198704797 ], [ -82.055640287515672, 28.015384198640337 ], [ -82.055630287469072, 28.014033198313683 ], [ -82.055632287459957, 28.013734198241309 ], [ -82.055615287435529, 28.01313219809607 ], [ -82.055673287445686, 28.012926198044763 ], [ -82.05567928742542, 28.012247197880303 ], [ -82.055664287383493, 28.011087197599984 ], [ -82.055668287368889, 28.010600197482059 ], [ -82.055669287364822, 28.01046619744961 ], [ -82.055664287329463, 28.009417197195866 ], [ -82.055653287301226, 28.008643197008865 ], [ -82.055598287277576, 28.008405196952658 ], [ -82.055596287261707, 28.007932196838247 ], [ -82.055595287257503, 28.00781119680903 ], [ -82.055594287245825, 28.007459196723836 ], [ -82.055596287224233, 28.006774196558045 ], [ -82.055593287212602, 28.006441196477532 ], [ -82.055641287222926, 28.006331196449679 ], [ -82.055647287220921, 28.006216196421708 ], [ -82.055644287213184, 28.006003196370205 ], [ -82.055652287203287, 28.005625196278562 ], [ -82.055666287186256, 28.004974196120649 ], [ -82.055620287164643, 28.004718196059841 ], [ -82.055643287166802, 28.004579196025627 ], [ -82.055688287167413, 28.004195195931544 ], [ -82.055724287170705, 28.003974195877134 ], [ -82.055735287170506, 28.003870195851736 ], [ -82.055736287170049, 28.003847195846163 ], [ -82.055754287170345, 28.003694195808638 ], [ -82.055805287178131, 28.003478195755051 ], [ -82.055826287177965, 28.003286195708071 ], [ -82.055826287173645, 28.003152195675632 ], [ -82.055841287174417, 28.003042195648636 ], [ -82.055916287194151, 28.002981195631957 ], [ -82.055924287189185, 28.002755195577031 ], [ -82.055936287182305, 28.002436195499563 ], [ -82.055937287177997, 28.002294195465161 ], [ -82.05593728717669, 28.002253195455243 ], [ -82.055940287164873, 28.001861195360274 ], [ -82.055861287134221, 28.001620195304003 ], [ -82.055859287123951, 28.001320195231383 ], [ -82.055865287112368, 28.000908195131537 ], [ -82.055870287080481, 27.999878194882129 ], [ -82.055926287091864, 27.999728194844437 ], [ -82.055923287058917, 27.998735194604183 ], [ -82.055920287022715, 27.99764319433994 ], [ -82.055839286995237, 27.997519194312019 ], [ -82.055847286979002, 27.996946194173091 ], [ -82.055854286965925, 27.99647719405937 ], [ -82.05585628696312, 27.996373194034213 ], [ -82.055851286942342, 27.995774193889332 ], [ -82.055833286923331, 27.995348193786672 ], [ -82.055853286922726, 27.99515019373823 ], [ -82.055769286877307, 27.994497193582308 ], [ -82.055677286827532, 27.993781193411404 ], [ -82.055613286792891, 27.993283193292452 ], [ -82.055609286790713, 27.99325119328482 ], [ -82.05559228677707, 27.992982193220147 ], [ -82.055567286768124, 27.992929193207992 ], [ -82.055514286749073, 27.992814193181481 ], [ -82.055540286739898, 27.992297193055688 ], [ -82.055560286737233, 27.992035192991754 ], [ -82.055634286752792, 27.99185419294605 ], [ -82.055715286758769, 27.991313192813028 ], [ -82.055786286764047, 27.990840192696734 ], [ -82.055743286741532, 27.990529192622528 ], [ -82.055840286749373, 27.989903192468532 ], [ -82.055884286755244, 27.989690192415885 ], [ -82.055896286757758, 27.989660192408337 ], [ -82.055951286768092, 27.989488192365265 ], [ -82.055964286760286, 27.989129192278021 ], [ -82.055968286709941, 27.98753519189205 ], [ -82.055968286705962, 27.987412191862301 ], [ -82.055958286649968, 27.98576919146484 ], [ -82.055958286645151, 27.985620191428769 ], [ -82.055957286637508, 27.985392191373595 ], [ -82.055958286595128, 27.984071191053751 ], [ -82.055958286581003, 27.983634190947981 ], [ -82.055958286577621, 27.983529190922553 ], [ -82.05595828657313, 27.983390190888901 ], [ -82.055934286564053, 27.983324190873539 ], [ -82.055874286541439, 27.98316019083537 ], [ -82.05587428653709, 27.983025190802689 ], [ -82.055873286529334, 27.982794190746802 ], [ -82.055881286523217, 27.982534190683626 ], [ -82.055895286512083, 27.982064190569496 ], [ -82.055898286509418, 27.98195319054253 ], [ -82.055902286506637, 27.98183219051316 ], [ -82.055900286478987, 27.980993190310116 ], [ -82.055932286485344, 27.980904190287752 ], [ -82.05595928649079, 27.980830190269117 ], [ -82.055949286435251, 27.979199189874514 ], [ -82.05594728642464, 27.978888189799264 ], [ -82.055943286419392, 27.978761189768587 ], [ -82.055942286418542, 27.978744189764548 ], [ -82.055917286402035, 27.978458189695928 ], [ -82.055904286395787, 27.978380189677413 ], [ -82.055871286379528, 27.978173189628073 ], [ -82.055785286331499, 27.977455189456435 ], [ -82.055702286285566, 27.976777189294406 ], [ -82.055689286277016, 27.976629189258926 ], [ -82.055662286259647, 27.976333189187947 ], [ -82.055643286243367, 27.975999189107558 ], [ -82.055654286205538, 27.974727188799271 ], [ -82.055654286204643, 27.974700188792752 ], [ -82.055650286193156, 27.974379188715137 ], [ -82.055648286185956, 27.974174188665561 ], [ -82.055649286160374, 27.973372188471327 ], [ -82.055649286158115, 27.973302188454397 ], [ -82.055641286108255, 27.971829188097963 ], [ -82.055637286102908, 27.971699188066559 ], [ -82.055638286100006, 27.97160018804254 ], [ -82.055640286096761, 27.971482188013919 ], [ -82.055637286078436, 27.970941187882996 ], [ -82.055637286072908, 27.970769187841348 ], [ -82.055636286064612, 27.970521187781326 ], [ -82.055636286063319, 27.970481187771664 ], [ -82.055635286050816, 27.970102187679927 ], [ -82.055633286025326, 27.96933018749305 ], [ -82.055625286001273, 27.968655187329812 ], [ -82.055624285961102, 27.967420187030754 ], [ -82.05562428594996, 27.967074186946945 ], [ -82.055617285916796, 27.966108186713186 ], [ -82.055620285912298, 27.965942186672951 ], [ -82.055613285888143, 27.965255186506791 ], [ -82.055616285882394, 27.965050186457027 ], [ -82.055607285838775, 27.963777186149013 ], [ -82.055601285803462, 27.962737185897325 ], [ -82.055573285769071, 27.96192118570038 ], [ -82.05556728576677, 27.961903185696212 ], [ -82.055532285733179, 27.961175185520769 ], [ -82.055515285706406, 27.960496185356792 ], [ -82.055514285704177, 27.960437185342538 ], [ -82.055511285658824, 27.959057185008376 ], [ -82.055511285651093, 27.958817184950281 ], [ -82.055495285622655, 27.958077184771469 ], [ -82.055495285613986, 27.957808184706312 ], [ -82.055516285619163, 27.957780184699001 ], [ -82.055508285591031, 27.956980184505436 ], [ -82.055484285547593, 27.955847184231651 ], [ -82.055461285521545, 27.955245184086415 ], [ -82.05541928548358, 27.954444183893457 ], [ -82.055393285449696, 27.953625183695774 ], [ -82.055392285424986, 27.952867183512183 ], [ -82.05536928537957, 27.951664183221407 ], [ -82.055371285341565, 27.950465182930937 ], [ -82.055366285338508, 27.950415182918931 ], [ -82.055347285326377, 27.950209182869532 ], [ -82.055359285299957, 27.949280182644213 ], [ -82.055354285290832, 27.949043182586891 ], [ -82.055353285278031, 27.948654182492735 ], [ -82.055349285229482, 27.947181182136031 ], [ -82.055346285217809, 27.946846182054937 ], [ -82.055339285187898, 27.945979181845104 ], [ -82.055348285171746, 27.945397181703928 ], [ -82.055338285128869, 27.944154181403043 ], [ -82.055336285117988, 27.943833181325363 ], [ -82.055331285096884, 27.94322418117795 ], [ -82.0553192850399, 27.941560180775134 ], [ -82.055325285015599, 27.940751180579003 ], [ -82.055323284991061, 27.940006180398584 ], [ -82.055321284984046, 27.939806180350161 ], [ -82.055319284973976, 27.939511180278757 ], [ -82.055306284947434, 27.938803180107591 ], [ -82.055307284927764, 27.938183179957331 ], [ -82.055310284925525, 27.938085179933534 ], [ -82.055305284920095, 27.937962179903838 ], [ -82.05530428491393, 27.937779179859543 ], [ -82.055299284883958, 27.936892179644783 ], [ -82.055297284867237, 27.936390179523169 ], [ -82.055290284819833, 27.9349781791813 ], [ -82.055288284807602, 27.934616179093652 ], [ -82.055285284796113, 27.934287179013982 ], [ -82.055283284788402, 27.934065178960243 ], [ -82.055280284777197, 27.933743178882331 ], [ -82.055276284761177, 27.933281178770457 ], [ -82.055275284758608, 27.933210178753292 ], [ -82.055273284747116, 27.932870178670946 ], [ -82.055272284741307, 27.932698178629302 ], [ -82.055271284733166, 27.932454178570271 ], [ -82.055269284724247, 27.932194178507299 ], [ -82.055267284711704, 27.931822178417217 ], [ -82.055265284698223, 27.931420178319883 ], [ -82.055264284694573, 27.931318178295168 ], [ -82.055261284644345, 27.929781177922841 ], [ -82.055261284641887, 27.929705177904449 ], [ -82.055261284634454, 27.929474177848437 ], [ -82.05526028460244, 27.928487177609302 ], [ -82.055259284583613, 27.927909177469296 ], [ -82.055268284580222, 27.927722177423739 ], [ -82.05527128457372, 27.927493177368163 ], [ -82.055265284564427, 27.927258177311412 ], [ -82.055263284561477, 27.927185177293794 ], [ -82.05526128455783, 27.927090177270774 ], [ -82.055259284554595, 27.927006177250494 ], [ -82.055233284506812, 27.925754176947766 ], [ -82.054960284005958, 27.912616173770822 ], [ -82.054887283846995, 27.908320172731415 ], [ -82.054877283825178, 27.90773117258891 ], [ -82.054869283807349, 27.907247172471759 ], [ -82.054893283772344, 27.905939172154106 ], [ -82.055106283466927, 27.894489169373021 ], [ -82.055115283454469, 27.89401816925859 ], [ -82.055218283306914, 27.888481167913586 ], [ -82.055291283203644, 27.884595166969461 ], [ -82.055291283202919, 27.884572166963899 ], [ -82.055253283190652, 27.884533166955389 ], [ -82.055255283163049, 27.883653166741965 ], [ -82.05525528315944, 27.88354016671456 ], [ -82.055256283140608, 27.882943166569802 ], [ -82.055217283087387, 27.881633166253078 ], [ -82.055213283067488, 27.881047166111085 ], [ -82.055206283026379, 27.879825165814939 ], [ -82.055256282984161, 27.878054165384199 ], [ -82.055268282948319, 27.876824165085644 ], [ -82.055268282947807, 27.876808165081751 ], [ -82.055268282947452, 27.876797165079111 ], [ -82.055277282922773, 27.875945164872249 ], [ -82.055277282922106, 27.875924164867154 ], [ -82.055260282888668, 27.875033164651477 ], [ -82.055259282887462, 27.87500416464448 ], [ -82.055259282886752, 27.874982164639164 ], [ -82.05525928288624, 27.874966164635243 ], [ -82.055248282863715, 27.874361164488786 ], [ -82.055252282837898, 27.873518164284288 ], [ -82.055252282837586, 27.873508164281883 ], [ -82.055252282837216, 27.873497164279179 ], [ -82.055252282836491, 27.873473164273374 ], [ -82.055252282834743, 27.873419164260298 ], [ -82.055256282797288, 27.872212163967443 ], [ -82.055265282761752, 27.871018163677629 ], [ -82.055266282758737, 27.870914163652358 ], [ -82.055270282741759, 27.870348163514986 ], [ -82.05527528272124, 27.86966116334828 ], [ -82.055277282715053, 27.869449163296782 ], [ -82.055277282714101, 27.869419163289514 ], [ -82.055277282713647, 27.869406163286332 ], [ -82.055277282713021, 27.869386163281497 ], [ -82.055279282709279, 27.869251163248673 ], [ -82.055280282705723, 27.869131163219585 ], [ -82.055282282694535, 27.868763163130286 ], [ -82.055284282679295, 27.868268163010189 ], [ -82.055284282675998, 27.868165162985189 ], [ -82.055276282665332, 27.867903162921866 ], [ -82.05526628265099, 27.867544162835053 ], [ -82.055251282640512, 27.867352162788826 ], [ -82.055237282619814, 27.866833162663305 ], [ -82.055230282601229, 27.866314162537606 ], [ -82.055229282584364, 27.865795162411729 ], [ -82.055234282569685, 27.865291162289395 ], [ -82.055234282569216, 27.865276162285724 ], [ -82.055199282550348, 27.865002162220165 ], [ -82.054669282245982, 27.860278161087642 ], [ -82.054587282198852, 27.859546160912132 ], [ -82.054048281889138, 27.85473315975818 ], [ -82.054044281886803, 27.854696159749292 ], [ -82.054039281883959, 27.854652159738738 ], [ -82.054038281757144, 27.850688158777075 ], [ -82.054038281752995, 27.850558158745521 ], [ -82.054034281560192, 27.844551157288166 ], [ -82.054030281363183, 27.838410155798194 ], [ -82.05403028136179, 27.838366155787487 ], [ -82.054030281360426, 27.838323155777051 ], [ -82.054030281358976, 27.838278155766162 ], [ -82.054030281356589, 27.838203155747902 ], [ -82.054030281354173, 27.838127155729495 ], [ -82.054030281352922, 27.838088155720005 ], [ -82.054030281351601, 27.838047155710047 ], [ -82.054030281350251, 27.838004155699672 ], [ -82.054030281349057, 27.837967155690659 ], [ -82.054030281347963, 27.837932155682136 ], [ -82.05402928131943, 27.837046155467188 ], [ -82.054029281291207, 27.836161155252451 ], [ -82.054029281290269, 27.83613115524512 ], [ -82.054029281288948, 27.83608915523498 ], [ -82.054029281287043, 27.836030155220648 ], [ -82.054029281286006, 27.835998155212852 ], [ -82.054027281170875, 27.832403154340497 ], [ -82.054024281055391, 27.828807153467835 ], [ -82.054020280870745, 27.823045152069422 ], [ -82.054016280686184, 27.817283150670871 ], [ -82.054015280645388, 27.816010150361919 ], [ -82.054035280622529, 27.815109150142689 ], [ -82.054044280612473, 27.81471215004607 ], [ -82.054046280610208, 27.81462315002441 ], [ -82.054047280609396, 27.814588150015926 ], [ -82.054047280609069, 27.814578150013467 ], [ -82.054050280606774, 27.81447714998891 ], [ -82.054051280605336, 27.814423149975745 ], [ -82.054053280603199, 27.814337149954795 ], [ -82.05405528060102, 27.814251149933909 ], [ -82.054058280597459, 27.814112149900051 ], [ -82.054215280423875, 27.807225148224124 ], [ -82.054375280246887, 27.800200146514431 ], [ -82.054381280240293, 27.799939146450946 ], [ -82.054387280233769, 27.799677146387161 ], [ -82.054388280232203, 27.799619146373093 ], [ -82.054389280231476, 27.799587146365244 ], [ -82.054391280229183, 27.799496146343117 ], [ -82.054402280217147, 27.799019146227035 ], [ -82.054404280214953, 27.798932146205839 ], [ -82.054404280214499, 27.798917146202193 ], [ -82.054405280213246, 27.798869146190512 ], [ -82.054406280212646, 27.798841146183698 ], [ -82.054406280212319, 27.798831146181278 ], [ -82.054409280209896, 27.798727146155947 ], [ -82.054412280206563, 27.798593146123331 ], [ -82.054413280205196, 27.798541146110697 ], [ -82.054416280202574, 27.798431146083914 ], [ -82.054418280199599, 27.798320146056898 ], [ -82.05443128018608, 27.797777145924705 ], [ -82.054445280172857, 27.797233145792291 ], [ -82.054461280156744, 27.796579145633068 ], [ -82.054478280140955, 27.79592614547408 ], [ -82.054546280073694, 27.79318914480772 ], [ -82.054637279982998, 27.789503143910274 ], [ -82.054725279891272, 27.785810143011183 ], [ -82.054733279871698, 27.785121142843668 ], [ -82.054745279874254, 27.785093142836548 ], [ -82.054767279854971, 27.784285142639774 ], [ -82.054805279817359, 27.782752142266432 ], [ -82.05480627981558, 27.78268814225094 ], [ -82.054808279814154, 27.782624142235331 ], [ -82.054815279807372, 27.782345142167348 ], [ -82.054822279800547, 27.782067142099699 ], [ -82.054825279797313, 27.781937142068013 ], [ -82.054829279794262, 27.781806142036096 ], [ -82.054832279791242, 27.781683142006159 ], [ -82.054835279788193, 27.781560141976247 ], [ -82.054839279782229, 27.781334141921231 ], [ -82.054837279774432, 27.781106141865866 ], [ -82.054837279771093, 27.781001141840402 ], [ -82.054846279771212, 27.780923141821187 ], [ -82.054850279765944, 27.780721141772034 ], [ -82.05485327976038, 27.780519141722902 ], [ -82.054859279750588, 27.780155141634342 ], [ -82.054863279744922, 27.77993914158181 ], [ -82.054867279739199, 27.779722141528982 ], [ -82.054878279719389, 27.778998141352869 ], [ -82.054879279716843, 27.778909141331205 ], [ -82.054881279714564, 27.778819141309299 ], [ -82.054886279706395, 27.778514141235078 ], [ -82.05489127969814, 27.7782091411609 ], [ -82.054895279691664, 27.777968141102239 ], [ -82.054899279685145, 27.777727141043588 ], [ -82.054914279669248, 27.777088140888029 ], [ -82.054926279655945, 27.776560140759418 ], [ -82.054929279653351, 27.776449140732439 ], [ -82.054931279632683, 27.775779140569632 ], [ -82.054931279628747, 27.775655140539484 ], [ -82.054927279616848, 27.775316140457242 ], [ -82.054926279589409, 27.774461140249581 ], [ -82.054924279582423, 27.774259140200581 ], [ -82.054924279577534, 27.77410514016314 ], [ -82.054924279572688, 27.773952140126021 ], [ -82.054921279552588, 27.773345139978641 ], [ -82.05491727954562, 27.773161139934007 ], [ -82.054920279540696, 27.772979139889713 ], [ -82.054920279537313, 27.772872139863772 ], [ -82.054919279534786, 27.772801139846557 ], [ -82.054919279532527, 27.772730139829239 ], [ -82.054892279319802, 27.7662631382589 ], [ -82.054889279295267, 27.765516138077491 ], [ -82.054888279237332, 27.763696137635336 ], [ -82.054883279225578, 27.763370137556301 ], [ -82.054882279213672, 27.76300313746713 ], [ -82.054881279203272, 27.76268613739013 ], [ -82.05487327911716, 27.760039136747228 ], [ -82.054873279116094, 27.76000513673894 ], [ -82.054868279064209, 27.758411136351757 ], [ -82.054867279054406, 27.758111136278909 ], [ -82.054864279016741, 27.756948135996392 ], [ -82.054863278991235, 27.756152135803024 ], [ -82.054853278895962, 27.753233135093961 ], [ -82.054843278800703, 27.750313134384665 ], [ -82.054814278611858, 27.74460913299918 ], [ -82.054785278423182, 27.738905131613617 ], [ -82.05475427821851, 27.732710130108615 ], [ -82.054733278085251, 27.728683129130228 ], [ -82.054732278080621, 27.728545129096709 ], [ -82.054731278074414, 27.728357129050991 ], [ -82.054731278074058, 27.728346129048315 ], [ -82.05473127807295, 27.728311129039817 ], [ -82.054722278013614, 27.726515128603467 ], [ -82.054722278013273, 27.726504128600766 ], [ -82.054706277902625, 27.723144127784327 ], [ -82.054705277894953, 27.722910127727488 ], [ -82.05470327788538, 27.722625127658233 ], [ -82.054701277875736, 27.722339127588732 ], [ -82.054701277874784, 27.722309127581465 ], [ -82.054701277873889, 27.722281127574661 ], [ -82.054700277873081, 27.722264127570547 ], [ -82.054700277872669, 27.722251127567368 ], [ -82.05470027787112, 27.72220212755547 ], [ -82.054691277824702, 27.720813127217976 ], [ -82.054682277774006, 27.719288126847456 ], [ -82.054651277544863, 27.712308125151097 ], [ -82.054690277476183, 27.709771124533198 ], [ -82.054701277456772, 27.709055124358809 ], [ -82.054752277460508, 27.708703124271988 ], [ -82.054764277447191, 27.708172124142539 ], [ -82.05476427744685, 27.708161124139821 ], [ -82.05476427744648, 27.708150124137184 ], [ -82.054840277361208, 27.704744123307027 ], [ -82.054759277217357, 27.700923122379773 ], [ -82.05475227720521, 27.700600122301413 ], [ -82.05473927694392, 27.692421120312407 ], [ -82.054736276877307, 27.690332119804392 ], [ -82.054713276431684, 27.676373116409145 ], [ -82.054713276427819, 27.676250116379194 ], [ -82.054714276426708, 27.676205116368202 ], [ -82.054715276423394, 27.676091116340462 ], [ -82.054715276416928, 27.675885116290338 ], [ -82.054713276415882, 27.675870116286717 ], [ -82.054713276415526, 27.675859116284077 ], [ -82.054713276414674, 27.675832116277533 ], [ -82.054713276414276, 27.675819116274315 ], [ -82.054713276413764, 27.675803116270423 ], [ -82.054709276405717, 27.67558311621697 ], [ -82.054695276380272, 27.674903116051883 ], [ -82.054684276359765, 27.674350115917651 ], [ -82.05468127635487, 27.67422211588655 ], [ -82.054678276349293, 27.674074115850608 ], [ -82.054677276348258, 27.674050115844803 ], [ -82.054676276347081, 27.67402211583801 ], [ -82.054671276339008, 27.673810115786576 ], [ -82.054669276336, 27.673733115767863 ], [ -82.054666276331929, 27.673631115743159 ], [ -82.054662276326127, 27.673483115707235 ], [ -82.05465027630737, 27.672997115589297 ], [ -82.054644276297907, 27.672750115529354 ], [ -82.05463427628267, 27.672359115434439 ], [ -82.054625276267927, 27.671972115340509 ], [ -82.054529276119453, 27.668129114407773 ], [ -82.054497276070251, 27.666857114099077 ], [ -82.054470276028582, 27.665779113837431 ], [ -82.054467276007486, 27.665134113680523 ], [ -82.054465275992996, 27.664691113572808 ], [ -82.054465275987681, 27.6645211135314 ], [ -82.054459275894061, 27.661594112819277 ], [ -82.054454275828036, 27.659537112318819 ], [ -82.054454275826885, 27.65950111231005 ], [ -82.054454275826188, 27.659479112304684 ], [ -82.05445327582521, 27.659457112299343 ], [ -82.054453275822951, 27.659385112281846 ], [ -82.054453275820407, 27.659304112262109 ], [ -82.054452275805147, 27.658827112146056 ], [ -82.054452275800173, 27.65866811210736 ], [ -82.054452275798269, 27.658607112092515 ], [ -82.054452275792457, 27.658422112047496 ], [ -82.054451275775818, 27.657901111920722 ], [ -82.054450275751435, 27.657133111733849 ], [ -82.054449275743039, 27.656875111671113 ], [ -82.054449275734981, 27.656618111608534 ], [ -82.054449275728174, 27.656401111555706 ], [ -82.054448275724596, 27.656296111530189 ], [ -82.054448275723985, 27.656276111525326 ], [ -82.054448275723573, 27.656263111522133 ], [ -82.05444827572282, 27.6562391115163 ], [ -82.054448275721114, 27.656185111503188 ], [ -82.054449275716067, 27.656015111461766 ], [ -82.05444927571466, 27.655970111450813 ], [ -82.054449275714106, 27.655952111446467 ], [ -82.054450275713805, 27.655933111441811 ], [ -82.05445027571291, 27.655905111434958 ], [ -82.054450275711275, 27.655853111422324 ], [ -82.054454275690119, 27.655142111249223 ], [ -82.054456275689532, 27.655103111239654 ], [ -82.05445527568078, 27.654833111173961 ], [ -82.054457275667929, 27.654405111069739 ], [ -82.054458275654767, 27.653977110965542 ], [ -82.054459275648043, 27.653753110911008 ], [ -82.054460275641304, 27.653529110856461 ], [ -82.054460275640665, 27.653508110851337 ], [ -82.054460275639698, 27.653478110844059 ], [ -82.054464275592593, 27.65193911046936 ], [ -82.05446827554816, 27.650486110115612 ], [ -82.054468275543883, 27.650349110082271 ], [ -82.054414275472865, 27.648581109653257 ], [ -82.054397275449517, 27.64799410951079 ], [ -82.05439527544732, 27.647942109498207 ], [ -82.054381275429648, 27.647509109393177 ], [ -82.054360275398537, 27.646710109199169 ], [ -82.054360275397954, 27.646691109194542 ], [ -82.054352275386137, 27.646387109120759 ], [ -82.05464127546972, 27.646386109113326 ], [ -82.054770275506982, 27.646383109109394 ], [ -82.055584275741651, 27.646356109082557 ], [ -82.055842275816033, 27.646348109074246 ], [ -82.056354275960615, 27.646234109033756 ], [ -82.056612276034471, 27.646209109021253 ], [ -82.057275276225738, 27.646190109000148 ], [ -82.058632276618781, 27.646203108969605 ], [ -82.05890327669708, 27.646200108962084 ], [ -82.062196277648908, 27.646169108872705 ], [ -82.062295277677563, 27.646168108870004 ], [ -82.067533279192688, 27.646156108736857 ], [ -82.075011281354833, 27.646109108539502 ], [ -82.077343282028792, 27.646087108476198 ], [ -82.083959283943528, 27.646109108317052 ], [ -82.085628284427102, 27.646133108281411 ], [ -82.085689284444641, 27.646129108278913 ], [ -82.086726284744458, 27.646124108251925 ], [ -82.08924228547454, 27.646194108206387 ], [ -82.090016285698326, 27.646191108186429 ], [ -82.091275286062341, 27.646185108153681 ], [ -82.091340286081163, 27.646185108152054 ], [ -82.091867286233366, 27.646178108137217 ], [ -82.0919292862513, 27.646177108135419 ], [ -82.091992286269502, 27.646176108133623 ], [ -82.092593286443062, 27.646168108116747 ], [ -82.094194286905605, 27.646147108071844 ], [ -82.094302286936724, 27.646145108068655 ], [ -82.094409286967661, 27.646144108065762 ], [ -82.098471288141027, 27.646090107951633 ], [ -82.104189289794974, 27.646088107808907 ], [ -82.104393289853931, 27.646087107803588 ], [ -82.104597289912945, 27.646087107798497 ], [ -82.117924293767516, 27.646081107465598 ], [ -82.118012293792887, 27.646080107463177 ], [ -82.118100293818301, 27.646079107460743 ], [ -82.11977229430201, 27.646081107419633 ], [ -82.120923294635872, 27.646112107398533 ], [ -82.120986294654074, 27.646111107396724 ], [ -82.124914295787661, 27.646033107280068 ], [ -82.134626298605482, 27.646322107108777 ], [ -82.142467300872113, 27.646292106906373 ], [ -82.146274301972952, 27.646290106811165 ], [ -82.146404302010552, 27.646290106807921 ], [ -82.146986302178803, 27.646290106793455 ], [ -82.159811305889875, 27.646372106494287 ], [ -82.159882305910401, 27.646372106492517 ], [ -82.193470315625518, 27.646511105690294 ], [ -82.194994316066385, 27.64652010565457 ], [ -82.195021316074175, 27.646520105653895 ], [ -82.195096316095842, 27.646520105652037 ], [ -82.201545317959983, 27.646517105490695 ], [ -82.201561317964575, 27.6465171054903 ], [ -82.205451319088169, 27.646490105386889 ], [ -82.208190319880202, 27.64649910532091 ], [ -82.210638320587279, 27.646482105255807 ], [ -82.216577322302584, 27.646442105098185 ], [ -82.217378322533975, 27.646437105077034 ], [ -82.217462322558262, 27.646437105074948 ], [ -82.22037632340114, 27.64645810500749 ], [ -82.225340324836992, 27.646494104892582 ], [ -82.225560324900584, 27.646495104887357 ], [ -82.228654325794892, 27.646497104810816 ], [ -82.249843331920445, 27.646567104300054 ], [ -82.253571332998462, 27.646592104213248 ], [ -82.254154333167051, 27.646596104199691 ], [ -82.254713333328453, 27.646591104184544 ], [ -82.260196334911427, 27.646547104037261 ], [ -82.263122335754829, 27.646482103948546 ], [ -82.263323335812771, 27.646478103942577 ], [ -82.268164337208191, 27.646372103796196 ], [ -82.274503339043235, 27.646486103665925 ], [ -82.281898341183918, 27.646618103513745 ], [ -82.282886341470771, 27.646663103500043 ], [ -82.285600342252707, 27.64659610341613 ], [ -82.288911343206706, 27.646516103314163 ], [ -82.29051034366789, 27.646492103268471 ], [ -82.292061344117116, 27.646528103238587 ], [ -82.292670344293498, 27.646543103227071 ], [ -82.293268344468743, 27.646622103231341 ], [ -82.293366344497073, 27.646623103229128 ], [ -82.296480345397839, 27.646662103161002 ], [ -82.298345345937321, 27.646685103120102 ], [ -82.304704347772557, 27.646631102948497 ], [ -82.304776347793307, 27.646630102946407 ], [ -82.304836347810593, 27.646630102944904 ], [ -82.313019350172496, 27.646573102727103 ], [ -82.313816350402504, 27.646567102705795 ], [ -82.316882351287646, 27.64655410262618 ], [ -82.318066351629753, 27.646557102597374 ], [ -82.318257351684963, 27.646558102592863 ], [ -82.322287352848363, 27.646539102487754 ], [ -82.333969356222411, 27.646546102198212 ], [ -82.336015356811984, 27.646504102136976 ], [ -82.336186356861305, 27.646501102132003 ], [ -82.336372356914879, 27.646497102126418 ], [ -82.338375357492112, 27.646458102066962 ], [ -82.342131358574449, 27.646383101955106 ], [ -82.344308359201776, 27.64634010189037 ], [ -82.344926359380111, 27.646337101874177 ], [ -82.347736360191206, 27.646325101801217 ], [ -82.352856361669026, 27.646304101668417 ], [ -82.352887361678, 27.646304101667642 ], [ -82.358256363230353, 27.646369101549531 ], [ -82.367136365791268, 27.646269101303709 ], [ -82.367149365794987, 27.646269101303378 ], [ -82.36879236627027, 27.646297101269255 ], [ -82.3688833662966, 27.646299101267456 ], [ -82.37482836801621, 27.646399101143416 ], [ -82.375673368260877, 27.646421101127675 ], [ -82.37732136873646, 27.646414101084876 ], [ -82.380966369788126, 27.646393100988842 ], [ -82.381204369856803, 27.646392100982666 ], [ -82.383164370422264, 27.646380100930827 ], [ -82.384711370869368, 27.646395100895887 ], [ -82.384887370920154, 27.646394100891253 ], [ -82.386393371354572, 27.646382100850737 ], [ -82.394698373750131, 27.646319100628283 ], [ -82.39489437380665, 27.646318100623152 ], [ -82.400349375380273, 27.646283100478513 ], [ -82.403600376318039, 27.646262100392264 ], [ -82.425343382589546, 27.646123099815867 ], [ -82.433648384984764, 27.646070099595704 ], [ -82.433853385043903, 27.64606909959037 ], [ -82.437755386169229, 27.646045099487136 ], [ -82.444150388013398, 27.64600309931728 ], [ -82.448534389277611, 27.645974099200732 ], [ -82.448703389326297, 27.645973099196286 ], [ -82.450323389793198, 27.645954099151215 ], [ -82.452284390358457, 27.645933099097213 ], [ -82.45239039038897, 27.64593209909426 ], [ -82.453738390777431, 27.645915099056534 ], [ -82.45389539082268, 27.645913099052137 ], [ -82.461354392973348, 27.645862098853456 ], [ -82.464075393757909, 27.645844098781197 ], [ -82.464356393838955, 27.64584209877362 ], [ -82.468218394952203, 27.645809098669208 ], [ -82.468581395056802, 27.645805098659192 ], [ -82.469435395302938, 27.645796098635632 ], [ -82.475115396939827, 27.645735098479033 ], [ -82.488379400762085, 27.645594098113477 ], [ -82.488580400820013, 27.645592098107986 ], [ -82.496910403220269, 27.645503097878315 ], [ -82.49698940324302, 27.645503097876357 ], [ -82.498492403676536, 27.64550109783832 ], [ -82.49867540372901, 27.64549109783135 ], [ -82.499820404057402, 27.64543009778793 ], [ -82.518513409449241, 27.645428097320416 ], [ -82.524753411248966, 27.645427097164273 ], [ -82.524950411305795, 27.645427097159349 ], [ -82.525096411347789, 27.645422097154508 ], [ -82.525693411519313, 27.645403097134967 ], [ -82.531670413245209, 27.645467097001156 ], [ -82.531712413257267, 27.645467097000097 ], [ -82.532539413495854, 27.645469096979902 ], [ -82.534174413967506, 27.645473096940009 ], [ -82.536444414622366, 27.645479096884717 ], [ -82.537199414840146, 27.645481096866341 ], [ -82.537442414910231, 27.645481096860259 ], [ -82.539824415597366, 27.645487096802221 ], [ -82.539987415644376, 27.645487096798149 ], [ -82.540646415834459, 27.645489096782164 ], [ -82.548183418009913, 27.645551096608841 ], [ -82.548314418047738, 27.645552096605815 ], [ -82.549148418288439, 27.645559096586634 ], [ -82.549551418404747, 27.645562096577294 ], [ -82.549987418529639, 27.645536096560107 ], [ -82.551168418868059, 27.645467096513844 ], [ -82.551277418899431, 27.645467096511133 ], [ -82.553069419415721, 27.645451096462445 ], [ -82.553278419476115, 27.645456096458393 ], [ -82.553467419531046, 27.645468096456622 ], [ -82.553549419554656, 27.645469096454818 ], [ -82.55366941958934, 27.645470096452051 ], [ -82.553999419680466, 27.645343096412972 ], [ -82.554109419710841, 27.64530009639979 ], [ -82.558436420957435, 27.645266096283411 ], [ -82.560414421525522, 27.645194096216539 ], [ -82.605764434575761, 27.644432094897859 ], [ -82.605391434492844, 27.645211095095995 ], [ -82.585006429961837, 27.687801105929331 ], [ -82.584190429794944, 27.68996110647317 ], [ -82.582622429456904, 27.693561107384806 ], [ -82.580478429002895, 27.698745108694574 ], [ -82.579352428741373, 27.700737109205498 ], [ -82.57771042835995, 27.703640109950005 ], [ -82.569998426630562, 27.719224113918731 ], [ -82.567530426088524, 27.724569115275344 ], [ -82.566369425833543, 27.727081115912952 ], [ -82.562240424926983, 27.736025118182834 ], [ -82.558925424199344, 27.743207120005383 ], [ -82.553121422920157, 27.755610123154586 ], [ -82.551405422545386, 27.75938212411096 ], [ -82.549294422091194, 27.764238125339762 ], [ -82.547221421645389, 27.769010126547155 ], [ -82.546721421533064, 27.77001012680185 ], [ -82.546351421454332, 27.770887127023414 ], [ -82.54482142112856, 27.774510127938942 ], [ -82.543421420820366, 27.777510128700438 ], [ -82.541521420422285, 27.782209129885594 ], [ -82.540621420252037, 27.785009130585966 ], [ -82.541821420687498, 27.787809131233278 ], [ -82.546721422209387, 27.79120913193228 ], [ -82.54990942316411, 27.792311132118428 ], [ -82.553373424201382, 27.793509132320764 ], [ -82.558421425785113, 27.797509133161007 ], [ -82.559621426175923, 27.798909133469355 ], [ -82.560466426473653, 27.800599133856839 ], [ -82.563622427585585, 27.806908135303139 ], [ -82.565822428562399, 27.8176081378354 ], [ -82.566122428834703, 27.823408139230349 ], [ -82.566142428872837, 27.82441813947408 ], [ -82.566712429940011, 27.852562146263494 ], [ -82.566815430132763, 27.857637147487477 ], [ -82.566822430146672, 27.858007147576686 ], [ -82.56687543020044, 27.85920614786507 ], [ -82.567219430552711, 27.867078149758676 ], [ -82.567422430760118, 27.871706150871749 ], [ -82.567905431275079, 27.883374153678453 ], [ -82.567919431289809, 27.883706153758236 ], [ -82.567938431301329, 27.883895153803461 ], [ -82.568722431817775, 27.892905155959891 ], [ -82.57002243241844, 27.899905157617425 ], [ -82.571412432939425, 27.903627158480855 ], [ -82.573422433692713, 27.909005159728324 ], [ -82.576982434915749, 27.915083161105112 ], [ -82.577522435101272, 27.916005161313954 ], [ -82.580738436166513, 27.92026816226111 ], [ -82.581822436525542, 27.921704162580134 ], [ -82.585050437571326, 27.925256163355197 ], [ -82.585102437588219, 27.925313163367623 ], [ -82.585120437594028, 27.925332163371746 ], [ -82.585206437621849, 27.925427163392538 ], [ -82.58525343763705, 27.925478163403643 ], [ -82.587105438237103, 27.927516163848278 ], [ -82.587289438296693, 27.927718163892333 ], [ -82.587610438400702, 27.928072163969581 ], [ -82.587704438431118, 27.928175163992087 ], [ -82.587822438469374, 27.928304164020165 ], [ -82.587976438517444, 27.928418164043759 ], [ -82.588287438614529, 27.928647164091124 ], [ -82.591363439574948, 27.930913164559509 ], [ -82.591622439655794, 27.931104164599017 ], [ -82.597222441403417, 27.935204165445505 ], [ -82.59952244210227, 27.936304165652242 ], [ -82.601422442682605, 27.937304165845006 ], [ -82.612923446118771, 27.941004166443978 ], [ -82.614209446498663, 27.941282166478246 ], [ -82.617462447459403, 27.94198616656497 ], [ -82.622623448983674, 27.943104166702835 ], [ -82.648323456532438, 27.947403167082861 ], [ -82.648443456815173, 27.955054168924871 ], [ -82.648593457172169, 27.964720171251791 ], [ -82.648619457232371, 27.9663421716422 ], [ -82.648611457240889, 27.966676171722945 ], [ -82.648641457262769, 27.967083171820303 ], [ -82.648665457281595, 27.967450171908151 ], [ -82.648752457425061, 27.971094172784451 ], [ -82.648820457707586, 27.979183174732668 ], [ -82.648823457718819, 27.979502174809486 ], [ -82.648755457980485, 27.988149176895401 ], [ -82.648603458566797, 28.007497181561764 ], [ -82.648602458569854, 28.007599181586336 ], [ -82.648602458571347, 28.007645181597422 ], [ -82.648602458572768, 28.007688181607783 ], [ -82.64856345872262, 28.012630182799473 ], [ -82.648557458744023, 28.013339182970412 ], [ -82.648551458768353, 28.014137183162848 ], [ -82.648551458769532, 28.014174183171736 ], [ -82.64854645878863, 28.014803183323377 ], [ -82.648542458803234, 28.015286183439891 ], [ -82.648540458812718, 28.015596183514585 ], [ -82.648535458831077, 28.016202183660692 ], [ -82.648535458832427, 28.016244183670821 ], [ -82.648534458836409, 28.016374183702187 ], [ -82.648533458837477, 28.016416183712337 ], [ -82.648533458838187, 28.016438183717629 ], [ -82.648527458856307, 28.017046183864263 ], [ -82.648523458874863, 28.01764918400962 ], [ -82.648523458876284, 28.017693184020228 ], [ -82.648523458877051, 28.017716184025762 ], [ -82.648525458880854, 28.017816184049785 ], [ -82.648530458891059, 28.018085184114458 ], [ -82.648531458893288, 28.018144184128687 ], [ -82.648533458896708, 28.018231184149577 ], [ -82.648532458898984, 28.018310184168616 ], [ -82.648528458914271, 28.018814184290097 ], [ -82.648527458919133, 28.018971184327931 ], [ -82.64851745898693, 28.021139184850494 ], [ -82.648515458998588, 28.021513184940606 ], [ -82.6485144590077, 28.021801185009998 ], [ -82.648513459023036, 28.022280185125403 ], [ -82.648511459034026, 28.022634185210741 ], [ -82.648511459038033, 28.022757185240401 ], [ -82.648515459051538, 28.023135185331295 ], [ -82.648518459062672, 28.023450185407118 ], [ -82.648526459090547, 28.024232185595281 ], [ -82.648527459094922, 28.02435718562538 ], [ -82.648529459138771, 28.025683185944747 ], [ -82.64852845914038, 28.02574118595869 ], [ -82.648519459162671, 28.026504186142706 ], [ -82.648517459167778, 28.026678186184689 ], [ -82.648516459170793, 28.026779186209019 ], [ -82.648504459197966, 28.027716186435033 ], [ -82.648521459238566, 28.028809186697806 ], [ -82.648538459278925, 28.029896186959245 ], [ -82.64854245928899, 28.030168187024632 ], [ -82.648544459294371, 28.030315187059969 ], [ -82.648546459299027, 28.030440187090033 ], [ -82.64856345932948, 28.031223187278211 ], [ -82.648565459333398, 28.031324187302438 ], [ -82.648568459338605, 28.0314571873344 ], [ -82.648564459353622, 28.031954187454211 ], [ -82.648562459362168, 28.03223318752142 ], [ -82.648568459393317, 28.033132187737777 ], [ -82.648570459401625, 28.033369187794847 ], [ -82.648568459402469, 28.033412187805272 ], [ -82.648558459408179, 28.033676187869112 ], [ -82.64823445931178, 28.033584187855237 ], [ -82.647598459121454, 28.03337018782009 ], [ -82.642344457548859, 28.03160318752963 ], [ -82.641190457201574, 28.0311571874519 ], [ -82.639230456601695, 28.030093187245996 ], [ -82.638514456380676, 28.029647187157032 ], [ -82.637261455995215, 28.028907187010994 ], [ -82.636253455685221, 28.028313186893804 ], [ -82.634452455128283, 28.027160186662368 ], [ -82.634217455055605, 28.027010186632261 ], [ -82.633908454960093, 28.026812186592561 ], [ -82.632587454551583, 28.025967186422928 ], [ -82.631930454348435, 28.025546186338389 ], [ -82.63163445425694, 28.025358186300725 ], [ -82.629927453729437, 28.024277186084195 ], [ -82.626275452600112, 28.021941185615255 ], [ -82.622944451571072, 28.019839185194424 ], [ -82.621796451215545, 28.019088185042985 ], [ -82.618677450251397, 28.017104184645014 ], [ -82.616456449565433, 28.015709184365971 ], [ -82.613307448592394, 28.013716183966565 ], [ -82.611501448034346, 28.012575183737951 ], [ -82.61047744771804, 28.011929183608618 ], [ -82.608115446987895, 28.010427183307247 ], [ -82.607835446917974, 28.010760183394705 ], [ -82.607757446899384, 28.010879183425367 ], [ -82.607684446883312, 28.011031183463903 ], [ -82.607652446875562, 28.011078183476037 ], [ -82.607640446872949, 28.01110318348238 ], [ -82.607640446873887, 28.011131183489095 ], [ -82.60763344687264, 28.011157183495545 ], [ -82.607614446867942, 28.011179183501319 ], [ -82.607601446864976, 28.011204183507665 ], [ -82.607592446865084, 28.011286183527684 ], [ -82.60754944685884, 28.011475183574309 ], [ -82.607547446862768, 28.011613183607665 ], [ -82.607573446884558, 28.012052183712768 ], [ -82.607554446889822, 28.012382183792809 ], [ -82.607557446894276, 28.012492183819262 ], [ -82.60756244689658, 28.012519183825603 ], [ -82.607572446900321, 28.012544183831388 ], [ -82.607588446905638, 28.012568183836748 ], [ -82.607616446917305, 28.012676183862073 ], [ -82.607626446939292, 28.013263184003296 ], [ -82.60763344694432, 28.013356184025483 ], [ -82.607606446938647, 28.013420184041614 ], [ -82.607631446948929, 28.013515184063859 ], [ -82.60761344694798, 28.013643184095191 ], [ -82.607626446953148, 28.013688184105686 ], [ -82.607665446965683, 28.013727184114046 ], [ -82.607644446960762, 28.013762184123063 ], [ -82.60764444696197, 28.01379918413199 ], [ -82.607668446969441, 28.013815184135183 ], [ -82.607662446968646, 28.013844184142357 ], [ -82.607635446961908, 28.013876184150742 ], [ -82.607678446975711, 28.013921184160488 ], [ -82.607674446979956, 28.014086184200323 ], [ -82.607680446982542, 28.014110184205951 ], [ -82.607680446984659, 28.014176184221849 ], [ -82.607692446990299, 28.014244184237956 ], [ -82.607675446986448, 28.014276184246111 ], [ -82.607670446986148, 28.014311184254669 ], [ -82.60765944698386, 28.014337184261251 ], [ -82.607701446997581, 28.014386184271977 ], [ -82.607685446996513, 28.014496184298899 ], [ -82.607688446998822, 28.014540184309428 ], [ -82.607696447002397, 28.014579184318578 ], [ -82.60770044700638, 28.014667184339689 ], [ -82.607686447003601, 28.014704184348997 ], [ -82.607695447007359, 28.014740184357407 ], [ -82.607690447008068, 28.01480618437343 ], [ -82.607694447011113, 28.014864184387335 ], [ -82.607679447007357, 28.014881184391832 ], [ -82.607689447012163, 28.014940184405727 ], [ -82.607679447010383, 28.014973184414014 ], [ -82.607686447012995, 28.0149921844184 ], [ -82.607683447015361, 28.015091184442316 ], [ -82.607678447015005, 28.015126184450903 ], [ -82.607641447007467, 28.015221184474711 ], [ -82.607638447007247, 28.015240184479381 ], [ -82.60762544700431, 28.015266184485984 ], [ -82.607601446998018, 28.015285184491198 ], [ -82.607589446995277, 28.015307184496809 ], [ -82.607598446998736, 28.015333184502815 ], [ -82.607582446994812, 28.015355184508536 ], [ -82.607566446992053, 28.015410184522189 ], [ -82.607553446989172, 28.015438184529245 ], [ -82.607535446985892, 28.015497184543943 ], [ -82.607504446977032, 28.015499184545238 ], [ -82.607477446970236, 28.015529184553191 ], [ -82.607469446969901, 28.015590184568037 ], [ -82.607411446955282, 28.015655184585203 ], [ -82.607384446948714, 28.015693184595072 ], [ -82.607344446937745, 28.015709184599984 ], [ -82.60736044694363, 28.015749184609163 ], [ -82.607343446939382, 28.015768184614185 ], [ -82.607331446936783, 28.015795184620984 ], [ -82.60729544692748, 28.015829184630139 ], [ -82.60728044692388, 28.015850184635593 ], [ -82.607280446924591, 28.01587218464088 ], [ -82.607266446921088, 28.015889184645349 ], [ -82.60726044692052, 28.015924184653922 ], [ -82.607235446914515, 28.015961184663485 ], [ -82.607205446906534, 28.015983184669551 ], [ -82.607185446901056, 28.01599018467174 ], [ -82.607187446902259, 28.016009184676282 ], [ -82.607179446900787, 28.016036184682992 ], [ -82.607157446895386, 28.016065184690522 ], [ -82.607121446885827, 28.016089184697233 ], [ -82.607096446878799, 28.016095184699346 ], [ -82.607101446881003, 28.016118184704752 ], [ -82.607086446877858, 28.016155184714034 ], [ -82.607065446872852, 28.016187184722316 ], [ -82.607026446861497, 28.016183184722362 ], [ -82.607012446858775, 28.016224184732561 ], [ -82.6069914468533, 28.016242184737443 ], [ -82.60696944684787, 28.016270184744755 ], [ -82.606917446834146, 28.01630818475526 ], [ -82.606924446836985, 28.016334184761316 ], [ -82.606871446823121, 28.016377184773052 ], [ -82.606851446817601, 28.01638518477554 ], [ -82.606820446808698, 28.016387184776793 ], [ -82.60678944680059, 28.016412184783647 ], [ -82.606774446797317, 28.016445184791944 ], [ -82.606772446797635, 28.016472184798491 ], [ -82.60675644679371, 28.01649218480372 ], [ -82.606696446777164, 28.016516184811042 ], [ -82.606679446772944, 28.016537184816546 ], [ -82.606682446774869, 28.016570184824438 ], [ -82.606661446769138, 28.016580184827376 ], [ -82.606626446759961, 28.016607184834761 ], [ -82.606556446733336, 28.016410184789109 ], [ -82.606530446720129, 28.016234184747361 ], [ -82.60651644671664, 28.016252184752087 ], [ -82.606497446713206, 28.016315184767716 ], [ -82.606426446695252, 28.016391184787878 ], [ -82.606307446666278, 28.016555184830434 ], [ -82.606242446648864, 28.016596184842019 ], [ -82.606200446638809, 28.016659184858259 ], [ -82.606133446621357, 28.016717184873936 ], [ -82.606100446613496, 28.016769184887334 ], [ -82.606033446595418, 28.016807184898209 ], [ -82.606013446591007, 28.016847184908354 ], [ -82.605978446582228, 28.01688818491915 ], [ -82.605892446559508, 28.016952184936795 ], [ -82.605810446542591, 28.017157184988278 ], [ -82.605763446529835, 28.017183184995762 ], [ -82.605724446520171, 28.017231185008317 ], [ -82.605713446517782, 28.01725618501461 ], [ -82.605685446511089, 28.017298185025449 ], [ -82.605624446494346, 28.017324185033278 ], [ -82.605602446488518, 28.017340185037718 ], [ -82.605585446485023, 28.017382185048287 ], [ -82.605549446475436, 28.01740718505522 ], [ -82.605517446468014, 28.017462185069292 ], [ -82.605481446458555, 28.01749118507723 ], [ -82.605402446438561, 28.017577185099935 ], [ -82.605363446428214, 28.017603185107266 ], [ -82.605327446419039, 28.017641185117302 ], [ -82.605309446415404, 28.017689185129321 ], [ -82.605299446413909, 28.017731185139716 ], [ -82.605259446403522, 28.017766185149181 ], [ -82.605248446401191, 28.017792185155734 ], [ -82.605149446375378, 28.017876185178533 ], [ -82.605122446369705, 28.017941185194882 ], [ -82.605085446360363, 28.017982185205668 ], [ -82.605026446344709, 28.018023185217078 ], [ -82.605017446343496, 28.018067185227913 ], [ -82.604971446331319, 28.018100185237088 ], [ -82.604898446312703, 28.018174185256782 ], [ -82.60489944631415, 28.018210185265435 ], [ -82.604853446302499, 28.018259185278428 ], [ -82.604798446288257, 28.018308185291637 ], [ -82.60478044628438, 28.018349185301989 ], [ -82.604717446268381, 28.018415185319501 ], [ -82.604694446263025, 28.01845518532971 ], [ -82.604662446254665, 28.018480185336578 ], [ -82.604603446241072, 28.01858618536361 ], [ -82.604538446224154, 28.018643185379041 ], [ -82.604479446209311, 28.018710185396696 ], [ -82.60439644618738, 28.018770185413256 ], [ -82.60435344617683, 28.018827185428112 ], [ -82.60428244615855, 28.018894185446086 ], [ -82.60424644614973, 28.018943185458813 ], [ -82.60419144613553, 28.018992185472019 ], [ -82.604120446118557, 28.019102185500369 ], [ -82.604081446108864, 28.019148185512446 ], [ -82.603986446084662, 28.019246185538545 ], [ -82.603939446073028, 28.019306185554161 ], [ -82.603841446047795, 28.019398185578851 ], [ -82.603790446035177, 28.019462185595593 ], [ -82.603675446005241, 28.019561185622432 ], [ -82.603603445986252, 28.019617185637767 ], [ -82.603517445963107, 28.019666185651754 ], [ -82.603473445952304, 28.019724185666892 ], [ -82.603402445933824, 28.019785185683432 ], [ -82.603296445905514, 28.019855185703019 ], [ -82.603218445884977, 28.019916185719673 ], [ -82.603119445858056, 28.019965185734051 ], [ -82.603037445836065, 28.020017185748696 ], [ -82.602993445823913, 28.020033185753697 ], [ -82.602952445813713, 28.020082185766537 ], [ -82.602887445796441, 28.020127185779053 ], [ -82.602809445775137, 28.020164185789952 ], [ -82.602771445765711, 28.020210185802004 ], [ -82.602683445742613, 28.020280185821186 ], [ -82.602629445727828, 28.020305185828562 ], [ -82.602575445713683, 28.020348185840319 ], [ -82.602547445705838, 28.020355185842728 ], [ -82.602537445703888, 28.020385185850198 ], [ -82.602501445693846, 28.020394185853313 ], [ -82.602470445685611, 28.020417185859653 ], [ -82.60241244567095, 28.020479185876042 ], [ -82.602371445659571, 28.020493185880497 ], [ -82.602348445653647, 28.020515185886399 ], [ -82.602292445638739, 28.020554185897229 ], [ -82.602220445619196, 28.020591185907961 ], [ -82.602153445601388, 28.020637185920762 ], [ -82.602049445574139, 28.020722185943946 ], [ -82.601969445552925, 28.020779185959743 ], [ -82.601949445547859, 28.020800185965335 ], [ -82.601776445501628, 28.020913185997017 ], [ -82.60170644548252, 28.020945186006468 ], [ -82.601691445479119, 28.020973186013602 ], [ -82.601650445468096, 28.020998186020684 ], [ -82.601476445422051, 28.021125186055766 ], [ -82.601426445408194, 28.021142186061152 ], [ -82.601359445390074, 28.021179186071766 ], [ -82.601284445371277, 28.021267186094914 ], [ -82.601237445358436, 28.021289186101413 ], [ -82.601088445318936, 28.021394186130568 ], [ -82.600984445291033, 28.021459186148888 ], [ -82.600921445274423, 28.021507186162083 ], [ -82.600849445255221, 28.021555186175476 ], [ -82.600786445238825, 28.021609186190144 ], [ -82.60074744522845, 28.021635186197408 ], [ -82.600695445214825, 28.02167818620909 ], [ -82.600602445190177, 28.021745186227651 ], [ -82.600553445176857, 28.021769186234692 ], [ -82.600487445159757, 28.021828186250573 ], [ -82.600439445146847, 28.021856186258585 ], [ -82.60035544512516, 28.021935186279777 ], [ -82.600311445112865, 28.021947186283793 ], [ -82.600232445092146, 28.022010186300975 ], [ -82.600064445047693, 28.022133186334958 ], [ -82.600020445035256, 28.022141186337993 ], [ -82.5999764450237, 28.022176186347572 ], [ -82.599949445017216, 28.022216186357905 ], [ -82.599874444997027, 28.022259186370164 ], [ -82.599857444993134, 28.022291186378343 ], [ -82.599782444972575, 28.022322186387701 ], [ -82.599733444958858, 28.02233518639213 ], [ -82.59970244495166, 28.022390186406174 ], [ -82.599544444909043, 28.022480186431899 ], [ -82.59944244488095, 28.022520186444158 ], [ -82.599411444874178, 28.022587186461113 ], [ -82.599354444859557, 28.022642186475821 ], [ -82.599286444840843, 28.022670186484355 ], [ -82.599169444810443, 28.022772186511904 ], [ -82.599043444776797, 28.022855186535146 ], [ -82.598846444724558, 28.02299618657419 ], [ -82.598692444683564, 28.023101186603459 ], [ -82.59856744465074, 28.023199186630258 ], [ -82.598258444567634, 28.023384186682755 ], [ -82.598120444531133, 28.023484186710451 ], [ -82.598069444518003, 28.023533186723547 ], [ -82.598051444514113, 28.023573186733653 ], [ -82.598011444502831, 28.023581186736585 ], [ -82.597954444487513, 28.02361418674603 ], [ -82.59777044443841, 28.023738186780626 ], [ -82.597704444420629, 28.023776186791466 ], [ -82.597650444406995, 28.023835186807055 ], [ -82.597563444382786, 28.023862186815851 ], [ -82.597529444373649, 28.023881186821242 ], [ -82.597548444379839, 28.023903186826061 ], [ -82.597509444369621, 28.023935186834802 ], [ -82.59736944433169, 28.024010186856447 ], [ -82.597222444292598, 28.02411218688485 ], [ -82.597025444240529, 28.024258186925046 ], [ -82.596914444210199, 28.024310186940468 ], [ -82.596807444183085, 28.024423186970441 ], [ -82.596627444133716, 28.024501186993852 ], [ -82.596590444124104, 28.024534187002711 ], [ -82.596619444132557, 28.024538187002996 ], [ -82.596656444142866, 28.024526186999143 ], [ -82.596631444136591, 28.024554187006494 ], [ -82.596431444083493, 28.024695187045651 ], [ -82.596253444035554, 28.024800187075478 ], [ -82.595915443945955, 28.025041187142257 ], [ -82.59579844391439, 28.025107187161169 ], [ -82.595705443890139, 28.025186187182573 ], [ -82.595522443841219, 28.025304187215749 ], [ -82.595390443805726, 28.025383187238159 ], [ -82.59533144379003, 28.025424187249545 ], [ -82.595249443767941, 28.025473187263451 ], [ -82.595148443740115, 28.025512187275464 ], [ -82.594990443697256, 28.02559518729953 ], [ -82.594753443632115, 28.025694187329464 ], [ -82.594232443487257, 28.02586018738284 ], [ -82.593942443405666, 28.025923187405468 ], [ -82.593758443354176, 28.025971187421764 ], [ -82.59362644331766, 28.026019187436713 ], [ -82.593490443279777, 28.026060187450078 ], [ -82.593477443276157, 28.026063187451136 ], [ -82.593284443221947, 28.026108187466935 ], [ -82.593091443168234, 28.026167187486138 ], [ -82.592926443121925, 28.02620818750027 ], [ -82.592564443019981, 28.026283187527625 ], [ -82.592359442962689, 28.026339187546419 ], [ -82.592123442896138, 28.026385187563548 ], [ -82.591976442855227, 28.026431187578414 ], [ -82.591931442844157, 28.026490187593758 ], [ -82.591892442833128, 28.026497187596483 ], [ -82.591877442830764, 28.026556187611057 ], [ -82.591854442825152, 28.026587187619153 ], [ -82.59182644281772, 28.026608187624923 ], [ -82.591803442812008, 28.026636187632263 ], [ -82.591764442800695, 28.02663318763253 ], [ -82.59172544279032, 28.026660187640029 ], [ -82.591659442771089, 28.026654187640311 ], [ -82.591608442756609, 28.026661187643278 ], [ -82.591569442745794, 28.026675187647669 ], [ -82.591518442729637, 28.026630187638141 ], [ -82.591432442704473, 28.026620187637924 ], [ -82.591118442615397, 28.026665187656828 ], [ -82.590909442557646, 28.026742187680796 ], [ -82.590748442512265, 28.026774187692613 ], [ -82.590537442454035, 28.026856187717787 ], [ -82.590319442393138, 28.026917187738064 ], [ -82.590133442340758, 28.02695518775203 ], [ -82.590067442321796, 28.026958187754445 ], [ -82.589283442103067, 28.027185187829261 ], [ -82.589037442033643, 28.027230187846449 ], [ -82.588887441991105, 28.027253187855827 ], [ -82.588820441972885, 28.027287187865781 ], [ -82.588650441926021, 28.027354187886274 ], [ -82.588495441881932, 28.027373187894849 ], [ -82.588407441857854, 28.027411187906232 ], [ -82.588190441796471, 28.02744918792099 ], [ -82.588107441774383, 28.027507187937132 ], [ -82.58785744170423, 28.027566187957721 ], [ -82.587798441686573, 28.02754618795441 ], [ -82.587353441550789, 28.027318187910904 ], [ -82.587216441508119, 28.027222187891311 ], [ -82.586852441394711, 28.026965187838695 ], [ -82.586219441197585, 28.026519187747532 ], [ -82.585674441031244, 28.026238187693789 ], [ -82.585238440900312, 28.026079187666699 ], [ -82.584789440767992, 28.025993187657491 ], [ -82.583041440262676, 28.025959187694227 ], [ -82.581917439938564, 28.025962187723817 ], [ -82.58082743962423, 28.025964187752297 ], [ -82.579694439297555, 28.025967187782129 ], [ -82.578100438836927, 28.025942187817044 ], [ -82.576848438475153, 28.025923187844626 ], [ -82.576326438324315, 28.025915187856121 ], [ -82.575768438163195, 28.025910187869268 ], [ -82.574718437860867, 28.025926187900055 ], [ -82.574034437663883, 28.025937187920302 ], [ -82.573255437439428, 28.025944187941956 ], [ -82.571322436881175, 28.025924187986814 ], [ -82.570325436592427, 28.025890188004261 ], [ -82.569895436468272, 28.025886188014333 ], [ -82.567411435753371, 28.025937188090424 ], [ -82.566406435463279, 28.025932188115036 ], [ -82.565338435154231, 28.025902188135209 ], [ -82.562332434286247, 28.025878188206612 ], [ -82.559368433425931, 28.025716188243706 ], [ -82.558257433106093, 28.025738188277543 ], [ -82.555958432442537, 28.025728188334195 ], [ -82.555144432207598, 28.025725188354322 ], [ -82.554665432069399, 28.025724188366379 ], [ -82.553520431737823, 28.025686188386672 ], [ -82.552890431555383, 28.025665188397799 ], [ -82.551816431244347, 28.025629188416662 ], [ -82.551565431171653, 28.025621188421198 ], [ -82.550143430760997, 28.025608188454555 ], [ -82.549828430670033, 28.025606188462181 ], [ -82.546968429843474, 28.025562188524994 ], [ -82.54537242938224, 28.025539188560451 ], [ -82.544710429190928, 28.025529188575067 ], [ -82.544564429148849, 28.025531188579286 ], [ -82.544310429075708, 28.025535188586744 ], [ -82.544132429024415, 28.025537188591802 ], [ -82.541761428340195, 28.025532188651489 ], [ -82.541784428259149, 28.022843188002646 ], [ -82.541779428225524, 28.021855187764587 ], [ -82.541810428197223, 28.020713187488514 ], [ -82.541807428172334, 28.019976187310913 ], [ -82.541821428150982, 28.019198187122957 ], [ -82.541835428066094, 28.016468186464436 ], [ -82.541883428042013, 28.015304186182618 ], [ -82.541889428039283, 28.015168186149612 ], [ -82.541895428036341, 28.015023186114522 ], [ -82.541901428033484, 28.014882186080392 ], [ -82.541941427957369, 28.01219118543051 ], [ -82.541953427921229, 28.01097618513727 ], [ -82.538706426983268, 28.01094118521214 ], [ -82.537870426741762, 28.010931185231133 ], [ -82.534772425847137, 28.01090918530528 ], [ -82.533774425558263, 28.010880185323892 ], [ -82.532112425077969, 28.010858185361222 ], [ -82.52585542327212, 28.010845185518519 ], [ -82.525763423245536, 28.010844185520639 ] ] ] ] } }
]
}
