{
"type": "FeatureCollection",
"name": "DISTRICT_21",
"crs": { "type": "name", "properties": { "name": "urn:ogc:def:crs:OGC:1.3:CRS84" } },
"xy_coordinate_resolution": 1e-15,
"features": [
{ "type": "Feature", "properties": { "LONGNAME": "District 21", "SHORTNAME": "D21", "DISTRICT": 21, "COLOR": 2669440, "TOTAL": 769221, "TARGET_DEV": 0 }, "geometry": { "type": "MultiPolygon", "coordinates": [ [ [ [ -80.677864861928313, 27.205993034447374 ], [ -80.677869861973591, 27.2074690348126 ], [ -80.677890862155124, 27.213375036273639 ], [ -80.677897862219311, 27.215469036791621 ], [ -80.677949862660441, 27.229796040335216 ], [ -80.677952862667738, 27.230013040388858 ], [ -80.678062862922786, 27.237505042239629 ], [ -80.678035863015566, 27.2408850430763 ], [ -80.67795686299722, 27.241045043117769 ], [ -80.678045863060774, 27.2423070434278 ], [ -80.677994863112332, 27.244537043980582 ], [ -80.677992863113616, 27.24460004399625 ], [ -80.678005863123516, 27.244806044046847 ], [ -80.678302863354347, 27.249645045236626 ], [ -80.678345863387264, 27.250328045404462 ], [ -80.678395863579027, 27.256271046873028 ], [ -80.678398863589621, 27.256597046953587 ], [ -80.678429863716872, 27.260561047933074 ], [ -80.678689864793157, 27.294053056206319 ], [ -80.677722864511409, 27.294070056233625 ], [ -80.677786864670381, 27.298761057391435 ], [ -80.67775986475317, 27.301789058140319 ], [ -80.677756864761207, 27.302087058214024 ], [ -80.677755864764976, 27.302223058247666 ], [ -80.677755864765501, 27.302240058251879 ], [ -80.67775086478386, 27.302902058415562 ], [ -80.677728864780605, 27.303008058442302 ], [ -80.677787864857834, 27.305013058936321 ], [ -80.677827864992864, 27.309132059953122 ], [ -80.677832865007517, 27.309573060062011 ], [ -80.677834865025631, 27.310157060206262 ], [ -80.677952865900323, 27.338174067124307 ], [ -80.67798386612877, 27.345479068927609 ], [ -80.677988866166714, 27.346693069227236 ], [ -80.678012866350215, 27.352565070676601 ], [ -80.678028866464018, 27.356194071572229 ], [ -80.678055866661794, 27.362507073130207 ], [ -80.678079866836057, 27.368064074501483 ], [ -80.678079866837095, 27.368098074509824 ], [ -80.678079866838729, 27.368152074523206 ], [ -80.67809186697157, 27.372446075582822 ], [ -80.678083866978596, 27.372757075659813 ], [ -80.678016867039673, 27.375434076322154 ], [ -80.678101867175201, 27.379111077227645 ], [ -80.678109867188667, 27.379478077318062 ], [ -80.678136867234755, 27.380746077630342 ], [ -80.678150867258012, 27.381382077786974 ], [ -80.678165867281876, 27.382030077946553 ], [ -80.678180867306935, 27.382715078115211 ], [ -80.678235867400232, 27.385278078746417 ], [ -80.678265867451216, 27.386677079090948 ], [ -80.678267867453243, 27.386725079102789 ], [ -80.678288867473512, 27.387194079217988 ], [ -80.678315867499023, 27.387779079361707 ], [ -80.678339867521871, 27.388305079490959 ], [ -80.678349867531111, 27.388515079542511 ], [ -80.678358867544262, 27.388862079627913 ], [ -80.678371867564465, 27.389407079762151 ], [ -80.678376867571444, 27.389589079806928 ], [ -80.678383867581516, 27.389856079872651 ], [ -80.678382867584673, 27.389970079900799 ], [ -80.678381867599825, 27.39048208002713 ], [ -80.678379867615561, 27.391023080160679 ], [ -80.678377867631099, 27.391557080292504 ], [ -80.678375867647958, 27.392135080435192 ], [ -80.678374867663251, 27.392652080562794 ], [ -80.67837286768021, 27.39323508070672 ], [ -80.678371867687446, 27.393484080768175 ], [ -80.678367867722528, 27.394685081064605 ], [ -80.678367867730486, 27.394949081129745 ], [ -80.6784868680339, 27.403848083322519 ], [ -80.678552868194387, 27.408525084474764 ], [ -80.678628868392906, 27.414359085912057 ], [ -80.678642868429435, 27.415433086176677 ], [ -80.678688868544228, 27.418784087002063 ], [ -80.6787758687652, 27.425252088595268 ], [ -80.678776868766874, 27.425297088606349 ], [ -80.678821868880732, 27.428626089426281 ], [ -80.67882286888198, 27.428657089433869 ], [ -80.678823868884436, 27.428728089451351 ], [ -80.678799868939365, 27.430775089956732 ], [ -80.678768869013979, 27.433538090638855 ], [ -80.678764869022871, 27.433870090720841 ], [ -80.678761869029984, 27.434134090785978 ], [ -80.678759869037194, 27.434391090849434 ], [ -80.678751869058345, 27.435168091041202 ], [ -80.678748869065743, 27.435441091108565 ], [ -80.678733869103056, 27.436816091447987 ], [ -80.678730869111988, 27.437141091528225 ], [ -80.678722869134788, 27.437971091733079 ], [ -80.678720869140491, 27.438179091784395 ], [ -80.678710869161662, 27.438974091980661 ], [ -80.67870886916694, 27.439167092028317 ], [ -80.678700869186642, 27.439895092207998 ], [ -80.678698869193184, 27.440129092265778 ], [ -80.6786888692167, 27.441002092481209 ], [ -80.67868686922111, 27.441168092522233 ], [ -80.678677869245377, 27.442055092741139 ], [ -80.678677869248048, 27.442143092762834 ], [ -80.678668869270354, 27.442966092965992 ], [ -80.678666869274863, 27.443133093007173 ], [ -80.678658869297749, 27.443967093213022 ], [ -80.678656869302458, 27.444142093256218 ], [ -80.678639869347549, 27.445793093663664 ], [ -80.678637869352116, 27.445963093705643 ], [ -80.678626869383152, 27.44709209398426 ], [ -80.67862386939035, 27.447358094049928 ], [ -80.678617869408257, 27.448008094210316 ], [ -80.678615869413306, 27.448194094256216 ], [ -80.678612869422366, 27.448521094336883 ], [ -80.678611869424557, 27.448603094357129 ], [ -80.678611869427527, 27.448701094381271 ], [ -80.678613869429441, 27.448745094392066 ], [ -80.67871286952365, 27.450898094920486 ], [ -80.678853869600374, 27.452071095206257 ], [ -80.678895869623162, 27.452418095290746 ], [ -80.67929086983807, 27.455702096090754 ], [ -80.679276869863031, 27.456659096327034 ], [ -80.679273869867458, 27.456833096369959 ], [ -80.679132870130132, 27.466845098841169 ], [ -80.679042870252246, 27.47173110004751 ], [ -80.679040870254312, 27.471818100069001 ], [ -80.679039870257029, 27.471917100093396 ], [ -80.679132870498918, 27.478984101832683 ], [ -80.679135870509995, 27.479320101915409 ], [ -80.679182870629418, 27.482797102771062 ], [ -80.679183870631775, 27.482863102787302 ], [ -80.679265870777556, 27.486871103772838 ], [ -80.679268870781385, 27.486968103796656 ], [ -80.679294870825942, 27.488183104095381 ], [ -80.679298870832341, 27.488354104137443 ], [ -80.679364870944525, 27.491408104888219 ], [ -80.679459871135251, 27.496763106205165 ], [ -80.679461871140447, 27.496915106242582 ], [ -80.679478871171966, 27.49778710645694 ], [ -80.679479871173086, 27.497814106463601 ], [ -80.679498871211678, 27.498901106730916 ], [ -80.679506871217697, 27.499021106760246 ], [ -80.67958787128093, 27.500321107078541 ], [ -80.679649871311142, 27.500719107175087 ], [ -80.679656871314819, 27.500771107187699 ], [ -80.679698871416207, 27.503699107907927 ], [ -80.67984287178183, 27.514316110519388 ], [ -80.679843871798028, 27.514838110647897 ], [ -80.679845871802613, 27.51496911068012 ], [ -80.679847871816619, 27.515409110788397 ], [ -80.67984987182497, 27.515664110851183 ], [ -80.679849871827969, 27.515763110875557 ], [ -80.679857872000056, 27.521329112246029 ], [ -80.679875872030138, 27.522142112445753 ], [ -80.679879872037546, 27.522347112496142 ], [ -80.679947872131905, 27.524789113095828 ], [ -80.679976872176852, 27.525983113389138 ], [ -80.680002872204028, 27.526625113546547 ], [ -80.67992587223614, 27.528414113988948 ], [ -80.680002872337738, 27.531005114625 ], [ -80.679873872327406, 27.531900114848519 ], [ -80.679899872393094, 27.533803115316356 ], [ -80.679873872464626, 27.536393115954631 ], [ -80.679899872487638, 27.536898116078355 ], [ -80.679873872538181, 27.53880111654744 ], [ -80.679821872644254, 27.542768117525245 ], [ -80.67979587268502, 27.544350117915368 ], [ -80.679821872759206, 27.546529118451037 ], [ -80.679769872885018, 27.551138119586781 ], [ -80.679769873001447, 27.554945120523762 ], [ -80.679717873069038, 27.557651121190979 ], [ -80.679794873095048, 27.557765121217155 ], [ -80.67982387312523, 27.558475121391215 ], [ -80.679736873099841, 27.558475121393339 ], [ -80.679603873061041, 27.558477121397026 ], [ -80.679478873024607, 27.558478121400324 ], [ -80.679392872999514, 27.558479121402655 ], [ -80.676681872208576, 27.558499121473485 ], [ -80.676016872014642, 27.558505121491127 ], [ -80.668971869957403, 27.558496121660159 ], [ -80.66859686984786, 27.558495121669047 ], [ -80.668548869833842, 27.558494121669973 ], [ -80.668268869752083, 27.558494121676766 ], [ -80.66815786971965, 27.558494121679477 ], [ -80.665838869042474, 27.558491121735109 ], [ -80.665740869013874, 27.558493121737982 ], [ -80.665449868929159, 27.558501121746993 ], [ -80.665353868901278, 27.558505121750319 ], [ -80.664636868691787, 27.558502121766999 ], [ -80.662488868064344, 27.558493121817023 ], [ -80.66177286785522, 27.558491121833935 ], [ -80.661315867721726, 27.558489121844552 ], [ -80.66082486757837, 27.558489121856486 ], [ -80.66058686750867, 27.558484121860996 ], [ -80.659950867322706, 27.558475121874277 ], [ -80.659497867190282, 27.558470121884056 ], [ -80.659390867158933, 27.558467121885915 ], [ -80.659107867076159, 27.558462121891541 ], [ -80.658397866868498, 27.558452121906374 ], [ -80.657941866735158, 27.558444121915478 ], [ -80.65755486662205, 27.558441121924105 ], [ -80.65745686659335, 27.558439121925993 ], [ -80.655662866070898, 27.558484121980687 ], [ -80.654603865762525, 27.55851212201334 ], [ -80.654294865672185, 27.558509122020123 ], [ -80.649990864414335, 27.558475122116331 ], [ -80.649748864343621, 27.558474122121964 ], [ -80.648705864038817, 27.558466122145365 ], [ -80.648403863950534, 27.55846412215223 ], [ -80.648101863862379, 27.558465122159802 ], [ -80.64779486377266, 27.558463122166689 ], [ -80.647759863762516, 27.558464122167866 ], [ -80.647418863663006, 27.55846612217664 ], [ -80.646876863504815, 27.558469122190505 ], [ -80.646572863416097, 27.558472122198644 ], [ -80.646282863331393, 27.558472122205707 ], [ -80.645982863243887, 27.558474122213461 ], [ -80.645414863078059, 27.558475122227524 ], [ -80.645127862994286, 27.558477122234976 ], [ -80.645025862964431, 27.558475122236963 ], [ -80.644726862877135, 27.558476122244485 ], [ -80.64462786284831, 27.558478122247369 ], [ -80.64065786168932, 27.558491122347061 ], [ -80.632327859257487, 27.558519122556351 ], [ -80.628748858214763, 27.558603122663996 ], [ -80.624780857058795, 27.558697122783549 ], [ -80.622513856396381, 27.558688122836362 ], [ -80.622404856364597, 27.558688122839019 ], [ -80.615521854353389, 27.55866112299957 ], [ -80.603463850829925, 27.558615123281132 ], [ -80.587746846236868, 27.558554123647866 ], [ -80.58700784602091, 27.558552123665262 ], [ -80.578578843557509, 27.558520123862074 ], [ -80.578488843531204, 27.558520123864263 ], [ -80.578432843514975, 27.558523123866348 ], [ -80.578232843456902, 27.558535123874208 ], [ -80.578102843419146, 27.558543123879289 ], [ -80.562312838803877, 27.558477124246394 ], [ -80.562226838778713, 27.558476124248248 ], [ -80.562170838762285, 27.558475124249352 ], [ -80.5620058387141, 27.558475124253345 ], [ -80.561950838697996, 27.558475124254709 ], [ -80.561868838674073, 27.558475124256692 ], [ -80.558689837744836, 27.558461124330389 ], [ -80.548907834885256, 27.558419124557542 ], [ -80.54564783393225, 27.558406124633429 ], [ -80.545622833924938, 27.558406124634029 ], [ -80.545546833902776, 27.558406124635887 ], [ -80.54552283389576, 27.55840612463647 ], [ -80.54228283294853, 27.558391124711385 ], [ -80.532565830107728, 27.558351124937339 ], [ -80.529392829180111, 27.558339125011411 ], [ -80.529327829161303, 27.558346125014694 ], [ -80.529259829141608, 27.558352125017858 ], [ -80.529059829083863, 27.558373125027842 ], [ -80.528994829065113, 27.558381125031435 ], [ -80.528336828874814, 27.558448125063901 ], [ -80.527514828637223, 27.558533125104795 ], [ -80.526363828304468, 27.558651125161784 ], [ -80.525706828114522, 27.558719125194482 ], [ -80.525567828073747, 27.558715125196873 ], [ -80.524831827858051, 27.558694125209563 ], [ -80.522206827088638, 27.558621125255225 ], [ -80.521332826832506, 27.558598125270784 ], [ -80.520486826584985, 27.558588125288846 ], [ -80.518236825926664, 27.558564125337544 ], [ -80.517952825843523, 27.558560125343444 ], [ -80.517107825596312, 27.558551125361713 ], [ -80.517031825574065, 27.558551125363547 ], [ -80.516970825556285, 27.558551125365046 ], [ -80.516920825541547, 27.558549125365765 ], [ -80.516805825507873, 27.558547125368058 ], [ -80.516730825485936, 27.558546125369645 ], [ -80.516655825464028, 27.558544125370975 ], [ -80.515716825188861, 27.558522125388329 ], [ -80.512674824297733, 27.558454125445387 ], [ -80.511660824000685, 27.558432125464559 ], [ -80.510997823806392, 27.55841512547644 ], [ -80.50901182322437, 27.558364125512064 ], [ -80.508965823210886, 27.558363125512951 ], [ -80.508349823030727, 27.55835812552667 ], [ -80.507305822725257, 27.558349125549764 ], [ -80.506849822591903, 27.558346125560071 ], [ -80.504173821809047, 27.558323125619328 ], [ -80.503130821503973, 27.558315125642693 ], [ -80.502459821307909, 27.558318125659675 ], [ -80.500448820720479, 27.558329125711218 ], [ -80.499778820524753, 27.558333125728435 ], [ -80.496522819571169, 27.558273125792624 ], [ -80.496293819504132, 27.558269125797199 ], [ -80.495893819386978, 27.5582621258052 ], [ -80.492438818375405, 27.558207125875427 ], [ -80.487485816926295, 27.558164125984948 ], [ -80.484239815976679, 27.558139126057519 ], [ -80.480808814972889, 27.558114126134566 ], [ -80.480355814840379, 27.558111126144833 ], [ -80.480263814813483, 27.558110126146801 ], [ -80.479886814702795, 27.558094126151992 ], [ -80.478482814290558, 27.558035126171493 ], [ -80.478014814153141, 27.558016126178199 ], [ -80.477896814118537, 27.558012126180028 ], [ -80.477658814049022, 27.558013126186061 ], [ -80.476591813737301, 27.55802112621393 ], [ -80.476236813633619, 27.558025126223512 ], [ -80.475835813516426, 27.558024126232986 ], [ -80.474632813164675, 27.558022126261665 ], [ -80.474232813047692, 27.558022126271386 ], [ -80.473862812939558, 27.558022126280356 ], [ -80.472751812614874, 27.558025126308024 ], [ -80.472382812507007, 27.558026126317202 ], [ -80.471990812392434, 27.558027126326962 ], [ -80.470814812048729, 27.558029126355979 ], [ -80.470423811934452, 27.558031126365936 ], [ -80.470033811820457, 27.558032126375657 ], [ -80.469751811738078, 27.558034126382957 ], [ -80.468865811478864, 27.558027126402738 ], [ -80.468476811365079, 27.558025126411685 ], [ -80.467576811101807, 27.558019126432043 ], [ -80.466268810719157, 27.558011126461743 ], [ -80.464879810313136, 27.558014126496218 ], [ -80.463980810050359, 27.558016126518517 ], [ -80.463963810045385, 27.558016126518936 ], [ -80.463836810008175, 27.558012126520968 ], [ -80.463140809804145, 27.557995126533701 ], [ -80.460620809065489, 27.557932126579278 ], [ -80.459893808852399, 27.557914126592451 ], [ -80.459781808819557, 27.557911126594423 ], [ -80.459471808728694, 27.557904126600221 ], [ -80.458985808586206, 27.55789212660903 ], [ -80.458954808577118, 27.557891126609533 ], [ -80.456476807851232, 27.557844126658022 ], [ -80.455650807609231, 27.557829126674338 ], [ -80.454814807364343, 27.557813126690711 ], [ -80.452880806797808, 27.557778126728941 ], [ -80.452309806630879, 27.557778126742797 ], [ -80.451476806387404, 27.557781126763711 ], [ -80.451299806335641, 27.557781126767999 ], [ -80.451097806276593, 27.557781126772909 ], [ -80.450688806157032, 27.557782126783053 ], [ -80.448325805466311, 27.557788126841803 ], [ -80.447585805250029, 27.557791126860529 ], [ -80.447538805236306, 27.557791126861673 ], [ -80.447494805223386, 27.557790126862486 ], [ -80.447367805186147, 27.557787126864774 ], [ -80.4473268051742, 27.557788126866026 ], [ -80.446517804937201, 27.557774126882229 ], [ -80.444090804226434, 27.557735126931426 ], [ -80.443282803989788, 27.557723126948083 ], [ -80.443135803946703, 27.557721126951151 ], [ -80.442452803746704, 27.557710126964963 ], [ -80.440426803153343, 27.557679127006455 ], [ -80.439962803017593, 27.557678127017468 ], [ -80.439287802820203, 27.557677127033596 ], [ -80.439133802775189, 27.557677127037298 ], [ -80.437524802304623, 27.557674127075529 ], [ -80.437087802176862, 27.557674127086127 ], [ -80.43601780186394, 27.557673127111808 ], [ -80.435795801798847, 27.557668127115974 ], [ -80.435098801594577, 27.557653127129146 ], [ -80.433132801018388, 27.557610127166242 ], [ -80.43270080089178, 27.557600127174215 ], [ -80.432344800787462, 27.557593127181136 ], [ -80.431410800514016, 27.557583127201273 ], [ -80.43109280042097, 27.55758112720849 ], [ -80.431069800414235, 27.557580127208819 ], [ -80.431005800395511, 27.557580127210368 ], [ -80.43098580038972, 27.557581127211087 ], [ -80.430530800256349, 27.557572127219917 ], [ -80.429171799858224, 27.5575471272467 ], [ -80.428986799804022, 27.557544127250456 ], [ -80.428720799726079, 27.557539127255637 ], [ -80.42836779962262, 27.557532127262494 ], [ -80.427311799313244, 27.557513127283361 ], [ -80.426959799210138, 27.557507127290435 ], [ -80.426126798966095, 27.557492127306915 ], [ -80.425813798874415, 27.55748712731328 ], [ -80.424230798411372, 27.557483127350668 ], [ -80.423630798235848, 27.557481127364717 ], [ -80.422895798020818, 27.557479127382038 ], [ -80.422798797992485, 27.557479127384404 ], [ -80.422688797960262, 27.55747812738683 ], [ -80.421982797753785, 27.557476127403437 ], [ -80.419538797038811, 27.557469127460902 ], [ -80.418723796800464, 27.557468127480401 ], [ -80.418383796700965, 27.557466127488166 ], [ -80.417367796403795, 27.557464127512279 ], [ -80.41713779633649, 27.557464127517864 ], [ -80.417030796305482, 27.557472127522402 ], [ -80.416804796239546, 27.55747712752915 ], [ -80.416431796130695, 27.557485127540136 ], [ -80.416036796015447, 27.55749312755167 ], [ -80.415706795919135, 27.557500127561415 ], [ -80.415100795742305, 27.557513127579305 ], [ -80.414998795712648, 27.557520127583516 ], [ -80.414746795639545, 27.557539127594293 ], [ -80.41465879561386, 27.557541127596945 ], [ -80.414572795588768, 27.557541127599045 ], [ -80.413331795225602, 27.557535127627581 ], [ -80.410729794464757, 27.557538127691359 ], [ -80.407881793631958, 27.557543127761644 ], [ -80.406425793206495, 27.557554127799612 ], [ -80.406275793162536, 27.557552127802758 ], [ -80.403176792256104, 27.557550127877352 ], [ -80.402261791988352, 27.557544127898055 ], [ -80.40020279138578, 27.557533127945199 ], [ -80.398312790832819, 27.557527127989523 ], [ -80.398031790750636, 27.557527127996341 ], [ -80.397973790733658, 27.557527127997741 ], [ -80.397971790734928, 27.557588128012831 ], [ -80.397941790726179, 27.557588128013567 ], [ -80.396342790258529, 27.557589128052566 ], [ -80.393770789506348, 27.557591128115334 ], [ -80.391455788828182, 27.557557128163008 ], [ -80.390115788434954, 27.557516128185362 ], [ -80.389832788351967, 27.557508128190268 ], [ -80.387128787560272, 27.557483128249608 ], [ -80.387057787539504, 27.557483128251324 ], [ -80.38296778634566, 27.557564128370409 ], [ -80.380090785503199, 27.557535128432885 ], [ -80.379019785190138, 27.557543128460843 ], [ -80.376318784400723, 27.557565128531692 ], [ -80.376008784309008, 27.557530128530534 ], [ -80.375082784035087, 27.557429128528074 ], [ -80.37477478394392, 27.557395128527126 ], [ -80.374530783872046, 27.557379128529085 ], [ -80.374037783726834, 27.557347128533156 ], [ -80.373889783683268, 27.557337128534236 ], [ -80.373800783657046, 27.557331128534926 ], [ -80.373696783626372, 27.557323128535504 ], [ -80.373583783593077, 27.557315128536224 ], [ -80.373558783585764, 27.557315128536835 ], [ -80.372767783354291, 27.557312128555271 ], [ -80.370397782660731, 27.557305128610942 ], [ -80.369893782513316, 27.557304128622906 ], [ -80.369651782442986, 27.557320128632728 ], [ -80.369608782430404, 27.557320128633773 ], [ -80.369496782397633, 27.557320128636494 ], [ -80.369161782299685, 27.557320128644598 ], [ -80.369050782267237, 27.55732112864753 ], [ -80.368954782239115, 27.557321128649857 ], [ -80.368903782224208, 27.55732112865109 ], [ -80.368504782107451, 27.557321128660746 ], [ -80.368368782067677, 27.557321128664054 ], [ -80.368297782046938, 27.557321128665759 ], [ -80.368086781985241, 27.557321128670861 ], [ -80.368016781964755, 27.557321128672566 ], [ -80.367890781927869, 27.557321128675607 ], [ -80.36772778188012, 27.557318128678826 ], [ -80.36666778156939, 27.557298128699561 ], [ -80.366616781554498, 27.557298128700793 ], [ -80.362621780383549, 27.5572251287795 ], [ -80.362197780259294, 27.557218128788072 ], [ -80.36127377998902, 27.557219128810694 ], [ -80.360709779824049, 27.557220128824593 ], [ -80.360235779685411, 27.5572211288363 ], [ -80.360032779626039, 27.55722212884147 ], [ -80.359828779566371, 27.557222128846419 ], [ -80.359477779463674, 27.557222128854917 ], [ -80.359021779330263, 27.557222128865959 ], [ -80.35845877916563, 27.557224128880065 ], [ -80.358084779056256, 27.557224128889111 ], [ -80.356963778728357, 27.557226128916813 ], [ -80.356590778619221, 27.55722712892608 ], [ -80.356509778595566, 27.557227128928037 ], [ -80.356268778525106, 27.55722912893437 ], [ -80.356188778501718, 27.557230128936549 ], [ -80.356036778457266, 27.557230128940237 ], [ -80.354635778047481, 27.557234128975139 ], [ -80.35044477682176, 27.55724712907978 ], [ -80.350362776797809, 27.557247129081762 ], [ -80.350280776773801, 27.557247129083763 ], [ -80.349976776684841, 27.557247129091127 ], [ -80.3493527765024, 27.557250129107004 ], [ -80.348424776230999, 27.55725312913021 ], [ -80.34837277621574, 27.557253129131492 ], [ -80.34822077617126, 27.557253129135169 ], [ -80.348169776156396, 27.557254129136638 ], [ -80.346676775719573, 27.557254129172794 ], [ -80.342198774409439, 27.557255129281444 ], [ -80.340706773972954, 27.55725612931781 ], [ -80.339972773758191, 27.557256129335581 ], [ -80.337774773115044, 27.557256129388787 ], [ -80.337042772900944, 27.557257129406754 ], [ -80.336946772872849, 27.55725712940907 ], [ -80.336476772735608, 27.557266129422668 ], [ -80.334784772241576, 27.557300129472011 ], [ -80.3346947722153, 27.557302129474703 ], [ -80.334220772076435, 27.557296129484691 ], [ -80.333906771984402, 27.55729112949102 ], [ -80.332966771709081, 27.557282129511581 ], [ -80.332653771617402, 27.557279129518417 ], [ -80.332608771604185, 27.557277129519044 ], [ -80.332476771565481, 27.557275129521731 ], [ -80.332434771553196, 27.557276129522982 ], [ -80.332295771512506, 27.557274129525876 ], [ -80.331881771391281, 27.557271129535152 ], [ -80.331765771357311, 27.557270129537681 ], [ -80.331671771329766, 27.557270129539944 ], [ -80.331581771303391, 27.557269129541861 ], [ -80.331534771289654, 27.557269129543005 ], [ -80.33129877122056, 27.55726712954824 ], [ -80.330854771090486, 27.557262129557774 ], [ -80.329397770663704, 27.557248129589613 ], [ -80.328816770493873, 27.557252129604652 ], [ -80.328137770295328, 27.557257129622318 ], [ -80.328095770283042, 27.557257129623338 ], [ -80.328031770264317, 27.55725712962489 ], [ -80.327971770246776, 27.557258129626572 ], [ -80.327930770234801, 27.557259129627823 ], [ -80.327588770134852, 27.557262129636818 ], [ -80.323163768841169, 27.55729912975308 ], [ -80.323051768808426, 27.557300129756022 ], [ -80.322817768740236, 27.557310129764154 ], [ -80.321780768438245, 27.557358129801084 ], [ -80.321435768337807, 27.557375129813632 ], [ -80.321006768212911, 27.55739512982894 ], [ -80.320162767965599, 27.557385129846939 ], [ -80.317130767077316, 27.557350129911661 ], [ -80.31464676634954, 27.557322129964895 ], [ -80.29428076038235, 27.557089130400204 ], [ -80.287492758393299, 27.557012130545466 ], [ -80.28270175698934, 27.556957130647831 ], [ -80.268331752778209, 27.556793130954919 ], [ -80.263824751457378, 27.556742131051355 ], [ -80.263545751377094, 27.556787131069218 ], [ -80.261144750446377, 27.54930112927978 ], [ -80.261094750426963, 27.549144129242212 ], [ -80.256220748657697, 27.53788312658023 ], [ -80.252452747235978, 27.527392124081057 ], [ -80.252175747131417, 27.526620123897146 ], [ -80.25000374631405, 27.520640122472912 ], [ -80.249888746270699, 27.520321122396883 ], [ -80.249772746227109, 27.52000312232115 ], [ -80.249772746220927, 27.519800122271008 ], [ -80.249772746202495, 27.519192122120874 ], [ -80.249772746196356, 27.518990122070981 ], [ -80.245864744881501, 27.513360120774806 ], [ -80.245859744863793, 27.512824120642524 ], [ -80.245829744818209, 27.511609120343163 ], [ -80.245795744764834, 27.510179119990816 ], [ -80.243018743885528, 27.507990119517089 ], [ -80.240004742909463, 27.504897118825642 ], [ -80.237252741997892, 27.501402118028569 ], [ -80.237121741926714, 27.500319117764182 ], [ -80.233132740589582, 27.494726116478457 ], [ -80.231533740006554, 27.490931115579244 ], [ -80.22930173919282, 27.485634114324068 ], [ -80.229003739019632, 27.482794113629389 ], [ -80.228505738730334, 27.478048112468446 ], [ -80.22796773841776, 27.472918111213446 ], [ -80.227964738120946, 27.4631211087918 ], [ -80.227964738117564, 27.463009108764105 ], [ -80.2223977360036, 27.446962104930197 ], [ -80.220101735161364, 27.441320103590019 ], [ -80.218233734476144, 27.436729102499445 ], [ -80.215454733456966, 27.429901100877146 ], [ -80.213348732684537, 27.424724099646969 ], [ -80.206044730100416, 27.409901096154403 ], [ -80.202786728947927, 27.403290094596333 ], [ -80.200029727972733, 27.39769609327778 ], [ -80.191761725048693, 27.380917089321734 ], [ -80.189006724074488, 27.375324088002625 ], [ -80.188936724049242, 27.375165087964938 ], [ -80.188867724024277, 27.375006087927211 ], [ -80.179122720503329, 27.352697082634368 ], [ -80.169466717015766, 27.330592077387291 ], [ -80.148442709510292, 27.285281066652797 ], [ -80.138051705802596, 27.262884061342596 ], [ -80.132850703947184, 27.251672058683262 ], [ -80.132227703724922, 27.250329058364667 ], [ -80.127900702193187, 27.241394056249192 ], [ -80.12709970189897, 27.239379055767881 ], [ -80.125008701185152, 27.235950054966043 ], [ -80.124999701182119, 27.235936054962757 ], [ -80.124883701142508, 27.235745054918095 ], [ -80.12476770110294, 27.235555054873643 ], [ -80.123278700578851, 27.232581054170456 ], [ -80.116444698229145, 27.220798051406021 ], [ -80.110697696273334, 27.211563049247999 ], [ -80.108220695267718, 27.202066046947291 ], [ -80.100758692790478, 27.192170044664422 ], [ -80.095413690885621, 27.180645041926244 ], [ -80.09415769004552, 27.164589037964863 ], [ -80.094091690001278, 27.163741037755589 ], [ -80.090486688705212, 27.155565035807598 ], [ -80.080957685027641, 27.125334028512697 ], [ -80.073330682339645, 27.109822024831878 ], [ -80.072587682077824, 27.108311024473281 ], [ -80.063387678894898, 27.091608020531336 ], [ -80.060782677925559, 27.084539018832423 ], [ -80.053387675174264, 27.06447001400776 ], [ -80.039104669983729, 27.029858005717731 ], [ -80.033269667658914, 27.008639000564447 ], [ -80.030210666522336, 27.000338998566185 ], [ -80.030253666534932, 27.00033899856518 ], [ -80.022756663472791, 26.970396991271446 ], [ -80.014888660402022, 26.943849984829438 ], [ -80.014679660320439, 26.943143984658029 ], [ -80.0142496601527, 26.941693984306099 ], [ -80.013242659759925, 26.938299983482221 ], [ -80.005205656625407, 26.911181976897389 ], [ -79.999763654504051, 26.89282197243713 ], [ -79.998953654175452, 26.889638971660652 ], [ -79.996598653273324, 26.882234969865088 ], [ -79.996465653222316, 26.881814969763187 ], [ -79.993915652289843, 26.875341968204527 ], [ -79.993521652108299, 26.873033967636822 ], [ -79.991919651448498, 26.866378966010547 ], [ -79.990853650971943, 26.860635964599695 ], [ -79.990830650913935, 26.858842964152021 ], [ -79.990801650840027, 26.856556963581308 ], [ -79.989732650425637, 26.853014962720422 ], [ -79.985316648664181, 26.836637958727405 ], [ -79.985101648578393, 26.835839958532752 ], [ -79.983620647948527, 26.82897095684902 ], [ -79.979336646273282, 26.814227953259852 ], [ -79.977741645649616, 26.808735951922532 ], [ -79.975427644730303, 26.800254949853635 ], [ -79.974308644179715, 26.792419947918738 ], [ -79.974859644159679, 26.786032946307735 ], [ -79.97546564421377, 26.78168594520594 ], [ -79.975467644189706, 26.780816944988437 ], [ -79.975470644145148, 26.779216944587862 ], [ -79.974882643847934, 26.774814943499504 ], [ -79.975011643832445, 26.772936943026494 ], [ -79.999763651084081, 26.772938942461128 ], [ -80.02240965771783, 26.772942941944265 ], [ -80.027911659329448, 26.772943941818699 ], [ -80.031587660408405, 26.773024941754887 ], [ -80.032145660572212, 26.773037941745383 ], [ -80.032324660624639, 26.773037941741286 ], [ -80.035851661659891, 26.773117941680663 ], [ -80.036110661733531, 26.773038941654931 ], [ -80.036781661925744, 26.772886941601548 ], [ -80.038741662486004, 26.772400941435155 ], [ -80.039073662580691, 26.77231294140552 ], [ -80.040551663003114, 26.771943941279357 ], [ -80.046860664790344, 26.769813940602127 ], [ -80.047080664852913, 26.769747940580569 ], [ -80.047707665031155, 26.769558940518973 ], [ -80.048752665328308, 26.76924594041677 ], [ -80.048991665398475, 26.769251940412776 ], [ -80.049387665514701, 26.769260940405953 ], [ -80.04987866568942, 26.770349940667234 ], [ -80.049723665667671, 26.771183940879457 ], [ -80.049265665603428, 26.773644941505669 ], [ -80.044464664399356, 26.780755943394588 ], [ -80.044528664454262, 26.782026943711077 ], [ -80.044572664494666, 26.782994943952239 ], [ -80.044599664506549, 26.783135943986931 ], [ -80.045651664814017, 26.783113943957339 ], [ -80.046678665114101, 26.78308994392782 ], [ -80.04720466551295, 26.791700946069774 ], [ -80.047244665543744, 26.792372946236942 ], [ -80.047252665549436, 26.792488946265784 ], [ -80.047402665593353, 26.792490946262813 ], [ -80.051965666931252, 26.792544946171784 ], [ -80.052976667228265, 26.792576946156668 ], [ -80.053524667388956, 26.792584946146089 ], [ -80.05386466748844, 26.792581946137567 ], [ -80.054219667592207, 26.792574946127694 ], [ -80.05484666777636, 26.792592946117839 ], [ -80.056155668160827, 26.792632946097807 ], [ -80.058676668901242, 26.792708946059115 ], [ -80.06069866949511, 26.792768946027763 ], [ -80.062645670066914, 26.7928269459977 ], [ -80.06272067008895, 26.792828945996462 ], [ -80.064844670712773, 26.792892945963803 ], [ -80.066764671276545, 26.792947945933562 ], [ -80.067283671428925, 26.792961945925196 ], [ -80.068264671716932, 26.792986945908961 ], [ -80.068310671695997, 26.791777945605538 ], [ -80.069288671983102, 26.791803945589674 ], [ -80.069236672002788, 26.793030945897698 ], [ -80.070398672344083, 26.79306594587986 ], [ -80.070903672492136, 26.793073945870258 ], [ -80.071062672539028, 26.793084945869349 ], [ -80.071373672630756, 26.793107945867963 ], [ -80.073103673138817, 26.793159945841364 ], [ -80.073470673246689, 26.793173945836433 ], [ -80.074160673449484, 26.793199945827183 ], [ -80.074284673485622, 26.793194945823043 ], [ -80.075343673796425, 26.793219945805024 ], [ -80.076374674099057, 26.79324494578767 ], [ -80.078378674687499, 26.793302945756245 ], [ -80.080418675286467, 26.7933599457238 ], [ -80.082468675887284, 26.793378945681511 ], [ -80.08262267593247, 26.793382945679021 ], [ -80.085602676807198, 26.793459945629973 ], [ -80.087363677325897, 26.793568945616883 ], [ -80.09065067829421, 26.793775945593286 ], [ -80.090797678337452, 26.793781945591427 ], [ -80.090991678394531, 26.79379294558974 ], [ -80.091163678445071, 26.793797945587038 ], [ -80.091399678514492, 26.793810945584912 ], [ -80.091632678583068, 26.793821945582284 ], [ -80.091754678620006, 26.793865945590511 ], [ -80.093089679013559, 26.793958945583146 ], [ -80.096057679886144, 26.794086945547164 ], [ -80.096366679976626, 26.794086945540052 ], [ -80.097505680310491, 26.794099945517228 ], [ -80.097983680450596, 26.794105945507763 ], [ -80.098623680640088, 26.794180945511851 ], [ -80.098671680613421, 26.792749945152945 ], [ -80.098744680574995, 26.790647944625643 ], [ -80.098867680528414, 26.787744943896914 ], [ -80.098893680509178, 26.786800943660261 ], [ -80.098894680508351, 26.786761943650529 ], [ -80.098894680501758, 26.786529943592477 ], [ -80.098894680491938, 26.786184943506203 ], [ -80.098901680483877, 26.785827943416766 ], [ -80.098920680472048, 26.78521594326331 ], [ -80.098920680471068, 26.785180943254545 ], [ -80.09892668045768, 26.784649943121636 ], [ -80.098964680433497, 26.783408942810428 ], [ -80.099226680510554, 26.783420942807396 ], [ -80.099232680505324, 26.783174942745738 ], [ -80.09926768048625, 26.782142942486846 ], [ -80.09932268046289, 26.78075594213875 ], [ -80.099285680434875, 26.780149941988039 ], [ -80.099238680408163, 26.779693941875085 ], [ -80.099173680377731, 26.779292941776273 ], [ -80.099015680314778, 26.778705941633106 ], [ -80.098977680299569, 26.778562941598139 ], [ -80.099249680380083, 26.778593941599723 ], [ -80.099277680388411, 26.778598941600304 ], [ -80.099289680390143, 26.778534941584034 ], [ -80.099476680332089, 26.774566940587349 ], [ -80.099481680330499, 26.774458940560216 ], [ -80.099933680471977, 26.774779940630122 ], [ -80.101025680813677, 26.775554940799008 ], [ -80.101825681063829, 26.776113940920499 ], [ -80.102309681214962, 26.776447940992902 ], [ -80.102919681405425, 26.776865941083521 ], [ -80.103375681547448, 26.777165941148077 ], [ -80.104011681746016, 26.777599941242105 ], [ -80.104476681891043, 26.777913941309997 ], [ -80.104891682020721, 26.778200941372223 ], [ -80.105532682220229, 26.778617941461874 ], [ -80.105848682318936, 26.778835941509158 ], [ -80.105831682322673, 26.77914194158604 ], [ -80.105829682323957, 26.779208941602842 ], [ -80.105780682323882, 26.77971094172948 ], [ -80.105785682340965, 26.780260941866956 ], [ -80.105657682392192, 26.783379942649848 ], [ -80.106210682554391, 26.783391942640215 ], [ -80.106491682637582, 26.783421942641247 ], [ -80.107130682825115, 26.783438942630884 ], [ -80.10716568281272, 26.782642942431039 ], [ -80.107199682803667, 26.781975942263458 ], [ -80.107234682802712, 26.781580942163846 ], [ -80.10724668279417, 26.781156942057578 ], [ -80.107320682778294, 26.779834941725262 ], [ -80.107318682772757, 26.77966094168179 ], [ -80.107491682826776, 26.779780941707887 ], [ -80.107518682821507, 26.779317941591444 ], [ -80.107530682822215, 26.779218941566448 ], [ -80.107573682800691, 26.778017941265066 ], [ -80.109507683368648, 26.778079941236307 ], [ -80.111038683818052, 26.778121941211765 ], [ -80.112945684377877, 26.778178941182322 ], [ -80.114624684870762, 26.778225941155601 ], [ -80.115791685213239, 26.778254941136186 ], [ -80.115796685211393, 26.778138941107063 ], [ -80.116027685126312, 26.772764939757831 ], [ -80.116157685079372, 26.769773939006793 ], [ -80.116252685044685, 26.767572938454116 ], [ -80.116332685010278, 26.765535937942847 ], [ -80.120934686361394, 26.765676937872794 ], [ -80.123048686982088, 26.765741937840687 ], [ -80.124410687381996, 26.765783937820039 ], [ -80.127191688198479, 26.765869937777925 ], [ -80.128648688625987, 26.765905937753566 ], [ -80.132431689736947, 26.766033937699021 ], [ -80.132432689735083, 26.765957937680007 ], [ -80.133096689930056, 26.765978937670077 ], [ -80.133197689926277, 26.764804937374109 ], [ -80.133267689862706, 26.76184493663224 ], [ -80.133367689866461, 26.760944936404847 ], [ -80.133321689841708, 26.760549936307079 ], [ -80.133335689836329, 26.760214936222958 ], [ -80.133878689988833, 26.759987936153767 ], [ -80.133901689982437, 26.759525936037733 ], [ -80.133924689979835, 26.759196935954883 ], [ -80.133969689972858, 26.758485935776058 ], [ -80.13403968996036, 26.757324935484036 ], [ -80.134210689892058, 26.753152934436606 ], [ -80.134268689868961, 26.751738934081551 ], [ -80.134304689854758, 26.750867933862846 ], [ -80.134316689851971, 26.750644933806775 ], [ -80.134546689777181, 26.745632932547775 ], [ -80.134558689768383, 26.745199932439171 ], [ -80.134719689715979, 26.741685931556386 ], [ -80.13473068970869, 26.741316931463775 ], [ -80.134937689640708, 26.736778930323705 ], [ -80.134949689636599, 26.736508930255884 ], [ -80.135133689580272, 26.732618929278349 ], [ -80.135156689578196, 26.732307929199994 ], [ -80.135421689475123, 26.72592592759699 ], [ -80.135439689470786, 26.72558592751145 ], [ -80.135525689431503, 26.723309926939926 ], [ -80.135542689430622, 26.723102926887748 ], [ -80.135585689420267, 26.722291926683823 ], [ -80.13559468941834, 26.722130926643327 ], [ -80.135600689415, 26.72194992659789 ], [ -80.135711689389623, 26.719903926083319 ], [ -80.13589968940812, 26.718612925755959 ], [ -80.135918689409792, 26.718473925720755 ], [ -80.136044689428104, 26.717818925553882 ], [ -80.13617268944931, 26.717243925407072 ], [ -80.136268689466334, 26.716852925307055 ], [ -80.136308689472344, 26.71665092525561 ], [ -80.13645868950114, 26.71611592511827 ], [ -80.1366316895365, 26.715574924978895 ], [ -80.136665689543122, 26.715457924948868 ], [ -80.136844689580556, 26.714928924812366 ], [ -80.1370566896274, 26.714391924673123 ], [ -80.137242689669861, 26.713966924562488 ], [ -80.137345689692822, 26.713713924496822 ], [ -80.137419689709517, 26.713536924450842 ], [ -80.137471689721465, 26.713421924420885 ], [ -80.137680689769851, 26.712969924302996 ], [ -80.137966689837285, 26.712393924152273 ], [ -80.137975689839308, 26.712372924146848 ], [ -80.138458689953055, 26.711394923891042 ], [ -80.138532689970717, 26.711253923854073 ], [ -80.138699690011904, 26.710982923782446 ], [ -80.13873069001977, 26.710938923770694 ], [ -80.13907869010518, 26.710357923617348 ], [ -80.139399690184874, 26.709853923483895 ], [ -80.139735690269163, 26.709356923351859 ], [ -80.140128690368712, 26.708807923205441 ], [ -80.140537690473224, 26.708269923061451 ], [ -80.140905690567322, 26.707789922932939 ], [ -80.141010690594413, 26.707659922897989 ], [ -80.141173690642333, 26.707667922896313 ], [ -80.141252690665567, 26.707670922895272 ], [ -80.141702690797771, 26.707687922889217 ], [ -80.147653692372231, 26.701770921272569 ], [ -80.147497692316335, 26.701407921185258 ], [ -80.147404692283857, 26.701220921140539 ], [ -80.147389692278622, 26.701191921133628 ], [ -80.147355692266117, 26.701099921111382 ], [ -80.147153692191765, 26.700560920981051 ], [ -80.146942692114962, 26.700028920852667 ], [ -80.146826692072679, 26.699733920781465 ], [ -80.14667269201702, 26.699358920691143 ], [ -80.146594691988852, 26.699168920645327 ], [ -80.146347691899663, 26.69857092050129 ], [ -80.146247691862754, 26.69829892043542 ], [ -80.146182691837893, 26.698092920385356 ], [ -80.146109691808647, 26.697814920317441 ], [ -80.14605169178374, 26.697532920248136 ], [ -80.146024691769867, 26.697320920195697 ], [ -80.146001691757803, 26.697131920148919 ], [ -80.145954691729429, 26.696613920020322 ], [ -80.145868691661889, 26.695112919646501 ], [ -80.145854691647486, 26.694748919555714 ], [ -80.14573569156299, 26.692987919117556 ], [ -80.145718691550712, 26.69272891905306 ], [ -80.145718691537255, 26.692252918933903 ], [ -80.145511691370629, 26.688493917997494 ], [ -80.145498691360103, 26.688255917938186 ], [ -80.145414691292672, 26.686735917559552 ], [ -80.14540169128226, 26.686502917501471 ], [ -80.145390691272439, 26.686267917442898 ], [ -80.145349691236973, 26.685435917235516 ], [ -80.145343691230181, 26.685258917191344 ], [ -80.145323691209242, 26.684721917057317 ], [ -80.14530769119105, 26.684242916937755 ], [ -80.145287691159652, 26.683337916711629 ], [ -80.145261691086858, 26.681024916133023 ], [ -80.145258691078268, 26.680750916064486 ], [ -80.14523869105777, 26.680231915934982 ], [ -80.145220691021905, 26.679146915663729 ], [ -80.14520769101162, 26.678917915606696 ], [ -80.145202691008961, 26.678874915596015 ], [ -80.145200691005897, 26.67878691557404 ], [ -80.145613691126783, 26.678787915564872 ], [ -80.147205691592873, 26.678793915530175 ], [ -80.148094691851171, 26.678725915492912 ], [ -80.148836692067349, 26.678691915467549 ], [ -80.149323692208469, 26.678642915444161 ], [ -80.154245693653223, 26.678795915370522 ], [ -80.15549569402009, 26.67883491535186 ], [ -80.15753469461869, 26.678901915322264 ], [ -80.158653694947219, 26.678938915306102 ], [ -80.160152695387211, 26.67898791528426 ], [ -80.161607695814396, 26.679035915263164 ], [ -80.162358696034829, 26.679060915252322 ], [ -80.163243696294657, 26.679089915239448 ], [ -80.163361696329261, 26.67909291523749 ], [ -80.163550696384746, 26.679099915234996 ], [ -80.166352697207287, 26.679191915194281 ], [ -80.16645869723834, 26.6791949151926 ], [ -80.166599697279807, 26.679199915190647 ], [ -80.166611697283287, 26.679199915190356 ], [ -80.166773697330811, 26.67920491518792 ], [ -80.167384697510172, 26.679224915179041 ], [ -80.169268698063235, 26.679286915151717 ], [ -80.170622698460662, 26.679330915131921 ], [ -80.174119699486482, 26.679419915074639 ], [ -80.174170699501417, 26.679420915073727 ], [ -80.1742866995355, 26.679425915072347 ], [ -80.176046700052495, 26.679497915050291 ], [ -80.178594700800176, 26.679573915011396 ], [ -80.179149700963038, 26.679589915002719 ], [ -80.180165701260918, 26.679610914984877 ], [ -80.181140701546781, 26.679631914967949 ], [ -80.182249701872294, 26.679667914951743 ], [ -80.184241702456958, 26.679732914922688 ], [ -80.19131070453156, 26.67995691481789 ], [ -80.191886704700636, 26.679975914809571 ], [ -80.192961705016131, 26.680011914794076 ], [ -80.19455970548519, 26.680065914771262 ], [ -80.195810705854555, 26.680183914772314 ], [ -80.195817705854097, 26.680095914750133 ], [ -80.201791707605949, 26.680238914649951 ], [ -80.201920707643737, 26.680241914647738 ], [ -80.202062707685442, 26.680245914645553 ], [ -80.202210707728824, 26.680249914643191 ], [ -80.202374707776954, 26.680253914640431 ], [ -80.202368707782782, 26.680523914708164 ], [ -80.203655708159715, 26.680539914682896 ], [ -80.206959709126551, 26.680547914609662 ], [ -80.208715709638795, 26.680495914556683 ], [ -80.2100797100384, 26.680514914530423 ], [ -80.213146710938318, 26.680610914484625 ], [ -80.214431711315129, 26.680642914463352 ], [ -80.214422711319642, 26.680895914526882 ], [ -80.214156711448112, 26.688205916362481 ], [ -80.214156711463261, 26.688742916496874 ], [ -80.214068711486902, 26.690492916936847 ], [ -80.213985711517452, 26.692434917424713 ], [ -80.213783711538909, 26.695287918143261 ], [ -80.21354971147052, 26.695289918149093 ], [ -80.213545711471625, 26.695369918169167 ], [ -80.213536711473964, 26.695546918213672 ], [ -80.214094711637543, 26.695558918203986 ], [ -80.214213711672286, 26.695556918200786 ], [ -80.214389711723314, 26.695539918192498 ], [ -80.214506711756925, 26.695517918184333 ], [ -80.214568711774618, 26.695502918179148 ], [ -80.214729711820368, 26.695454918163449 ], [ -80.214901711869501, 26.695411918148789 ], [ -80.21507671192002, 26.69538791813881 ], [ -80.215195711954607, 26.695380918134354 ], [ -80.215669712093543, 26.695389918125777 ], [ -80.215929712169768, 26.695394918121089 ], [ -80.216456712324245, 26.695406918112116 ], [ -80.217095712511636, 26.695423918101827 ], [ -80.217139712524968, 26.695439918104793 ], [ -80.217177712536753, 26.695463918109976 ], [ -80.217207712546454, 26.695496918117509 ], [ -80.217637712672413, 26.695502918109213 ], [ -80.217495712718048, 26.698587918884375 ], [ -80.217483712723961, 26.698920918967993 ], [ -80.214257711776554, 26.69879191900921 ], [ -80.213365711514868, 26.698764919022818 ], [ -80.213356711524753, 26.699208919134126 ], [ -80.213344711533864, 26.699653919245755 ], [ -80.213228711505096, 26.699836919294199 ], [ -80.213391711567382, 26.70035391941984 ], [ -80.213355711557554, 26.700379919427156 ], [ -80.213324711549376, 26.700410919435587 ], [ -80.213301711543664, 26.700446919445156 ], [ -80.21328671154042, 26.700486919455528 ], [ -80.213279711539514, 26.700527919465909 ], [ -80.212984711598097, 26.705653920755193 ], [ -80.213318711696246, 26.705668920751346 ], [ -80.213286711701826, 26.70619792088441 ], [ -80.213165711760027, 26.709507921715296 ], [ -80.21355071187233, 26.709496921703789 ], [ -80.213952711989592, 26.709484921691605 ], [ -80.214877712256822, 26.709364921640471 ], [ -80.215479712429712, 26.70925092159823 ], [ -80.216025712585477, 26.709110921550781 ], [ -80.216239712646143, 26.709042921528898 ], [ -80.216994712860284, 26.708804921452067 ], [ -80.217589713027337, 26.70855792137673 ], [ -80.218219713201989, 26.708216921277064 ], [ -80.220076713716765, 26.707209920982748 ], [ -80.220624713869285, 26.706934920901475 ], [ -80.220984713968988, 26.70673592084346 ], [ -80.221327714065794, 26.706610920804394 ], [ -80.221711714174759, 26.706492920766067 ], [ -80.222024714264137, 26.706414920739448 ], [ -80.222340714354729, 26.706349920715962 ], [ -80.222659714446621, 26.706297920695718 ], [ -80.222981714539756, 26.706260920679071 ], [ -80.225075715151888, 26.706245920627548 ], [ -80.229236716368405, 26.706222920526891 ], [ -80.228908716427284, 26.711697921904051 ], [ -80.228774716451568, 26.71394192246839 ], [ -80.228665716470957, 26.715753922924165 ], [ -80.228551716491339, 26.717652923401733 ], [ -80.228528716491667, 26.717900923464278 ], [ -80.228490716487329, 26.718139923524951 ], [ -80.228436716478186, 26.718375923585185 ], [ -80.228352716461401, 26.718651923656108 ], [ -80.22832771645615, 26.718723923674752 ], [ -80.228259716441073, 26.718893923718792 ], [ -80.227938716367106, 26.719597923902192 ], [ -80.227814716338472, 26.719868923972804 ], [ -80.227516716269633, 26.720515924141438 ], [ -80.227459716256519, 26.720639924173785 ], [ -80.227385716239993, 26.720822924221224 ], [ -80.227326716228148, 26.721012924270081 ], [ -80.227281716220517, 26.721207924319906 ], [ -80.227251716218674, 26.721454924382357 ], [ -80.227275716269304, 26.722992924766466 ], [ -80.227323716306628, 26.723814924970984 ], [ -80.227377716329542, 26.724066925032766 ], [ -80.228068716575777, 26.725623925406392 ], [ -80.228108716592104, 26.725786925446219 ], [ -80.228136716605576, 26.72597392549239 ], [ -80.228147716613833, 26.726151925536655 ], [ -80.22814271661754, 26.726334925582542 ], [ -80.228043716640812, 26.728177926045717 ], [ -80.228001716650397, 26.728949926239732 ], [ -80.227966716658599, 26.729601926403589 ], [ -80.227811716679199, 26.731928926989042 ], [ -80.22782571671253, 26.732959927246544 ], [ -80.22785571678817, 26.735319927836009 ], [ -80.227907716829137, 26.73622592806138 ], [ -80.223875715644482, 26.73604392810801 ], [ -80.217593713798735, 26.73576092818077 ], [ -80.216970713615623, 26.735731928187779 ], [ -80.215809713274481, 26.735679928201328 ], [ -80.215807713275254, 26.735727928213386 ], [ -80.215748713308201, 26.737497928657316 ], [ -80.215744713310315, 26.73761492868671 ], [ -80.219751714486861, 26.7377669286331 ], [ -80.219712714502393, 26.738715928871351 ], [ -80.219666714516066, 26.739672929111677 ], [ -80.219633714552586, 26.741301929519736 ], [ -80.219608714552876, 26.741569929587317 ], [ -80.219606714553152, 26.741599929594919 ], [ -80.219570714568007, 26.742495929819725 ], [ -80.220423714817827, 26.742505929802753 ], [ -80.223637715760276, 26.74258392974874 ], [ -80.223612715772276, 26.743263929919376 ], [ -80.223602715777545, 26.743553929992082 ], [ -80.220383714834341, 26.743500930052445 ], [ -80.219539714587057, 26.74348693006824 ], [ -80.21951071460434, 26.744393930295701 ], [ -80.223568715794244, 26.744492930227658 ], [ -80.223543715806414, 26.745178930399756 ], [ -80.223534715810658, 26.745422930460933 ], [ -80.2235017158266, 26.746323930687019 ], [ -80.219463714642941, 26.746238930758093 ], [ -80.219451714665965, 26.747175930992618 ], [ -80.219412714680118, 26.748076931218794 ], [ -80.219378714692766, 26.748871931418368 ], [ -80.219369714694324, 26.749020931455789 ], [ -80.21932471470744, 26.749946931688324 ], [ -80.21930271472705, 26.750864931918343 ], [ -80.219269714743518, 26.751783932148868 ], [ -80.219224714756862, 26.752717932383444 ], [ -80.219180714769863, 26.753628932612152 ], [ -80.219142714785676, 26.754577932850285 ], [ -80.219112714803217, 26.755503933082451 ], [ -80.21907471481785, 26.75641193331036 ], [ -80.21903071483041, 26.757306933535073 ], [ -80.219007714850676, 26.758257933773368 ], [ -80.218948714859749, 26.759183934006181 ], [ -80.218932714869936, 26.759707934137538 ], [ -80.218899714871725, 26.760108934238534 ], [ -80.218859714886861, 26.761054934475929 ], [ -80.218853714900547, 26.761599934612281 ], [ -80.218848714908233, 26.761920934692629 ], [ -80.218799714921673, 26.76289793493801 ], [ -80.21876071493682, 26.763833935172826 ], [ -80.218718714950228, 26.764737935399761 ], [ -80.218714714951801, 26.764833935423869 ], [ -80.218691714968941, 26.765673935634332 ], [ -80.218684714970209, 26.765789935663495 ], [ -80.218746714988356, 26.765789935662095 ], [ -80.222725716151871, 26.765772935566687 ], [ -80.226694717313393, 26.765785935479055 ], [ -80.226762717333273, 26.765785935477506 ], [ -80.230802718514738, 26.765772935381694 ], [ -80.231159718618969, 26.765765935371782 ], [ -80.234940719724918, 26.765762935284442 ], [ -80.235020719748334, 26.765762935282623 ], [ -80.235293719828192, 26.765762935276353 ], [ -80.235967720025343, 26.765761935260663 ], [ -80.239006720914247, 26.765759935190555 ], [ -80.243259722158314, 26.765760935093386 ], [ -80.247261723328904, 26.765761935001969 ], [ -80.247344723353919, 26.765786935006304 ], [ -80.247425723378257, 26.765809935010196 ], [ -80.247491723398085, 26.765829935013688 ], [ -80.24756972342108, 26.7658339350129 ], [ -80.24765472344609, 26.765838935012169 ], [ -80.24771672346354, 26.765816935005251 ], [ -80.247801723493765, 26.766004935050333 ], [ -80.249771724070513, 26.766022935009655 ], [ -80.255339725697766, 26.765975934870362 ], [ -80.260599727239409, 26.766087934777833 ], [ -80.261146727399137, 26.766079934763322 ], [ -80.261415727476489, 26.766032934745414 ], [ -80.261708727560062, 26.765957934719978 ], [ -80.262769727855542, 26.765436934565429 ], [ -80.262922727898271, 26.765365934544196 ], [ -80.262923727900386, 26.765428934559942 ], [ -80.262926727905082, 26.765563934593605 ], [ -80.263340728026108, 26.765562934583841 ], [ -80.266479728943921, 26.765552934509465 ], [ -80.283391733889147, 26.765529934116195 ], [ -80.294748737211265, 26.765566933865141 ], [ -80.295136737324796, 26.765567933856495 ], [ -80.29516473732528, 26.765297933788393 ], [ -80.307000740782215, 26.765158933482422 ], [ -80.311143741994442, 26.765188933394935 ], [ -80.311471742090674, 26.765201933390674 ], [ -80.31529774321389, 26.765362933343194 ], [ -80.319413744421567, 26.765511933286064 ], [ -80.319454744433571, 26.765512933285404 ], [ -80.323637745658473, 26.765579933206244 ], [ -80.327552746805907, 26.765681933141916 ], [ -80.327816746883286, 26.765688933137682 ], [ -80.335772749217014, 26.765960933023177 ], [ -80.336452749413624, 26.765885932988823 ], [ -80.336897749532469, 26.765489932879756 ], [ -80.33724374962415, 26.765157932788892 ], [ -80.337359749660308, 26.765236932805983 ], [ -80.337718749767305, 26.765308932815735 ], [ -80.34507975192038, 26.765352932657947 ], [ -80.349206753126879, 26.765356932564302 ], [ -80.355862755073161, 26.765379932417414 ], [ -80.358680755896856, 26.765379932352786 ], [ -80.359193756046935, 26.765383932342026 ], [ -80.360382756394799, 26.765393932317281 ], [ -80.361515756726405, 26.765410932295516 ], [ -80.36406775747264, 26.765422932239996 ], [ -80.365831757988531, 26.765430932201529 ], [ -80.369452759047476, 26.765454932124452 ], [ -80.369931759187622, 26.76545793211422 ], [ -80.371644759688266, 26.765457932074948 ], [ -80.373795760317151, 26.765465932027652 ], [ -80.375079760692387, 26.765464931997954 ], [ -80.37768376145371, 26.765473931940463 ], [ -80.379908762104463, 26.765489931893413 ], [ -80.381029762431965, 26.76548493186646 ], [ -80.383089763034306, 26.765495931821928 ], [ -80.385694763882341, 26.768540932522431 ], [ -80.385796763915721, 26.768667932551836 ], [ -80.385899763949425, 26.768793932580948 ], [ -80.386180764031536, 26.768793932574496 ], [ -80.386336764072652, 26.768636932531727 ], [ -80.389040764934037, 26.771133933093033 ], [ -80.394811766818592, 26.778084934695819 ], [ -80.400660768699197, 26.78409493606161 ], [ -80.406689770632397, 26.790103937422757 ], [ -80.408861771325348, 26.792144937882185 ], [ -80.41159477219793, 26.794736938466144 ], [ -80.431244778432372, 26.81198494231705 ], [ -80.433544779159476, 26.813910942744474 ], [ -80.434235779377616, 26.814478942870277 ], [ -80.43786378052306, 26.817465943531648 ], [ -80.438732780800592, 26.818290943717383 ], [ -80.455859786221936, 26.832875946959412 ], [ -80.464603788984064, 26.840121948564015 ], [ -80.464577788977749, 26.840165948575589 ], [ -80.466214789494714, 26.841518948875038 ], [ -80.466865789701544, 26.842098949004551 ], [ -80.482914794800067, 26.856398952197683 ], [ -80.49940880004273, 26.871183955499671 ], [ -80.499777800158057, 26.871446955556664 ], [ -80.504153801548114, 26.875339956425044 ], [ -80.530486809907032, 26.898542961592458 ], [ -80.530394810572204, 26.922507967559142 ], [ -80.530224811552316, 26.958075976411305 ], [ -80.531903812042557, 26.958071976371215 ], [ -80.561427820661478, 26.957991975663671 ], [ -80.561496820681626, 26.957991975662065 ], [ -80.564176821463889, 26.957983975597685 ], [ -80.577549825367257, 26.957946975276926 ], [ -80.577579825376077, 26.957946975276226 ], [ -80.580239826152408, 26.95793897521229 ], [ -80.580426826206988, 26.957938975207952 ], [ -80.596895831013526, 26.957893974813018 ], [ -80.596978831037731, 26.957893974811086 ], [ -80.600911832185545, 26.957883974716925 ], [ -80.601226832277476, 26.957882974709339 ], [ -80.60800983425689, 26.95786497454678 ], [ -80.60836783436136, 26.957863974538199 ], [ -80.609643834733532, 26.957852974505766 ], [ -80.609816834784183, 26.957859974503442 ], [ -80.611028835137873, 26.95785697447446 ], [ -80.611211835191256, 26.957855974469954 ], [ -80.611426835254022, 26.957854974464706 ], [ -80.611626835312364, 26.95785397445978 ], [ -80.613762835935717, 26.957848974408769 ], [ -80.618065837191338, 26.957837974305715 ], [ -80.624780839150745, 26.95782097414499 ], [ -80.629662840574454, 26.957780974021311 ], [ -80.644792844994612, 26.957938973707865 ], [ -80.659922849414357, 26.958097973394612 ], [ -80.660781849665284, 26.958106973376783 ], [ -80.661641849916464, 26.958115973358957 ], [ -80.67493985380068, 26.95825497308342 ], [ -80.681037855581735, 26.958318972957077 ], [ -80.688229857682188, 26.958393972808025 ], [ -80.688250857688317, 26.958393972807517 ], [ -80.694163859415198, 26.958455972685005 ], [ -80.700088861145488, 26.958517972562163 ], [ -80.706450863003383, 26.958584972430412 ], [ -80.712812864861135, 26.958650972298386 ], [ -80.731298870258854, 26.958844971915248 ], [ -80.749783875655623, 26.95903797153175 ], [ -80.874786912095686, 26.959021968608436 ], [ -80.885641915255945, 26.958923968330375 ], [ -80.874786912339459, 26.967394970685852 ], [ -80.864160909485975, 26.97573897300439 ], [ -80.853534906632404, 26.984081975322734 ], [ -80.844989904337652, 26.990791977187246 ], [ -80.8364449020428, 26.997501979051755 ], [ -80.832789901060181, 27.000336979840558 ], [ -80.832737901046215, 27.000376979851708 ], [ -80.799269892031489, 27.025769986934129 ], [ -80.765801883015911, 27.051162994016654 ], [ -80.757914880891107, 27.057146995685706 ], [ -80.750026878766064, 27.063130997354779 ], [ -80.749783878700612, 27.063315997406338 ], [ -80.748653878397377, 27.064213997655568 ], [ -80.747523878094185, 27.065112997905018 ], [ -80.741890876582602, 27.069590999147682 ], [ -80.736258875071272, 27.074069000390335 ], [ -80.722918871491359, 27.084675003333469 ], [ -80.693507863598256, 27.108056009821659 ], [ -80.685638861497551, 27.114694011652347 ], [ -80.683753860994329, 27.116284012090883 ], [ -80.681623860425759, 27.118082012586704 ], [ -80.679222859784829, 27.120109013145683 ], [ -80.678371859557643, 27.120827013343639 ], [ -80.678150859498658, 27.121013013394986 ], [ -80.677960859447907, 27.121173013439115 ], [ -80.67777185939751, 27.121334013483466 ], [ -80.677429859306272, 27.121624013563412 ], [ -80.67742985930812, 27.121687013579031 ], [ -80.677427859320403, 27.122124013687358 ], [ -80.677427859322364, 27.122190013703712 ], [ -80.677421859394812, 27.124709014328094 ], [ -80.67742185940007, 27.124888014372452 ], [ -80.677403859407903, 27.125332014482918 ], [ -80.677387859488263, 27.128214015197457 ], [ -80.677358859627574, 27.133228016440498 ], [ -80.677417859787226, 27.138055017635104 ], [ -80.677421859797406, 27.138361017710764 ], [ -80.677437859841731, 27.139704018043151 ], [ -80.677464859918146, 27.142027018618016 ], [ -80.67755186012738, 27.148253020158322 ], [ -80.677555860138042, 27.148575020237988 ], [ -80.677676860453218, 27.158046022581047 ], [ -80.677680860462644, 27.158325022650047 ], [ -80.677682860467698, 27.158477022687645 ], [ -80.677693860495253, 27.15930102289143 ], [ -80.677708860598997, 27.162661023723288 ], [ -80.677709860602803, 27.162780023752703 ], [ -80.677725860698757, 27.165866024516585 ], [ -80.677736860760945, 27.167861025010335 ], [ -80.677736860762366, 27.167909025022269 ], [ -80.677817861255505, 27.183767028946875 ], [ -80.677819861266798, 27.184129029036459 ], [ -80.677834861520807, 27.192551031121027 ], [ -80.67784286165103, 27.196864032188465 ], [ -80.677848861756289, 27.200354033052161 ], [ -80.677853861834919, 27.202955033695755 ], [ -80.677851861837496, 27.203061033722076 ], [ -80.677854861855508, 27.203639033865059 ], [ -80.677858861873858, 27.204217034007986 ], [ -80.677860861892313, 27.204820034157198 ], [ -80.677864861928313, 27.205993034447374 ] ] ] ] } }
]
}
