{
"type": "FeatureCollection",
"name": "DISTRICT_23",
"crs": { "type": "name", "properties": { "name": "urn:ogc:def:crs:OGC:1.3:CRS84" } },
"xy_coordinate_resolution": 1e-15,
"features": [
{ "type": "Feature", "properties": { "LONGNAME": "District 23", "SHORTNAME": "D23", "DISTRICT": 23, "COLOR": -780901760, "TOTAL": 769221, "TARGET_DEV": 0 }, "geometry": { "type": "MultiPolygon", "coordinates": [ [ [ [ -80.205120703888483, 26.512657872572774 ], [ -80.205163704000341, 26.516231873468733 ], [ -80.205208704116743, 26.519944874399442 ], [ -80.205300704251982, 26.523838875374487 ], [ -80.205278704283273, 26.525195875715454 ], [ -80.205329704372687, 26.527873876386224 ], [ -80.205363704434177, 26.529726876850354 ], [ -80.205381704475016, 26.531004877170588 ], [ -80.205344704476872, 26.53146087728582 ], [ -80.205382704559867, 26.534042877932766 ], [ -80.205382704561671, 26.534107877949065 ], [ -80.205382704583812, 26.534902878148486 ], [ -80.205440704637752, 26.536229878480096 ], [ -80.205440704702241, 26.538545879061079 ], [ -80.205467704719467, 26.538880879144525 ], [ -80.20563870487004, 26.542489880045967 ], [ -80.205646704884842, 26.542937880158181 ], [ -80.205671704981867, 26.546157880965286 ], [ -80.205699705056389, 26.548537881561636 ], [ -80.205706705095309, 26.54985988189301 ], [ -80.205710705101922, 26.550054881941861 ], [ -80.205719705118256, 26.550547882065306 ], [ -80.205755705213633, 26.553589882827435 ], [ -80.205745705215435, 26.553759882870335 ], [ -80.205787705324383, 26.557224883738307 ], [ -80.20579670533408, 26.55747688380136 ], [ -80.205733705411745, 26.560921884666698 ], [ -80.205746705476287, 26.563098885212284 ], [ -80.205742705479906, 26.563269885255263 ], [ -80.205721705505766, 26.564416885543373 ], [ -80.205719705508173, 26.564523885570274 ], [ -80.205540705463065, 26.564783885639468 ], [ -80.205566705628428, 26.570433887055604 ], [ -80.205573705671853, 26.571913887426533 ], [ -80.205581705676693, 26.572003887448908 ], [ -80.20558570569888, 26.572756887637606 ], [ -80.205670706128245, 26.587226891263274 ], [ -80.205670706130178, 26.587295891280569 ], [ -80.20566670613357, 26.587457891321261 ], [ -80.205578706217764, 26.591387892308358 ], [ -80.205206706108569, 26.591375892313728 ], [ -80.200528704736115, 26.591231892383476 ], [ -80.197525703854978, 26.591138892428056 ], [ -80.195041703126094, 26.591059892464408 ], [ -80.189321701447696, 26.590880892548903 ], [ -80.186878700730929, 26.59080789258585 ], [ -80.183745699811666, 26.590713892633151 ], [ -80.18268369950006, 26.590681892649155 ], [ -80.176724697751638, 26.59050389273926 ], [ -80.173945696936229, 26.59042089278126 ], [ -80.17370169686464, 26.590413892785062 ], [ -80.173455696792473, 26.590406892788813 ], [ -80.173384696771635, 26.590404892789913 ], [ -80.173253696733212, 26.59040089279188 ], [ -80.173265696755479, 26.591070892959614 ], [ -80.173334696887053, 26.595051893956096 ], [ -80.173403697035383, 26.599630895102372 ], [ -80.173426697050189, 26.599918895174053 ], [ -80.173460697131517, 26.602469895812721 ], [ -80.173461697137029, 26.602656895859553 ], [ -80.1735306973261, 26.608685897369167 ], [ -80.173541697338052, 26.608996897446882 ], [ -80.173564697386766, 26.610494897821816 ], [ -80.173564697576154, 26.617251899515246 ], [ -80.173564697581099, 26.617428899559595 ], [ -80.17337269752484, 26.617425899563184 ], [ -80.172902697387144, 26.617417899571816 ], [ -80.172075697144791, 26.617404899587271 ], [ -80.171952697108736, 26.617402899589568 ], [ -80.171077696853089, 26.617417899613162 ], [ -80.170127696575619, 26.617434899638955 ], [ -80.165025695085276, 26.617523899776835 ], [ -80.161540694067227, 26.617584899871016 ], [ -80.157430692866541, 26.617655899981955 ], [ -80.15743369288495, 26.618281900138722 ], [ -80.157465692913576, 26.618966900309708 ], [ -80.157477692935927, 26.619640900478348 ], [ -80.157505692988622, 26.621225900874922 ], [ -80.157536693058802, 26.623405901420572 ], [ -80.157516693081192, 26.624412901673399 ], [ -80.157533693098642, 26.624856901784234 ], [ -80.157557693123096, 26.625478901939601 ], [ -80.157556693137181, 26.625990902067933 ], [ -80.157575693191845, 26.627740902506059 ], [ -80.157586693222228, 26.628709902748625 ], [ -80.157599693260735, 26.629944903057744 ], [ -80.157619693318395, 26.631790903519864 ], [ -80.157623693336319, 26.632387903669397 ], [ -80.157624693339855, 26.632503903698403 ], [ -80.155501692719241, 26.632525903752061 ], [ -80.15306469200668, 26.632547903812846 ], [ -80.152952691973965, 26.632549903815882 ], [ -80.152969692016697, 26.633894904152527 ], [ -80.152969692029387, 26.634346904265772 ], [ -80.154011692333967, 26.634334904239122 ], [ -80.154006692335415, 26.634438904265323 ], [ -80.15411369236682, 26.634441904263628 ], [ -80.154045692378048, 26.635549904542771 ], [ -80.153793692418617, 26.639619905568285 ], [ -80.153780692420924, 26.639837905623203 ], [ -80.155083692801838, 26.639823905590134 ], [ -80.155093692824096, 26.640510905762056 ], [ -80.15759669355576, 26.640483905698527 ], [ -80.157581693556551, 26.640668905745198 ], [ -80.157513693554378, 26.641298905904581 ], [ -80.157427693546822, 26.641926906063865 ], [ -80.157381693542689, 26.642258906148061 ], [ -80.157291693538411, 26.643042906346526 ], [ -80.157221693539967, 26.643827906544789 ], [ -80.157175693546151, 26.64452690672093 ], [ -80.157145693557069, 26.645226906896976 ], [ -80.157146693606592, 26.646978907335871 ], [ -80.157162693649568, 26.64834190767699 ], [ -80.157172693678262, 26.64925790790619 ], [ -80.153796692686228, 26.649111907946271 ], [ -80.153211692514461, 26.649091907954539 ], [ -80.153201692515992, 26.649250907994592 ], [ -80.153111692489546, 26.649247907995893 ], [ -80.153128692547355, 26.651125908465922 ], [ -80.153279692591497, 26.651123908462008 ], [ -80.153342692609911, 26.651122908460326 ], [ -80.153365692671784, 26.653083908951054 ], [ -80.1533886927336, 26.655041909440978 ], [ -80.153438692865933, 26.659226910488115 ], [ -80.153453692905074, 26.660460910796864 ], [ -80.153464692941697, 26.661648911094186 ], [ -80.153469692951006, 26.661927911163914 ], [ -80.153470692961733, 26.662298911256801 ], [ -80.153669693019921, 26.662296911251779 ], [ -80.154822693356991, 26.662284911222624 ], [ -80.157377694104028, 26.662260911158551 ], [ -80.157380694113044, 26.662550911231133 ], [ -80.157383694119588, 26.66275191128139 ], [ -80.15739769415778, 26.663962911584338 ], [ -80.157399694163487, 26.664144911629876 ], [ -80.154260693245746, 26.664173911708502 ], [ -80.154272693301479, 26.666029912173038 ], [ -80.152791692868419, 26.666042912209971 ], [ -80.152494692781588, 26.666045912217488 ], [ -80.151973692629255, 26.666049912230317 ], [ -80.15175469256522, 26.666051912235769 ], [ -80.151735692507415, 26.664196911771644 ], [ -80.151183692346052, 26.664201911785415 ], [ -80.151249692417565, 26.66605591224824 ], [ -80.149182691813181, 26.66607491229998 ], [ -80.148668691662891, 26.666079912312888 ], [ -80.148322691561759, 26.666082912321563 ], [ -80.148116691501528, 26.666084912326749 ], [ -80.148124691494885, 26.66576691224687 ], [ -80.148118691477009, 26.665193912103526 ], [ -80.148109691456895, 26.664573911948395 ], [ -80.148110691455017, 26.66449691192912 ], [ -80.148107691446654, 26.664230911862575 ], [ -80.147636691308918, 26.664234911874271 ], [ -80.147144691165067, 26.664239911886732 ], [ -80.145287690622268, 26.664261911934439 ], [ -80.145281690628849, 26.664557912008711 ], [ -80.145256690665235, 26.666109912397989 ], [ -80.145240690688425, 26.667100912646543 ], [ -80.145212690728286, 26.668806913074473 ], [ -80.14519169075713, 26.670049913386258 ], [ -80.145160690799699, 26.67188491384649 ], [ -80.145133690839131, 26.673563914267618 ], [ -80.145116690862736, 26.674579914522415 ], [ -80.145219690940763, 26.676277914945274 ], [ -80.145213690986282, 26.677954915365376 ], [ -80.145212690994981, 26.678273915445285 ], [ -80.145206690999856, 26.678510915504784 ], [ -80.145200691005897, 26.67878691557404 ], [ -80.145202691008961, 26.678874915596015 ], [ -80.14520769101162, 26.678917915606696 ], [ -80.145220691021905, 26.679146915663729 ], [ -80.14523869105777, 26.680231915934982 ], [ -80.145258691078268, 26.680750916064486 ], [ -80.145261691086858, 26.681024916133023 ], [ -80.145287691159652, 26.683337916711629 ], [ -80.14530769119105, 26.684242916937755 ], [ -80.145323691209242, 26.684721917057317 ], [ -80.145343691230181, 26.685258917191344 ], [ -80.145349691236973, 26.685435917235516 ], [ -80.145390691272439, 26.686267917442898 ], [ -80.14540169128226, 26.686502917501471 ], [ -80.145414691292672, 26.686735917559552 ], [ -80.145498691360103, 26.688255917938186 ], [ -80.145511691370629, 26.688493917997494 ], [ -80.145718691537255, 26.692252918933903 ], [ -80.145718691550712, 26.69272891905306 ], [ -80.14573569156299, 26.692987919117556 ], [ -80.145854691647486, 26.694748919555714 ], [ -80.145868691661889, 26.695112919646501 ], [ -80.145954691729429, 26.696613920020322 ], [ -80.146001691757803, 26.697131920148919 ], [ -80.146024691769867, 26.697320920195697 ], [ -80.14605169178374, 26.697532920248136 ], [ -80.146109691808647, 26.697814920317441 ], [ -80.146182691837893, 26.698092920385356 ], [ -80.146247691862754, 26.69829892043542 ], [ -80.146347691899663, 26.69857092050129 ], [ -80.146594691988852, 26.699168920645327 ], [ -80.14667269201702, 26.699358920691143 ], [ -80.146826692072679, 26.699733920781465 ], [ -80.146942692114962, 26.700028920852667 ], [ -80.147153692191765, 26.700560920981051 ], [ -80.147355692266117, 26.701099921111382 ], [ -80.147389692278622, 26.701191921133628 ], [ -80.147404692283857, 26.701220921140539 ], [ -80.147497692316335, 26.701407921185258 ], [ -80.147653692372231, 26.701770921272569 ], [ -80.141702690797771, 26.707687922889217 ], [ -80.141252690665567, 26.707670922895272 ], [ -80.141173690642333, 26.707667922896313 ], [ -80.141010690594413, 26.707659922897989 ], [ -80.140905690567322, 26.707789922932939 ], [ -80.140537690473224, 26.708269923061451 ], [ -80.140128690368712, 26.708807923205441 ], [ -80.139735690269163, 26.709356923351859 ], [ -80.139399690184874, 26.709853923483895 ], [ -80.13907869010518, 26.710357923617348 ], [ -80.13873069001977, 26.710938923770694 ], [ -80.138699690011904, 26.710982923782446 ], [ -80.138532689970717, 26.711253923854073 ], [ -80.138458689953055, 26.711394923891042 ], [ -80.137975689839308, 26.712372924146848 ], [ -80.137966689837285, 26.712393924152273 ], [ -80.137680689769851, 26.712969924302996 ], [ -80.137471689721465, 26.713421924420885 ], [ -80.137419689709517, 26.713536924450842 ], [ -80.137345689692822, 26.713713924496822 ], [ -80.137242689669861, 26.713966924562488 ], [ -80.1370566896274, 26.714391924673123 ], [ -80.136844689580556, 26.714928924812366 ], [ -80.136665689543122, 26.715457924948868 ], [ -80.1366316895365, 26.715574924978895 ], [ -80.13645868950114, 26.71611592511827 ], [ -80.136308689472344, 26.71665092525561 ], [ -80.136268689466334, 26.716852925307055 ], [ -80.13617268944931, 26.717243925407072 ], [ -80.136044689428104, 26.717818925553882 ], [ -80.135918689409792, 26.718473925720755 ], [ -80.13589968940812, 26.718612925755959 ], [ -80.135711689389623, 26.719903926083319 ], [ -80.135600689415, 26.72194992659789 ], [ -80.13559468941834, 26.722130926643327 ], [ -80.135585689420267, 26.722291926683823 ], [ -80.135542689430622, 26.723102926887748 ], [ -80.135525689431503, 26.723309926939926 ], [ -80.135439689470786, 26.72558592751145 ], [ -80.135421689475123, 26.72592592759699 ], [ -80.135156689578196, 26.732307929199994 ], [ -80.135133689580272, 26.732618929278349 ], [ -80.134949689636599, 26.736508930255884 ], [ -80.134937689640708, 26.736778930323705 ], [ -80.13473068970869, 26.741316931463775 ], [ -80.134719689715979, 26.741685931556386 ], [ -80.134558689768383, 26.745199932439171 ], [ -80.134546689777181, 26.745632932547775 ], [ -80.134316689851971, 26.750644933806775 ], [ -80.134304689854758, 26.750867933862846 ], [ -80.134268689868961, 26.751738934081551 ], [ -80.134210689892058, 26.753152934436606 ], [ -80.13403968996036, 26.757324935484036 ], [ -80.133969689972858, 26.758485935776058 ], [ -80.133924689979835, 26.759196935954883 ], [ -80.133901689982437, 26.759525936037733 ], [ -80.133878689988833, 26.759987936153767 ], [ -80.133335689836329, 26.760214936222958 ], [ -80.133321689841708, 26.760549936307079 ], [ -80.133367689866461, 26.760944936404847 ], [ -80.133267689862706, 26.76184493663224 ], [ -80.133197689926277, 26.764804937374109 ], [ -80.133096689930056, 26.765978937670077 ], [ -80.132432689735083, 26.765957937680007 ], [ -80.132431689736947, 26.766033937699021 ], [ -80.128648688625987, 26.765905937753566 ], [ -80.127191688198479, 26.765869937777925 ], [ -80.124410687381996, 26.765783937820039 ], [ -80.123048686982088, 26.765741937840687 ], [ -80.120934686361394, 26.765676937872794 ], [ -80.116332685010278, 26.765535937942847 ], [ -80.116252685044685, 26.767572938454116 ], [ -80.116157685079372, 26.769773939006793 ], [ -80.116027685126312, 26.772764939757831 ], [ -80.115796685211393, 26.778138941107063 ], [ -80.115791685213239, 26.778254941136186 ], [ -80.114624684870762, 26.778225941155601 ], [ -80.112945684377877, 26.778178941182322 ], [ -80.111038683818052, 26.778121941211765 ], [ -80.109507683368648, 26.778079941236307 ], [ -80.107573682800691, 26.778017941265066 ], [ -80.107530682822215, 26.779218941566448 ], [ -80.107518682821507, 26.779317941591444 ], [ -80.107491682826776, 26.779780941707887 ], [ -80.107318682772757, 26.77966094168179 ], [ -80.107320682778294, 26.779834941725262 ], [ -80.10724668279417, 26.781156942057578 ], [ -80.107234682802712, 26.781580942163846 ], [ -80.107199682803667, 26.781975942263458 ], [ -80.10716568281272, 26.782642942431039 ], [ -80.107130682825115, 26.783438942630884 ], [ -80.106491682637582, 26.783421942641247 ], [ -80.106210682554391, 26.783391942640215 ], [ -80.105657682392192, 26.783379942649848 ], [ -80.105785682340965, 26.780260941866956 ], [ -80.105780682323882, 26.77971094172948 ], [ -80.105829682323957, 26.779208941602842 ], [ -80.105831682322673, 26.77914194158604 ], [ -80.105848682318936, 26.778835941509158 ], [ -80.105532682220229, 26.778617941461874 ], [ -80.104891682020721, 26.778200941372223 ], [ -80.104476681891043, 26.777913941309997 ], [ -80.104011681746016, 26.777599941242105 ], [ -80.103375681547448, 26.777165941148077 ], [ -80.102919681405425, 26.776865941083521 ], [ -80.102309681214962, 26.776447940992902 ], [ -80.101825681063829, 26.776113940920499 ], [ -80.101025680813677, 26.775554940799008 ], [ -80.099933680471977, 26.774779940630122 ], [ -80.099481680330499, 26.774458940560216 ], [ -80.099476680332089, 26.774566940587349 ], [ -80.099289680390143, 26.778534941584034 ], [ -80.099277680388411, 26.778598941600304 ], [ -80.099249680380083, 26.778593941599723 ], [ -80.098977680299569, 26.778562941598139 ], [ -80.099015680314778, 26.778705941633106 ], [ -80.099173680377731, 26.779292941776273 ], [ -80.099238680408163, 26.779693941875085 ], [ -80.099285680434875, 26.780149941988039 ], [ -80.09932268046289, 26.78075594213875 ], [ -80.09926768048625, 26.782142942486846 ], [ -80.099232680505324, 26.783174942745738 ], [ -80.099226680510554, 26.783420942807396 ], [ -80.098964680433497, 26.783408942810428 ], [ -80.09892668045768, 26.784649943121636 ], [ -80.098920680471068, 26.785180943254545 ], [ -80.098920680472048, 26.78521594326331 ], [ -80.098901680483877, 26.785827943416766 ], [ -80.098894680491938, 26.786184943506203 ], [ -80.098894680501758, 26.786529943592477 ], [ -80.098894680508351, 26.786761943650529 ], [ -80.098893680509178, 26.786800943660261 ], [ -80.098867680528414, 26.787744943896914 ], [ -80.098744680574995, 26.790647944625643 ], [ -80.098671680613421, 26.792749945152945 ], [ -80.098623680640088, 26.794180945511851 ], [ -80.097983680450596, 26.794105945507763 ], [ -80.097505680310491, 26.794099945517228 ], [ -80.096366679976626, 26.794086945540052 ], [ -80.096057679886144, 26.794086945547164 ], [ -80.093089679013559, 26.793958945583146 ], [ -80.091754678620006, 26.793865945590511 ], [ -80.091632678583068, 26.793821945582284 ], [ -80.091399678514492, 26.793810945584912 ], [ -80.091163678445071, 26.793797945587038 ], [ -80.090991678394531, 26.79379294558974 ], [ -80.090797678337452, 26.793781945591427 ], [ -80.09065067829421, 26.793775945593286 ], [ -80.087363677325897, 26.793568945616883 ], [ -80.085602676807198, 26.793459945629973 ], [ -80.08262267593247, 26.793382945679021 ], [ -80.082468675887284, 26.793378945681511 ], [ -80.080418675286467, 26.7933599457238 ], [ -80.078378674687499, 26.793302945756245 ], [ -80.076374674099057, 26.79324494578767 ], [ -80.075343673796425, 26.793219945805024 ], [ -80.074284673485622, 26.793194945823043 ], [ -80.074160673449484, 26.793199945827183 ], [ -80.073470673246689, 26.793173945836433 ], [ -80.073103673138817, 26.793159945841364 ], [ -80.071373672630756, 26.793107945867963 ], [ -80.071062672539028, 26.793084945869349 ], [ -80.070903672492136, 26.793073945870258 ], [ -80.070398672344083, 26.79306594587986 ], [ -80.069236672002788, 26.793030945897698 ], [ -80.069288671983102, 26.791803945589674 ], [ -80.068310671695997, 26.791777945605538 ], [ -80.068264671716932, 26.792986945908961 ], [ -80.067283671428925, 26.792961945925196 ], [ -80.066764671276545, 26.792947945933562 ], [ -80.064844670712773, 26.792892945963803 ], [ -80.06272067008895, 26.792828945996462 ], [ -80.062645670066914, 26.7928269459977 ], [ -80.06069866949511, 26.792768946027763 ], [ -80.058676668901242, 26.792708946059115 ], [ -80.056155668160827, 26.792632946097807 ], [ -80.05484666777636, 26.792592946117839 ], [ -80.054219667592207, 26.792574946127694 ], [ -80.05386466748844, 26.792581946137567 ], [ -80.053524667388956, 26.792584946146089 ], [ -80.052976667228265, 26.792576946156668 ], [ -80.051965666931252, 26.792544946171784 ], [ -80.047402665593353, 26.792490946262813 ], [ -80.047252665549436, 26.792488946265784 ], [ -80.047244665543744, 26.792372946236942 ], [ -80.04720466551295, 26.791700946069774 ], [ -80.046678665114101, 26.78308994392782 ], [ -80.045651664814017, 26.783113943957339 ], [ -80.044599664506549, 26.783135943986931 ], [ -80.044572664494666, 26.782994943952239 ], [ -80.044528664454262, 26.782026943711077 ], [ -80.044464664399356, 26.780755943394588 ], [ -80.049265665603428, 26.773644941505669 ], [ -80.049723665667671, 26.771183940879457 ], [ -80.04987866568942, 26.770349940667234 ], [ -80.049387665514701, 26.769260940405953 ], [ -80.048991665398475, 26.769251940412776 ], [ -80.048752665328308, 26.76924594041677 ], [ -80.047707665031155, 26.769558940518973 ], [ -80.047080664852913, 26.769747940580569 ], [ -80.046860664790344, 26.769813940602127 ], [ -80.040551663003114, 26.771943941279357 ], [ -80.039073662580691, 26.77231294140552 ], [ -80.038741662486004, 26.772400941435155 ], [ -80.036781661925744, 26.772886941601548 ], [ -80.036110661733531, 26.773038941654931 ], [ -80.035851661659891, 26.773117941680663 ], [ -80.032324660624639, 26.773037941741286 ], [ -80.032145660572212, 26.773037941745383 ], [ -80.031587660408405, 26.773024941754887 ], [ -80.027911659329448, 26.772943941818699 ], [ -80.02240965771783, 26.772942941944265 ], [ -79.999763651084081, 26.772938942461128 ], [ -79.975011643832445, 26.772936943026494 ], [ -79.97555964376771, 26.764993941025548 ], [ -79.977131643981906, 26.756299938813015 ], [ -79.979652644551862, 26.750345937264651 ], [ -79.979442644389366, 26.746778936376248 ], [ -79.979026644082168, 26.740231934746205 ], [ -79.978679643769595, 26.732772932886011 ], [ -79.979155643737769, 26.726713931357512 ], [ -79.978643643508875, 26.723921930669739 ], [ -79.978373643373317, 26.721922930175172 ], [ -79.977584642977234, 26.716082928730067 ], [ -79.976953642718087, 26.713450928084985 ], [ -79.974736641921425, 26.708235926828824 ], [ -79.974735641901518, 26.707539926654434 ], [ -79.974730641760814, 26.702602925417448 ], [ -79.974897641666075, 26.697507924136811 ], [ -79.975723641755536, 26.692093922761199 ], [ -79.976542641865606, 26.68748392158712 ], [ -79.978375642274486, 26.682933920405009 ], [ -79.979738642520005, 26.67746891900412 ], [ -79.979906642521115, 26.675759918571895 ], [ -79.980265642523534, 26.672106917647966 ], [ -79.98088164246586, 26.663634915509931 ], [ -79.981305642214934, 26.650277912150944 ], [ -79.981274642124092, 26.647365911421325 ], [ -79.981178641842092, 26.638314909153387 ], [ -79.981299641514198, 26.625349905898311 ], [ -79.981076641253679, 26.618378904154405 ], [ -79.98098964114574, 26.615430903416666 ], [ -79.98067864075864, 26.604848900768232 ], [ -79.980650640487781, 26.595451898410392 ], [ -79.9807246404865, 26.594628898202181 ], [ -79.981342640474622, 26.587720896454215 ], [ -79.98138864047408, 26.587218896327194 ], [ -79.981683640471573, 26.584032895520707 ], [ -79.982092640468153, 26.579614894402358 ], [ -79.982478640292271, 26.569251891791776 ], [ -79.98412164054173, 26.560930889665229 ], [ -79.985112640633218, 26.553790887849793 ], [ -79.985877640776621, 26.550891887104463 ], [ -79.98551564062879, 26.549388886735084 ], [ -79.985277640436337, 26.544977885632552 ], [ -79.985263640424947, 26.544716885567283 ], [ -79.986312640518818, 26.537039883615211 ], [ -79.988545640901449, 26.527268881110235 ], [ -79.991271641582216, 26.523030879984205 ], [ -79.9929426417104, 26.510009876674658 ], [ -79.993131641724915, 26.508534876299755 ], [ -79.993607641763475, 26.504897875374986 ], [ -79.993863641784486, 26.502950874879939 ], [ -79.99420264181181, 26.500353874219602 ], [ -79.995569642093557, 26.496069873112141 ], [ -79.996520642285844, 26.492955872308073 ], [ -79.996696642213934, 26.488495871183005 ], [ -79.996932642150753, 26.483712869975243 ], [ -79.998000642291231, 26.477482868385064 ], [ -79.998367642362254, 26.476164868045434 ], [ -79.999764642632698, 26.471146866752417 ], [ -80.002532642984661, 26.45453586251319 ], [ -80.053865658007936, 26.454255861294946 ], [ -80.0532156580242, 26.461734863189786 ], [ -80.05140065787343, 26.475506866692371 ], [ -80.054810658872725, 26.475540866624492 ], [ -80.055235658997262, 26.475544866616058 ], [ -80.055216658995732, 26.475690866653149 ], [ -80.055196658993708, 26.475829866688532 ], [ -80.055864659189169, 26.475824866672291 ], [ -80.056281659311196, 26.475821866662216 ], [ -80.056638659415668, 26.475819866653723 ], [ -80.056652659419726, 26.475819866653406 ], [ -80.056768659453795, 26.475823866651805 ], [ -80.056767659449577, 26.475681866616142 ], [ -80.058752660030365, 26.475669866568655 ], [ -80.058751660023745, 26.475440866511121 ], [ -80.059222660161652, 26.475440866500563 ], [ -80.059221660159608, 26.475377866484742 ], [ -80.059221660158912, 26.475352866478474 ], [ -80.06069166059028, 26.475387866454362 ], [ -80.060815660626602, 26.475388866451848 ], [ -80.060872660643298, 26.475388866450551 ], [ -80.061120660715957, 26.475390866445508 ], [ -80.061169660730343, 26.475391866444646 ], [ -80.061214660743502, 26.47539186644363 ], [ -80.061305660770202, 26.475393866442097 ], [ -80.061900660944559, 26.475400866430508 ], [ -80.06216666098608, 26.474085866094075 ], [ -80.062263661014413, 26.474084866091651 ], [ -80.062347661039027, 26.474084866089758 ], [ -80.062770661162801, 26.474081866079555 ], [ -80.063248661302595, 26.474077866067798 ], [ -80.06327366134272, 26.475263866365324 ], [ -80.063280661350021, 26.475452866412663 ], [ -80.063133661319185, 26.475894866527064 ], [ -80.062975661286174, 26.476372866650721 ], [ -80.062820661253667, 26.476838866771324 ], [ -80.062742661245352, 26.477362866904752 ], [ -80.064357661717949, 26.477356866867083 ], [ -80.065365662012965, 26.477352866843493 ], [ -80.066837662443746, 26.477346866809018 ], [ -80.06696366246895, 26.476925866700373 ], [ -80.067026662481553, 26.476713866645706 ], [ -80.067084662497635, 26.476680866636084 ], [ -80.067213662527138, 26.476383866558564 ], [ -80.067333662555313, 26.476131866492558 ], [ -80.067698662641675, 26.475389866297888 ], [ -80.067780662660368, 26.475199866248271 ], [ -80.067876662681385, 26.474941866181286 ], [ -80.067975662701258, 26.474613866096632 ], [ -80.068007662709036, 26.474554866081107 ], [ -80.068028662712194, 26.474447866053751 ], [ -80.068036662711791, 26.474347866028406 ], [ -80.068089662718833, 26.474042865950576 ], [ -80.068188662747644, 26.474034865946372 ], [ -80.068316662785065, 26.474033865943213 ], [ -80.069095662880059, 26.469221864716378 ], [ -80.069424662918451, 26.467127864182682 ], [ -80.069713662953149, 26.465320863721963 ], [ -80.069852662993824, 26.465321863719158 ], [ -80.070149663029724, 26.463472863247688 ], [ -80.070281663018079, 26.461651862787054 ], [ -80.07059966306069, 26.459824862320609 ], [ -80.070875663091229, 26.458005861857213 ], [ -80.071258663139687, 26.455700861269186 ], [ -80.071469663163981, 26.454344860923555 ], [ -80.071610663179342, 26.453403860683839 ], [ -80.071745663197191, 26.452618860483451 ], [ -80.071765663200452, 26.45252686045988 ], [ -80.071981663225628, 26.451147860108385 ], [ -80.072189663250128, 26.449829859772318 ], [ -80.072408663277855, 26.448510859435842 ], [ -80.072645663306957, 26.44704985906322 ], [ -80.072940663341498, 26.445172858584709 ], [ -80.073113663360104, 26.444011858288906 ], [ -80.073320663389666, 26.442887858001647 ], [ -80.07354266341035, 26.441280857592648 ], [ -80.073676663427122, 26.440466857384983 ], [ -80.073787663439617, 26.439741857200136 ], [ -80.077120664414736, 26.439721857120645 ], [ -80.079180665017404, 26.439708857071373 ], [ -80.081151665593993, 26.439696857024266 ], [ -80.082645666031098, 26.439687856988645 ], [ -80.083237666203843, 26.439668856970631 ], [ -80.085971667001587, 26.43957785688665 ], [ -80.087176667353589, 26.439551856853189 ], [ -80.087307667391883, 26.439549856849773 ], [ -80.087502667448831, 26.439545856844401 ], [ -80.088228667660957, 26.439530856824405 ], [ -80.088893667855388, 26.439523856807799 ], [ -80.089044667899586, 26.439522856804157 ], [ -80.089133667925523, 26.439519856801372 ], [ -80.089999668178251, 26.43949285677526 ], [ -80.090724668390294, 26.439485856757294 ], [ -80.090871668433095, 26.439478856752267 ], [ -80.091462668605345, 26.439452856732533 ], [ -80.092408668882413, 26.439458856712889 ], [ -80.093527669208513, 26.439406856674783 ], [ -80.094043669360232, 26.439431856669579 ], [ -80.094563669514443, 26.43950485667629 ], [ -80.095239669714061, 26.439568856677269 ], [ -80.096628670120694, 26.439570856646732 ], [ -80.097283670312336, 26.439568856631595 ], [ -80.097426670354167, 26.439568856628391 ], [ -80.097622670411525, 26.439567856623768 ], [ -80.097727670442282, 26.439567856621427 ], [ -80.101533671555885, 26.439555856533328 ], [ -80.103884672243083, 26.439524856472982 ], [ -80.105689672770822, 26.439505856427857 ], [ -80.105711672813086, 26.440803856753714 ], [ -80.105731672845081, 26.441751856991576 ], [ -80.105752672880669, 26.442818857259311 ], [ -80.105767672904364, 26.443517857434692 ], [ -80.105792672952319, 26.444991857804691 ], [ -80.105799672981831, 26.445986858054663 ], [ -80.105797672982234, 26.446022858063724 ], [ -80.105843673012785, 26.446641858218314 ], [ -80.106002673059677, 26.446654858217986 ], [ -80.110020674235912, 26.446664858130685 ], [ -80.113862675356444, 26.446525858009824 ], [ -80.122258677813036, 26.446506857817262 ], [ -80.12245967787176, 26.446502857811762 ], [ -80.122443677850129, 26.445889857658006 ], [ -80.122426677811674, 26.444675857353293 ], [ -80.122354677740887, 26.44287585690245 ], [ -80.12232767763291, 26.439247855991049 ], [ -80.122309677622482, 26.43906185594469 ], [ -80.122265677563135, 26.437375855521868 ], [ -80.122265677555788, 26.437109855454981 ], [ -80.122263677552255, 26.437002855428169 ], [ -80.122251677528979, 26.436284855247933 ], [ -80.122256677512922, 26.435649855088201 ], [ -80.122256677507551, 26.435454855039175 ], [ -80.122256677497646, 26.43509585494893 ], [ -80.122198677433659, 26.433391854521822 ], [ -80.122198677421721, 26.432958854412977 ], [ -80.122193677399494, 26.432204854223553 ], [ -80.122153677358213, 26.431132853954921 ], [ -80.122158677349375, 26.430756853860256 ], [ -80.122176677343305, 26.430347853757038 ], [ -80.122153677316675, 26.429625853576049 ], [ -80.12210067727429, 26.428649853331866 ], [ -80.122104677258761, 26.42804385317941 ], [ -80.122063677196167, 26.426207852718694 ], [ -80.122082677190363, 26.425795852614701 ], [ -80.122056677142922, 26.424348852251473 ], [ -80.122858677375262, 26.424262852211925 ], [ -80.12681967853419, 26.424256852121978 ], [ -80.129207679233005, 26.424256852068634 ], [ -80.129868679426409, 26.42425685205389 ], [ -80.130607679642253, 26.424241852033603 ], [ -80.131337679855406, 26.424225852013247 ], [ -80.133815680579119, 26.424174851945107 ], [ -80.134146680675968, 26.424174851937718 ], [ -80.134337680934621, 26.43153085378276 ], [ -80.135169681178169, 26.431533853764908 ], [ -80.135449681260056, 26.431532853758416 ], [ -80.13652168157374, 26.431531853734203 ], [ -80.138371682115221, 26.431537853694355 ], [ -80.141405683003299, 26.431548853629298 ], [ -80.143568683636417, 26.431556853583007 ], [ -80.146543684506554, 26.431544853513486 ], [ -80.146544684513771, 26.431795853576549 ], [ -80.146545684522252, 26.432092853651234 ], [ -80.146546684527848, 26.432285853699678 ], [ -80.146550684558804, 26.433365853971065 ], [ -80.146552684572157, 26.43382985408768 ], [ -80.146554684585524, 26.434292854203971 ], [ -80.14656568467008, 26.437240854944712 ], [ -80.146572684720283, 26.438986855383423 ], [ -80.146573684724288, 26.439121855417337 ], [ -80.147673685045987, 26.439115855391247 ], [ -80.148473685281104, 26.439154855383119 ], [ -80.149243685507443, 26.439190855374978 ], [ -80.150136685768601, 26.439186855354009 ], [ -80.151547686181317, 26.439181855321152 ], [ -80.154007686900798, 26.439172855263905 ], [ -80.15442568702268, 26.439155855250263 ], [ -80.154991687188385, 26.439160855238924 ], [ -80.155450687321647, 26.43912385521935 ], [ -80.1560046874839, 26.439128855208189 ], [ -80.156045687495919, 26.439129855207518 ], [ -80.15886968832443, 26.439212855165238 ], [ -80.159111688395058, 26.4392058551581 ], [ -80.15935168846471, 26.439184855147445 ], [ -80.15959068853364, 26.439149855133298 ], [ -80.15982668860137, 26.439100855115715 ], [ -80.160065688669491, 26.439036855094251 ], [ -80.160132688688478, 26.439014855087244 ], [ -80.160264688725889, 26.43897085507324 ], [ -80.160485688788143, 26.438882855046153 ], [ -80.160700688848308, 26.438782855016239 ], [ -80.160907688905738, 26.43866985498321 ], [ -80.161105688960262, 26.438545854947595 ], [ -80.16129568901205, 26.438409854909171 ], [ -80.161473689060131, 26.438263854868531 ], [ -80.162486689330677, 26.437326854610369 ], [ -80.162662689378152, 26.437181854570028 ], [ -80.162849689429109, 26.437046854531911 ], [ -80.16304568948307, 26.436922854496334 ], [ -80.16325068953995, 26.436811854463858 ], [ -80.163355689569215, 26.43675985444845 ], [ -80.163490689606689, 26.436685854426848 ], [ -80.163676689659553, 26.43662885440834 ], [ -80.163762689684063, 26.436604854400411 ], [ -80.163950689737604, 26.436552854383145 ], [ -80.16428468983456, 26.436524854368592 ], [ -80.164472689888797, 26.436497854357608 ], [ -80.164780689977761, 26.436455854340167 ], [ -80.165132690080711, 26.43645585433228 ], [ -80.16546769017917, 26.436471854328843 ], [ -80.165803690278949, 26.436524854334611 ], [ -80.166261690416576, 26.436654854357073 ], [ -80.1666736905417, 26.436822854390101 ], [ -80.16716969069418, 26.437089854446128 ], [ -80.167841690902577, 26.437516854538412 ], [ -80.168436691086114, 26.437860854611539 ], [ -80.168635691146818, 26.437950854629708 ], [ -80.168749691182157, 26.438022854645244 ], [ -80.171369691974391, 26.438956854821324 ], [ -80.171299691958495, 26.439121854864418 ], [ -80.171300691960539, 26.439185854880471 ], [ -80.171305691966822, 26.439357854923543 ], [ -80.171308691979135, 26.439773855028047 ], [ -80.171329692065626, 26.442684855759047 ], [ -80.171469692202436, 26.446156856628345 ], [ -80.171484692220716, 26.446658856754194 ], [ -80.171493692239736, 26.44725285690323 ], [ -80.171515692267505, 26.448025857096944 ], [ -80.17152369227712, 26.448289857163097 ], [ -80.171570692333532, 26.449834857550275 ], [ -80.171589692365728, 26.450798857791995 ], [ -80.171618692391561, 26.451426857949141 ], [ -80.171667692459977, 26.453382858439493 ], [ -80.171669692462572, 26.453455858457783 ], [ -80.171629692456349, 26.453654858508681 ], [ -80.171690692474243, 26.453654858507321 ], [ -80.172720692775499, 26.453654858484242 ], [ -80.174093693177241, 26.453656858454011 ], [ -80.174401693267328, 26.453655858446869 ], [ -80.17453669330682, 26.453655858443852 ], [ -80.174647693339296, 26.453655858441358 ], [ -80.175469693579799, 26.453655858422952 ], [ -80.17626769381323, 26.453655858405089 ], [ -80.176426693859753, 26.453655858401525 ], [ -80.179280694694711, 26.453656858337869 ], [ -80.179935694886311, 26.4536568583232 ], [ -80.184771696301055, 26.453657858215191 ], [ -80.185108696399652, 26.453657858207634 ], [ -80.187376697063087, 26.453658858157105 ], [ -80.188112697278413, 26.453658858140617 ], [ -80.195464699428726, 26.453647857973252 ], [ -80.196223699650716, 26.45364785795628 ], [ -80.201482701188809, 26.453639857836507 ], [ -80.202845701592736, 26.453830857853941 ], [ -80.204067701950294, 26.453833857827313 ], [ -80.204545702090115, 26.453834857816872 ], [ -80.204535702218607, 26.458587859010919 ], [ -80.204562702267651, 26.460075859384105 ], [ -80.204562702273194, 26.460276859434529 ], [ -80.20453570229607, 26.461388859714464 ], [ -80.20475070286804, 26.479780864328255 ], [ -80.204581702914908, 26.483254865204305 ], [ -80.204583702920701, 26.483442865251433 ], [ -80.204582702929216, 26.483760865331352 ], [ -80.204788703332042, 26.496115868428358 ], [ -80.204956703445163, 26.498421869003462 ], [ -80.205006703546701, 26.501552869788231 ], [ -80.204995703598968, 26.503550870289931 ], [ -80.205033703658586, 26.505297870727588 ], [ -80.205120703888483, 26.512657872572774 ] ] ] ] } }
]
}
