{
"type": "FeatureCollection",
"name": "DISTRICT_24",
"crs": { "type": "name", "properties": { "name": "urn:ogc:def:crs:OGC:1.3:CRS84" } },
"xy_coordinate_resolution": 1e-15,
"features": [
{ "type": "Feature", "properties": { "LONGNAME": "District 24", "SHORTNAME": "D24", "DISTRICT": 24, "COLOR": 40529280, "TOTAL": 769221, "TARGET_DEV": 0 }, "geometry": { "type": "MultiPolygon", "coordinates": [ [ [ [ -80.292004712688396, 25.898620715880881 ], [ -80.292019712698661, 25.898845715937522 ], [ -80.292042712714078, 25.89917671602085 ], [ -80.292042712718697, 25.899351716065091 ], [ -80.292067712742053, 25.899963716219553 ], [ -80.292173712838448, 25.902449716846601 ], [ -80.29237271298436, 25.905785717686864 ], [ -80.292516713133836, 25.909868718717362 ], [ -80.292536713153709, 25.910400718851559 ], [ -80.292637713255786, 25.91315671954704 ], [ -80.292645713262687, 25.913330719590871 ], [ -80.292647713264259, 25.913368719600474 ], [ -80.292653713269132, 25.913487719630446 ], [ -80.292820713409611, 25.916967720507699 ], [ -80.292850713434547, 25.917582720662711 ], [ -80.292850713439947, 25.917787720714575 ], [ -80.292928713507365, 25.919480721141383 ], [ -80.292942713518769, 25.919759721211733 ], [ -80.29302071357921, 25.921187721571449 ], [ -80.293009713584809, 25.921522721656462 ], [ -80.293066713647121, 25.923254722093588 ], [ -80.293125713701983, 25.924683722453999 ], [ -80.293176713726012, 25.925028722540194 ], [ -80.289379712619734, 25.925154722653868 ], [ -80.284728711263938, 25.925284722787026 ], [ -80.2813297102729, 25.925371722882304 ], [ -80.279860709840406, 25.925250722883352 ], [ -80.278872709549617, 25.925172722884859 ], [ -80.276730708922557, 25.925131722920639 ], [ -80.276723708925303, 25.925313722966891 ], [ -80.276716708928916, 25.925527723021183 ], [ -80.276778708975954, 25.926626723298014 ], [ -80.276801708999329, 25.927258723457481 ], [ -80.276839709032657, 25.928100723669747 ], [ -80.276981709150832, 25.93100972440293 ], [ -80.277166709299493, 25.934594725306194 ], [ -80.277181709307499, 25.934733725341033 ], [ -80.277185709309535, 25.934766725349277 ], [ -80.277188709313222, 25.934874725376549 ], [ -80.277192709317589, 25.934993725406589 ], [ -80.277217709333982, 25.93533772549311 ], [ -80.277295709385854, 25.936440725770577 ], [ -80.277290709402536, 25.937128725944731 ], [ -80.277326709432415, 25.93786172612948 ], [ -80.277354709449909, 25.938214726218202 ], [ -80.2773627094613, 25.938558726305093 ], [ -80.277408709489322, 25.939110726443761 ], [ -80.277449709516659, 25.939692726590142 ], [ -80.27748370954464, 25.940375726762287 ], [ -80.277520709571306, 25.940977726913761 ], [ -80.277530709578457, 25.941136726953776 ], [ -80.277532709580413, 25.941188726966921 ], [ -80.277548709595905, 25.941599727070553 ], [ -80.277587709616697, 25.941955727159819 ], [ -80.277588709626286, 25.942307727248842 ], [ -80.277611709646919, 25.942834727381722 ], [ -80.277624709658625, 25.943132727456817 ], [ -80.277648709680747, 25.943705727601255 ], [ -80.277674709703646, 25.944285727747474 ], [ -80.27767870970716, 25.944374727769898 ], [ -80.277704709728013, 25.944877727896603 ], [ -80.277736709753285, 25.945478728048009 ], [ -80.277756709773357, 25.946017728183925 ], [ -80.277769709792437, 25.946596728330167 ], [ -80.277794709809484, 25.946966728423231 ], [ -80.277829709838613, 25.947680728603135 ], [ -80.277859709865552, 25.948370728777103 ], [ -80.277876709881838, 25.948797728884767 ], [ -80.277993709944752, 25.949885729157469 ], [ -80.278050709979723, 25.950577729331357 ], [ -80.278065709990955, 25.950837729396774 ], [ -80.278093710010879, 25.951281729508526 ], [ -80.278113710025991, 25.951631729596624 ], [ -80.278096710028606, 25.951919729669861 ], [ -80.278125710055221, 25.952607729843312 ], [ -80.278208710114441, 25.953929730175997 ], [ -80.278211710121838, 25.954176730238409 ], [ -80.27821971012834, 25.954334730278205 ], [ -80.278322710215136, 25.956479730818614 ], [ -80.278314710246732, 25.957762731143372 ], [ -80.278333710270402, 25.958449731316719 ], [ -80.278434710366113, 25.960951731947432 ], [ -80.278398710361571, 25.961179732005952 ], [ -80.278424710374864, 25.961394732059738 ], [ -80.278449710403137, 25.962185732259258 ], [ -80.278258710388243, 25.963734732655229 ], [ -80.278263710401973, 25.96419873277252 ], [ -80.2782687104134, 25.964576732867979 ], [ -80.278272710421774, 25.964847732936441 ], [ -80.278397710545676, 25.968150733769232 ], [ -80.278438710628805, 25.970838734448247 ], [ -80.27876671072822, 25.970972734475048 ], [ -80.278766710729798, 25.971031734489937 ], [ -80.278766710734544, 25.971211734535459 ], [ -80.278767710736432, 25.971271734550644 ], [ -80.278771710738695, 25.971313734561178 ], [ -80.27877271074091, 25.97138573457935 ], [ -80.278787710748887, 25.971521734613425 ], [ -80.278698710722935, 25.97152373461585 ], [ -80.27846771065559, 25.971531734622854 ], [ -80.278472710664062, 25.971794734689286 ], [ -80.27847471066535, 25.971821734696046 ], [ -80.278482710670986, 25.971946734727531 ], [ -80.278532710695004, 25.972302734816505 ], [ -80.278584710727486, 25.97295573498052 ], [ -80.278630710771012, 25.974089735266293 ], [ -80.278630710773399, 25.974180735289309 ], [ -80.278652710801808, 25.975010735498756 ], [ -80.278713710862661, 25.976637735908902 ], [ -80.278576710822833, 25.976644735913624 ], [ -80.2785807108271, 25.976762735943417 ], [ -80.278719710867691, 25.976761735940155 ], [ -80.278727710874435, 25.976926735981696 ], [ -80.278767710912518, 25.97792373623296 ], [ -80.278810710959306, 25.97921473655855 ], [ -80.278849711005904, 25.980545736894285 ], [ -80.27910471108035, 25.980540736887459 ], [ -80.279110711085849, 25.980682736923285 ], [ -80.279058711070689, 25.980683736924664 ], [ -80.278905711026084, 25.980687736928967 ], [ -80.278854711011178, 25.980689736930589 ], [ -80.278721710972448, 25.980692736934216 ], [ -80.278758711016877, 25.981963737254855 ], [ -80.278818711073413, 25.983434737625505 ], [ -80.278856711109839, 25.98438973786617 ], [ -80.278867711120654, 25.984677737938767 ], [ -80.278902711152071, 25.985476738140061 ], [ -80.278924711168031, 25.985835738230399 ], [ -80.278938711188616, 25.986459738387822 ], [ -80.278937711211086, 25.987317738604794 ], [ -80.27894271121572, 25.987438738635323 ], [ -80.278970711243829, 25.988187738824092 ], [ -80.279017711291132, 25.989454739143419 ], [ -80.279034711311724, 25.990045739292519 ], [ -80.279057711340116, 25.990860739498089 ], [ -80.279103711389823, 25.992228739843 ], [ -80.279143711433491, 25.99343574014727 ], [ -80.279154711442047, 25.993636740197847 ], [ -80.279163711448504, 25.993781740234358 ], [ -80.279196711485298, 25.994803740492017 ], [ -80.279234711519408, 25.99567274071093 ], [ -80.279235711522944, 25.995794740741715 ], [ -80.279268711557222, 25.996722740975621 ], [ -80.279278711567372, 25.996995741044419 ], [ -80.279316711615635, 25.998395741397577 ], [ -80.279325711623883, 25.998608741451228 ], [ -80.279387711683142, 26.000157741841502 ], [ -80.279408711711412, 26.000992742052112 ], [ -80.2794207117269, 26.001441742165358 ], [ -80.279441711763539, 26.002591742455635 ], [ -80.279477711789937, 26.003190742606318 ], [ -80.279524711835222, 26.004379742905819 ], [ -80.279568711876109, 26.00543474317157 ], [ -80.279655711956693, 26.007511743694689 ], [ -80.279662711973828, 26.008080743838399 ], [ -80.279664711981198, 26.008336743903072 ], [ -80.279676712011621, 26.009349744158865 ], [ -80.279706712036642, 26.009961744312907 ], [ -80.279785712101969, 26.011550744712853 ], [ -80.27981171213294, 26.012430744934708 ], [ -80.27984771217605, 26.013656745243797 ], [ -80.279865712205833, 26.014581745477205 ], [ -80.279875712216977, 26.014889745554843 ], [ -80.279897712235424, 26.015341745668614 ], [ -80.279276712056003, 26.01542074570208 ], [ -80.278721711894946, 26.015462745724751 ], [ -80.277801711626722, 26.015487745751031 ], [ -80.277337711491882, 26.015517745768644 ], [ -80.277082711417847, 26.015534745778496 ], [ -80.27636371120893, 26.015581745805957 ], [ -80.275946711087585, 26.015602745820352 ], [ -80.275923711080907, 26.015604745821339 ], [ -80.275483710952926, 26.015626745836439 ], [ -80.27516371085963, 26.015634745845389 ], [ -80.274203710579741, 26.015661745873025 ], [ -80.273884710486755, 26.015670745882247 ], [ -80.273158710275069, 26.015691745903322 ], [ -80.270984709641425, 26.015756745966911 ], [ -80.270259709430107, 26.015778745988218 ], [ -80.270021709360719, 26.015785745995117 ], [ -80.26931070915353, 26.015808746016365 ], [ -80.269073709084481, 26.015817746023764 ], [ -80.26905570907924, 26.015817746024148 ], [ -80.269000709063221, 26.015819746025848 ], [ -80.268983709058276, 26.015820746026474 ], [ -80.268869709025026, 26.015823746029742 ], [ -80.268526708925094, 26.015835746040185 ], [ -80.268413708892183, 26.015839746043635 ], [ -80.268260708847507, 26.015842746047706 ], [ -80.267803708714268, 26.015853746060433 ], [ -80.267651708669916, 26.015857746064711 ], [ -80.267103708510248, 26.015874746080936 ], [ -80.265462708031961, 26.015926746129665 ], [ -80.264915707872518, 26.015944746146083 ], [ -80.264732707819036, 26.015945746150312 ], [ -80.264527707759214, 26.015948746155512 ], [ -80.26418670765959, 26.015950746163394 ], [ -80.264139707645896, 26.015951746164671 ], [ -80.264072707626383, 26.015953746166641 ], [ -80.264005707606884, 26.015956746168889 ], [ -80.263542707471871, 26.015970746182443 ], [ -80.262155707067578, 26.016011746222897 ], [ -80.261693706932917, 26.016026746236747 ], [ -80.261562706894779, 26.016032746241084 ], [ -80.26116970678045, 26.016052746254672 ], [ -80.261039706742636, 26.016059746259245 ], [ -80.260458706573147, 26.01607274627516 ], [ -80.25871570606472, 26.016111746322768 ], [ -80.258135705895569, 26.016125746338943 ], [ -80.257900705827041, 26.016131746345518 ], [ -80.257197705622048, 26.016149746365333 ], [ -80.256963705553773, 26.016156746372182 ], [ -80.256722705483554, 26.016165746379709 ], [ -80.256000705273209, 26.016191746401937 ], [ -80.255760705203357, 26.016201746409646 ], [ -80.255218705045394, 26.016218746425693 ], [ -80.253591704571193, 26.016272746474684 ], [ -80.253050704413525, 26.016290746490938 ], [ -80.252583704277114, 26.016292746501556 ], [ -80.252344704207431, 26.016300746508801 ], [ -80.250690703725624, 26.016362746560382 ], [ -80.250228703590793, 26.016371746572656 ], [ -80.249523703385108, 26.016385746591514 ], [ -80.249282703314933, 26.016397746599729 ], [ -80.248559703104661, 26.016437746625549 ], [ -80.24848770308374, 26.016441746628097 ], [ -80.248457703074976, 26.01644374662925 ], [ -80.248319703034866, 26.016451746634306 ], [ -80.248282703024074, 26.016451746635106 ], [ -80.248174702992472, 26.016451746637461 ], [ -80.248138702981947, 26.01645174663825 ], [ -80.248026702949232, 26.016451746640666 ], [ -80.247694702852158, 26.016452746648124 ], [ -80.24758370281981, 26.016453746650765 ], [ -80.246866702610802, 26.016476746672151 ], [ -80.244718701984766, 26.016548746736923 ], [ -80.244002701776139, 26.016572746758534 ], [ -80.243844701730069, 26.016578746763443 ], [ -80.243373701592958, 26.016598746778737 ], [ -80.24321670154724, 26.016605746783892 ], [ -80.243065701503099, 26.016606746787431 ], [ -80.242615701371733, 26.016612746798739 ], [ -80.242537701348922, 26.01661374680069 ], [ -80.242497701337285, 26.016614746801814 ], [ -80.24246570132793, 26.016615746802746 ], [ -80.242217701255655, 26.016623746810119 ], [ -80.241971701183928, 26.016631746817531 ], [ -80.241477701039969, 26.016648746832484 ], [ -80.241230700968003, 26.016657746840163 ], [ -80.241192700956944, 26.016657746840991 ], [ -80.241079700924018, 26.016661746844456 ], [ -80.241042700913226, 26.016663746845733 ], [ -80.240841700854631, 26.016670746851855 ], [ -80.240238700679001, 26.016694746870996 ], [ -80.240038700620758, 26.016703746877646 ], [ -80.23964370050561, 26.016715746889222 ], [ -80.238458700160251, 26.016755746925039 ], [ -80.238064700045456, 26.016768746936911 ], [ -80.238043700039299, 26.016768746937355 ], [ -80.237983700021772, 26.016769746938923 ], [ -80.237963700015953, 26.016770746939589 ], [ -80.237968700021185, 26.016913746975625 ], [ -80.237986700037936, 26.017345747084427 ], [ -80.237992700043563, 26.017489747120749 ], [ -80.237997700049092, 26.017642747159265 ], [ -80.238014700066259, 26.018101747274969 ], [ -80.238020700072056, 26.018254747313549 ], [ -80.238025700077173, 26.018391747348048 ], [ -80.238040700092483, 26.018802747451627 ], [ -80.238045700097587, 26.018940747486397 ], [ -80.238051700103355, 26.019091747524445 ], [ -80.238071700121282, 26.01954674763903 ], [ -80.238078700127375, 26.019698747677314 ], [ -80.238081700132014, 26.019838747712612 ], [ -80.238093700146649, 26.020258747818581 ], [ -80.238097700151542, 26.020398747853854 ], [ -80.237946700107514, 26.020401747857886 ], [ -80.23749469997567, 26.020414747870991 ], [ -80.237344699931981, 26.020419747875515 ], [ -80.237191699887362, 26.020424747880089 ], [ -80.236732699753674, 26.020441747894367 ], [ -80.236580699709364, 26.020447747899158 ], [ -80.236596699725752, 26.020887748010068 ], [ -80.236644699774914, 26.022209748343187 ], [ -80.236661699791583, 26.022650748454314 ], [ -80.236673699802921, 26.022944748528378 ], [ -80.236709699836922, 26.023826748750547 ], [ -80.236721699848218, 26.024120748824593 ], [ -80.236567699803203, 26.024121748828197 ], [ -80.236109699669427, 26.024124748838897 ], [ -80.235956699624722, 26.024126748842722 ], [ -80.235804699580342, 26.024129748846828 ], [ -80.235348699447385, 26.024141748859702 ], [ -80.235197699403329, 26.02414574886398 ], [ -80.235043699358442, 26.024148748868086 ], [ -80.234581699223696, 26.024161748881433 ], [ -80.234428699179091, 26.024166748885996 ], [ -80.234145699096572, 26.024173748893887 ], [ -80.233300698850115, 26.024196748918097 ], [ -80.233102698792379, 26.024202748923909 ], [ -80.233018698767921, 26.02420474892622 ], [ -80.232879698727317, 26.024207748929985 ], [ -80.232462698605744, 26.024219748942095 ], [ -80.232324698565535, 26.024223748946092 ], [ -80.23233269857171, 26.024369748982799 ], [ -80.23235969859131, 26.024809749093478 ], [ -80.232368698597867, 26.024956749130407 ], [ -80.232374698603365, 26.025097749165965 ], [ -80.232394698620539, 26.025523749273166 ], [ -80.232401698626347, 26.025665749308956 ], [ -80.23240669863165, 26.025810749345457 ], [ -80.232424698648543, 26.026247749455578 ], [ -80.232431698654494, 26.026393749492314 ], [ -80.23243669865974, 26.026535749528076 ], [ -80.232451698675419, 26.026961749635444 ], [ -80.232457698681003, 26.027104749671505 ], [ -80.232461698686052, 26.027250749708301 ], [ -80.232474698701552, 26.027691749819521 ], [ -80.232479698706953, 26.027838749856524 ], [ -80.232486698712762, 26.027980749892315 ], [ -80.232508698730655, 26.028410750000514 ], [ -80.23251669873676, 26.028553750036483 ], [ -80.232520698741808, 26.028697750072766 ], [ -80.232532698756799, 26.029130750181992 ], [ -80.23253669876182, 26.029275750218531 ], [ -80.232555698779095, 26.029715750329377 ], [ -80.232612698830891, 26.031035750661747 ], [ -80.232625698842597, 26.031333750736842 ], [ -80.232632698848406, 26.031475750772568 ], [ -80.232032698673521, 26.03149475079039 ], [ -80.23023669814998, 26.031552750844028 ], [ -80.229637697975363, 26.031572750862097 ], [ -80.229480697929574, 26.031576750866503 ], [ -80.229012697793223, 26.031592750880737 ], [ -80.22885769774804, 26.031597750885361 ], [ -80.228854697743827, 26.031471750853605 ], [ -80.228108697526466, 26.031499750876858 ], [ -80.227335697301129, 26.031525750900229 ], [ -80.226579697080339, 26.031533750918619 ], [ -80.22457169649492, 26.031597750978413 ], [ -80.224578696500558, 26.031731751012135 ], [ -80.224174696382761, 26.031743751023964 ], [ -80.222962696029398, 26.031780751059628 ], [ -80.222559695911912, 26.031793751071678 ], [ -80.222392695863221, 26.031797751076311 ], [ -80.221893695717768, 26.031813751091196 ], [ -80.22172769566933, 26.031818751096051 ], [ -80.221728695666272, 26.031693751064413 ], [ -80.220952695440346, 26.031728751090135 ], [ -80.220916695429935, 26.031732751091909 ], [ -80.220809695398998, 26.031746751097788 ], [ -80.22077469538894, 26.031751751099794 ], [ -80.220775695389804, 26.031773751105352 ], [ -80.220778695392482, 26.031841751122478 ], [ -80.220779695393389, 26.031864751128243 ], [ -80.220528695320851, 26.031896751141829 ], [ -80.220080695191371, 26.031953751165947 ], [ -80.219927695146879, 26.03196275117153 ], [ -80.219596695050612, 26.031982751183769 ], [ -80.218541694743351, 26.032025751217553 ], [ -80.218066694604673, 26.03203375122991 ], [ -80.217358694397518, 26.032028751243974 ], [ -80.216501694146842, 26.032024751261591 ], [ -80.216011694003939, 26.032038751275795 ], [ -80.215936693982158, 26.032043751278689 ], [ -80.215645693897613, 26.032063751290053 ], [ -80.215189693766035, 26.032129751316639 ], [ -80.214958693699515, 26.032169751331768 ], [ -80.214418693542569, 26.032202751351821 ], [ -80.214253693494499, 26.032210751357415 ], [ -80.213881693386256, 26.032229751370302 ], [ -80.213823693369321, 26.032230751371806 ], [ -80.213772693354414, 26.032230751372911 ], [ -80.213690693330449, 26.032231751374965 ], [ -80.213617693309118, 26.032231751376528 ], [ -80.213591693301538, 26.032232751377361 ], [ -80.213492693272599, 26.032234751380042 ], [ -80.213401693246084, 26.032237751382787 ], [ -80.21333069322543, 26.032240751385075 ], [ -80.213295693215244, 26.032240751385828 ], [ -80.213259693204719, 26.032242751387106 ], [ -80.213188693184065, 26.032245751389407 ], [ -80.213159693175612, 26.032246751390279 ], [ -80.213041693141207, 26.032251751394089 ], [ -80.212811693074215, 26.032260751401402 ], [ -80.21269669304067, 26.032263751404646 ], [ -80.212581693007181, 26.032268751408406 ], [ -80.212226692903698, 26.032280751419165 ], [ -80.21116269259366, 26.032320751452335 ], [ -80.210808692490488, 26.032333751463341 ], [ -80.21035269235675, 26.032317751469183 ], [ -80.210324692348507, 26.032314751469016 ], [ -80.209906692225488, 26.032285751470798 ], [ -80.209487692101263, 26.032222751463948 ], [ -80.208877691922424, 26.032204751472641 ], [ -80.20885869191693, 26.032204751473035 ], [ -80.208393691781097, 26.032210751484648 ], [ -80.208264691743452, 26.03221375148825 ], [ -80.207878691630825, 26.032223751499139 ], [ -80.207750691593517, 26.032227751502923 ], [ -80.207660691567284, 26.032230751505619 ], [ -80.20739169148888, 26.032240751514017 ], [ -80.207302691462957, 26.032244751516945 ], [ -80.20718869142965, 26.032245751519671 ], [ -80.20684769133014, 26.032251751528587 ], [ -80.206734691297129, 26.032253751531549 ], [ -80.206574691250424, 26.032255751535526 ], [ -80.206095691110647, 26.032265751548465 ], [ -80.205936691064252, 26.032269751552935 ], [ -80.205776691017547, 26.032272751557155 ], [ -80.205300690878673, 26.032283751570304 ], [ -80.205141690832235, 26.032287751574746 ], [ -80.204977690784375, 26.032290751579072 ], [ -80.204487690641358, 26.032301751592524 ], [ -80.20432469059385, 26.032305751597068 ], [ -80.204243690570209, 26.032306751599045 ], [ -80.204003690500187, 26.032313751606033 ], [ -80.203923690476856, 26.032316751608523 ], [ -80.203846690454384, 26.032316751610193 ], [ -80.203617690387517, 26.032320751616162 ], [ -80.203541690365327, 26.032322751618306 ], [ -80.203379690318016, 26.032324751622387 ], [ -80.202897690177309, 26.032332751634858 ], [ -80.202736690130337, 26.032335751639096 ], [ -80.202572690082434, 26.032339751643651 ], [ -80.202081689939249, 26.032352751657633 ], [ -80.20191868989167, 26.032357751662413 ], [ -80.201758689844908, 26.032357751665884 ], [ -80.201279689704961, 26.032361751677289 ], [ -80.201120689658509, 26.032363751681252 ], [ -80.200965689613298, 26.032367751685619 ], [ -80.200504689478805, 26.032380751698927 ], [ -80.200350689433975, 26.03238575170354 ], [ -80.200035689341917, 26.032388751711121 ], [ -80.199657689232666, 26.032436751731449 ], [ -80.199526689194983, 26.032460751740413 ], [ -80.199252689116236, 26.032511751759252 ], [ -80.198808688988294, 26.03258375178708 ], [ -80.198167688803338, 26.03267575182425 ], [ -80.197054688476967, 26.032642751840111 ], [ -80.196226688235228, 26.032657751861823 ], [ -80.19622368823137, 26.032545751833581 ], [ -80.195449688005326, 26.032555751852946 ], [ -80.193551687450579, 26.032564751896391 ], [ -80.193152687334347, 26.032582751909629 ], [ -80.192948687274964, 26.032591751916293 ], [ -80.192478687138461, 26.032627751935635 ], [ -80.191972686990482, 26.032626751946367 ], [ -80.19106768672556, 26.032617751963762 ], [ -80.190114686447387, 26.032636751989216 ], [ -80.189807686357994, 26.032650751999437 ], [ -80.189337686220355, 26.032642752007636 ], [ -80.188965686111558, 26.032642752015715 ], [ -80.187271685616906, 26.032669752059306 ], [ -80.187271685620956, 26.032821752097757 ], [ -80.186914685516697, 26.03282875210725 ], [ -80.18677568547615, 26.032831752111015 ], [ -80.186756685470613, 26.032831752111449 ], [ -80.186702685454804, 26.032832752112864 ], [ -80.18668468544962, 26.032833752113515 ], [ -80.186521685401942, 26.032835752117531 ], [ -80.186348685351462, 26.032838752122046 ], [ -80.186034685259827, 26.03284475213043 ], [ -80.185872685212559, 26.032848752134949 ], [ -80.18550968510651, 26.03285475214431 ], [ -80.18442068478862, 26.032875752173286 ], [ -80.184058684682952, 26.032882752182893 ], [ -80.183646684562746, 26.032892752194396 ], [ -80.182414684203252, 26.032923752228957 ], [ -80.182003684083369, 26.032934752240681 ], [ -80.181831684033128, 26.032937752245171 ], [ -80.181318683883418, 26.032949752259313 ], [ -80.181147683833544, 26.032953752264024 ], [ -80.180737683713929, 26.032963752275489 ], [ -80.179507683355084, 26.032997752310759 ], [ -80.179098683235807, 26.033009752322705 ], [ -80.178858683165814, 26.033017752329911 ], [ -80.17813868295589, 26.033041752351608 ], [ -80.177898682885896, 26.033049752358867 ], [ -80.177382682735313, 26.033059752372569 ], [ -80.175837682284367, 26.033093752414736 ], [ -80.175322682134023, 26.033104752428674 ], [ -80.175316682128681, 26.032969752394681 ], [ -80.174572681911229, 26.03297475241208 ], [ -80.172729681373113, 26.033008752460709 ], [ -80.172303681248763, 26.033017752472208 ], [ -80.171714681076551, 26.033018752485251 ], [ -80.171177680919939, 26.033035752501224 ], [ -80.170866680829434, 26.03305375251254 ], [ -80.170590680750053, 26.033102752530901 ], [ -80.170594680755457, 26.033262752571265 ], [ -80.170408680701996, 26.033296752583933 ], [ -80.170223680648789, 26.033329752596249 ], [ -80.170139680624658, 26.033347752602644 ], [ -80.169710680501765, 26.033443752636227 ], [ -80.169341680395505, 26.033507752660427 ], [ -80.169010680299806, 26.033547752677759 ], [ -80.168769680229474, 26.033554752684719 ], [ -80.168307680094756, 26.033570752698804 ], [ -80.168272680084542, 26.033570752699578 ], [ -80.168167680053813, 26.033570752701841 ], [ -80.168133680043937, 26.033571752702827 ], [ -80.168154680081599, 26.034756753002043 ], [ -80.168218680194855, 26.038311753899492 ], [ -80.168240680232827, 26.039496754198648 ], [ -80.168245680239949, 26.039707754251872 ], [ -80.168252680249523, 26.039991754323552 ], [ -80.168261680261438, 26.040341754411866 ], [ -80.168265680266529, 26.04048675444842 ], [ -80.168267680268897, 26.040553754465286 ], [ -80.168269680271422, 26.040626754483718 ], [ -80.168281680288359, 26.041132754611414 ], [ -80.168298680311267, 26.041805754781219 ], [ -80.168289680319234, 26.042203754881999 ], [ -80.16826968032538, 26.042653754996191 ], [ -80.168254680326697, 26.042869755051154 ], [ -80.168243680328075, 26.043040755094616 ], [ -80.168218680331577, 26.043448755198352 ], [ -80.168197680329172, 26.04358675523369 ], [ -80.16813668032232, 26.044000755339649 ], [ -80.168116680320153, 26.044139755375223 ], [ -80.168014680310677, 26.044903755570605 ], [ -80.167910680301318, 26.045693755772575 ], [ -80.167772680286362, 26.046648756017046 ], [ -80.16770668028164, 26.047195756156761 ], [ -80.167629680276278, 26.047840756321506 ], [ -80.167614680275165, 26.04796175635239 ], [ -80.167464680260551, 26.049061756633755 ], [ -80.167379680252523, 26.049694756795628 ], [ -80.167193680226362, 26.050753757067376 ], [ -80.167110680214662, 26.051226757188758 ], [ -80.166990680202971, 26.052104757413304 ], [ -80.166957680199886, 26.052352757476736 ], [ -80.166814680187457, 26.053454757758402 ], [ -80.166559680162777, 26.055326758237161 ], [ -80.166208680128975, 26.057910758897993 ], [ -80.165795680089104, 26.060945759674116 ], [ -80.165603680070816, 26.062366760037456 ], [ -80.165572680067797, 26.062592760095256 ], [ -80.164918679876948, 26.062608760113566 ], [ -80.164464679744455, 26.062619760126179 ], [ -80.164107679640267, 26.062628760136249 ], [ -80.163971679600479, 26.062628760139216 ], [ -80.163833679560184, 26.062629760142464 ], [ -80.16350367946373, 26.06263276015039 ], [ -80.16310967934858, 26.062635760159711 ], [ -80.161216678798169, 26.062759760232211 ], [ -80.160486678585883, 26.062805760259721 ], [ -80.16004067845202, 26.062677760237104 ], [ -80.159930678419059, 26.062647760231883 ], [ -80.159831678389409, 26.062621760227454 ], [ -80.159541678301323, 26.062499760202979 ], [ -80.15952467829608, 26.062489760200762 ], [ -80.159321678234008, 26.062388760179676 ], [ -80.159147678180432, 26.062286760157672 ], [ -80.158966678124372, 26.062168760131787 ], [ -80.158811678075821, 26.062048760104847 ], [ -80.158768678062572, 26.062023760099471 ], [ -80.158582678005132, 26.061911760075187 ], [ -80.157770677740828, 26.060906759838815 ], [ -80.157565677674455, 26.060665759782331 ], [ -80.157521677660299, 26.060617759771162 ], [ -80.157504677654913, 26.060600759767215 ], [ -80.157458677640236, 26.060554759756588 ], [ -80.15727967758319, 26.060378759716059 ], [ -80.157264677578439, 26.060365759713079 ], [ -80.157147677541545, 26.060265759690356 ], [ -80.157074677518622, 26.060205759676773 ], [ -80.15689167746126, 26.060063759644866 ], [ -80.156852677449194, 26.060037759639101 ], [ -80.156676677394316, 26.059910759610851 ], [ -80.15656667736053, 26.059850759598056 ], [ -80.156236677259201, 26.05967075955974 ], [ -80.156126677225416, 26.059610759546956 ], [ -80.155922677163716, 26.05953375953192 ], [ -80.155737677107766, 26.05946475951853 ], [ -80.155715677101185, 26.059459759517747 ], [ -80.155385677002116, 26.059364759500909 ], [ -80.155365676996212, 26.059360759500308 ], [ -80.155298676976358, 26.059350759499253 ], [ -80.155224676954376, 26.059339759498052 ], [ -80.155145676930999, 26.059328759497028 ], [ -80.155125676925039, 26.059324759496441 ], [ -80.155083676912668, 26.059322759496865 ], [ -80.155033676897972, 26.0593187594969 ], [ -80.154947676872666, 26.059313759497503 ], [ -80.154865676848502, 26.059307759497798 ], [ -80.154772676821167, 26.059302759498568 ], [ -80.15465867678769, 26.059296759499546 ], [ -80.154212676656655, 26.059275759503944 ], [ -80.154033676604072, 26.059267759505769 ], [ -80.153995676592999, 26.059267759506582 ], [ -80.152787676239527, 26.059263759531884 ], [ -80.1517436759341, 26.059260759553819 ], [ -80.150863675676234, 26.059243759568648 ], [ -80.149164675178582, 26.059218759599261 ], [ -80.148938675112419, 26.059216759603693 ], [ -80.14845267497023, 26.059214759613749 ], [ -80.147957674825392, 26.059212759624021 ], [ -80.147746674763795, 26.059218759630113 ], [ -80.147113674579231, 26.059240759649448 ], [ -80.146903674518029, 26.059248759655993 ], [ -80.146701674459095, 26.059254759661957 ], [ -80.146096674282703, 26.059276759680685 ], [ -80.145895674224079, 26.059283759686807 ], [ -80.14564567415097, 26.059283759692249 ], [ -80.145411674082538, 26.059284759697587 ], [ -80.144898673932133, 26.059270759705189 ], [ -80.144649673859135, 26.059264759709095 ], [ -80.144614673848835, 26.059262759709355 ], [ -80.144510673818303, 26.059259759710859 ], [ -80.144476673808384, 26.059259759711594 ], [ -80.144353673772244, 26.05925575971327 ], [ -80.143984673664107, 26.059246759718985 ], [ -80.143878673633012, 26.059243759720538 ], [ -80.143829673587604, 26.05807775942683 ], [ -80.143827673584653, 26.057987759404121 ], [ -80.143824673576603, 26.057719759336422 ], [ -80.143823673573934, 26.057630759313984 ], [ -80.143818673566514, 26.057406759257489 ], [ -80.143814673561863, 26.057274759224196 ], [ -80.143812673558756, 26.05718275920097 ], [ -80.14379067353461, 26.056517759033294 ], [ -80.143779673523142, 26.056207758955164 ], [ -80.143767673510169, 26.055852758865708 ], [ -80.143758673498198, 26.055501758777147 ], [ -80.143733673462847, 26.054448758511466 ], [ -80.143725673451158, 26.054097758422905 ], [ -80.143715673438649, 26.053739758332625 ], [ -80.143687673401885, 26.052665758061682 ], [ -80.143678673389758, 26.052308757971613 ], [ -80.143665673376319, 26.051947757880633 ], [ -80.143626673336144, 26.050867757608405 ], [ -80.143613673322747, 26.050507757517661 ], [ -80.143599673309296, 26.050156757429253 ], [ -80.143557673269029, 26.049106757164665 ], [ -80.143545673257478, 26.048802757088044 ], [ -80.143543673255664, 26.04875675707645 ], [ -80.143542673254018, 26.048707757064108 ], [ -80.143541673253011, 26.048680757057308 ], [ -80.143531673241554, 26.048359756976375 ], [ -80.143498673200227, 26.047168756675923 ], [ -80.143488673186681, 26.046771756575755 ], [ -80.143486673184512, 26.046711756560672 ], [ -80.143480673178047, 26.046534756516031 ], [ -80.14347867317592, 26.046475756501128 ], [ -80.143474673171795, 26.046366756473649 ], [ -80.14346467316021, 26.046040756391459 ], [ -80.143461673156452, 26.045932756364213 ], [ -80.143459673153245, 26.045833756339231 ], [ -80.143455673144189, 26.045536756264191 ], [ -80.143454673141278, 26.045438756239452 ], [ -80.143453673140456, 26.045418756234387 ], [ -80.143452673138555, 26.045360756219807 ], [ -80.143452673138057, 26.045341756214988 ], [ -80.143448673133676, 26.045219756184188 ], [ -80.143439673121293, 26.044853756091864 ], [ -80.143436673117179, 26.044731756061079 ], [ -80.143433673114288, 26.044655756041884 ], [ -80.143427673106473, 26.044429755984886 ], [ -80.143426673104187, 26.044354755965966 ], [ -80.143425673103394, 26.044335755961171 ], [ -80.143423673101367, 26.044281755947573 ], [ -80.143423673100898, 26.044263755943035 ], [ -80.14342267309712, 26.044132755909924 ], [ -80.143419673085802, 26.043739755810623 ], [ -80.14341967308232, 26.043609755777734 ], [ -80.143417673080421, 26.043559755765155 ], [ -80.143411673074738, 26.043411755727831 ], [ -80.143410673073149, 26.043362755715485 ], [ -80.14340667306935, 26.043265755691007 ], [ -80.143397673058985, 26.042974755617671 ], [ -80.143394673055568, 26.04287875559341 ], [ -80.143390673051741, 26.042778755568246 ], [ -80.143381673041162, 26.042481755493345 ], [ -80.143378673037674, 26.042382755468338 ], [ -80.143376673034666, 26.042291755445358 ], [ -80.143372673026263, 26.042019755376675 ], [ -80.143371673023566, 26.041929755353955 ], [ -80.143368673020234, 26.041836755330483 ], [ -80.14336267301104, 26.041558755260354 ], [ -80.143360673008019, 26.041466755237114 ], [ -80.143359673005307, 26.041375755214133 ], [ -80.143359672998031, 26.041102755145069 ], [ -80.143359672995629, 26.041012755122296 ], [ -80.143355672984342, 26.040631755026048 ], [ -80.143352672975809, 26.040343754953319 ], [ -80.143348672960443, 26.039809754818364 ], [ -80.143346672951424, 26.039492754738244 ], [ -80.143344672945275, 26.039282754685189 ], [ -80.143344672940742, 26.03911275464219 ], [ -80.143342672937919, 26.039027754620722 ], [ -80.143338672929914, 26.03877375455659 ], [ -80.143337672927402, 26.038689754535344 ], [ -80.143336672924633, 26.038596754511886 ], [ -80.143333672916427, 26.038320754442157 ], [ -80.143333672913982, 26.038228754418881 ], [ -80.143333672911496, 26.038135754395384 ], [ -80.143333672904149, 26.037859754325542 ], [ -80.143334672902, 26.037767754302251 ], [ -80.143334672899513, 26.037674754278754 ], [ -80.143334672892152, 26.037397754208719 ], [ -80.143335672890004, 26.037305754185429 ], [ -80.143334672888045, 26.037242754169519 ], [ -80.143331672882155, 26.03705475412206 ], [ -80.143330672880211, 26.036992754106397 ], [ -80.14332667287573, 26.036867754074834 ], [ -80.143316672862838, 26.036493753980523 ], [ -80.143313672858667, 26.036369753949181 ], [ -80.143313672855442, 26.036248753918599 ], [ -80.143316672846638, 26.03588475382649 ], [ -80.143317672843736, 26.03576475379608 ], [ -80.143316672841834, 26.035704753780969 ], [ -80.143316672837074, 26.035525753735698 ], [ -80.14331667283551, 26.035466753720769 ], [ -80.143313672832221, 26.035375753697803 ], [ -80.143307672823227, 26.035102753628912 ], [ -80.143305672820247, 26.035012753606203 ], [ -80.143303672817083, 26.034914753581479 ], [ -80.143298672807859, 26.03462375350799 ], [ -80.143297672805019, 26.034526753483433 ], [ -80.143294672801844, 26.03444275346229 ], [ -80.143288672793503, 26.03419375339946 ], [ -80.143286672790708, 26.034110753378499 ], [ -80.142849672663132, 26.034119753390225 ], [ -80.141538672280305, 26.03414675342551 ], [ -80.141102672153053, 26.034156753437546 ], [ -80.141098672149482, 26.034065753414602 ], [ -80.14108867213929, 26.033793753346025 ], [ -80.141085672136029, 26.033703753323341 ], [ -80.141525672264436, 26.033691753310737 ], [ -80.142846672649966, 26.033657753273491 ], [ -80.143287672778641, 26.033646753261106 ], [ -80.143287672776921, 26.033581753244654 ], [ -80.143287672775841, 26.033541753234573 ], [ -80.143288672774617, 26.033483753219866 ], [ -80.143289672772298, 26.033386753195337 ], [ -80.143290672770874, 26.033322753179103 ], [ -80.143290672767449, 26.033192753146238 ], [ -80.14329467275833, 26.032805753048287 ], [ -80.143296672755511, 26.0326767530156 ], [ -80.143292672743456, 26.032268752912515 ], [ -80.14328767272869, 26.031768752786178 ], [ -80.143286672727626, 26.03173875277858 ], [ -80.143286672725239, 26.031649752756117 ], [ -80.143286672724486, 26.031620752748736 ], [ -80.143285672722513, 26.031557752732812 ], [ -80.143284672717201, 26.031368752685058 ], [ -80.143284672715566, 26.031306752669369 ], [ -80.143283672712812, 26.031214752646143 ], [ -80.143280672704606, 26.0309387525764 ], [ -80.143279672701908, 26.030847752553409 ], [ -80.143279672699663, 26.030763752532149 ], [ -80.143279672692969, 26.030511752468431 ], [ -80.143279672690724, 26.03042775244716 ], [ -80.143278672687856, 26.030329752422436 ], [ -80.143277672679801, 26.030038752348844 ], [ -80.143277672677229, 26.029941752324337 ], [ -80.14327567267209, 26.029770752281095 ], [ -80.14327167265732, 26.029259752151926 ], [ -80.14327067265252, 26.029089752108966 ], [ -80.14326967264698, 26.028892752059168 ], [ -80.143267672630728, 26.028302751909997 ], [ -80.143267672625498, 26.028106751860406 ], [ -80.143265672620032, 26.027923751814175 ], [ -80.143260672604015, 26.027374751675456 ], [ -80.143259672598873, 26.027191751629189 ], [ -80.143257672593421, 26.027008751582894 ], [ -80.143251672577136, 26.026461751444693 ], [ -80.143250672572009, 26.026279751398679 ], [ -80.143249672566753, 26.02609475135192 ], [ -80.143246672551214, 26.025542751212349 ], [ -80.14324567254603, 26.025358751165836 ], [ -80.143245672541283, 26.02517975112055 ], [ -80.143247672527593, 26.024642750984679 ], [ -80.143248672523129, 26.024464750939636 ], [ -80.143245672517295, 26.024276750892163 ], [ -80.143238672500331, 26.023715750750409 ], [ -80.143236672494808, 26.023528750703171 ], [ -80.143236672489891, 26.023344750656641 ], [ -80.143239672476241, 26.022796750517927 ], [ -80.143240672471649, 26.022613750471606 ], [ -80.1430316724107, 26.022619750477663 ], [ -80.14240667222839, 26.022639750496278 ], [ -80.142198672167737, 26.022646750502602 ], [ -80.142194672156961, 26.022284750411124 ], [ -80.142185672125521, 26.021200750137051 ], [ -80.142182672115041, 26.02083975004583 ], [ -80.142180672104587, 26.020467749951791 ], [ -80.142175672073591, 26.019354749670327 ], [ -80.142174672063433, 26.018983749576535 ], [ -80.142385672124917, 26.018975749569965 ], [ -80.143017672309213, 26.018954749550936 ], [ -80.143229672371092, 26.018947749544523 ], [ -80.143224672364795, 26.018767749499105 ], [ -80.14320967234616, 26.018229749363343 ], [ -80.143205672340258, 26.018050749318196 ], [ -80.143199672333566, 26.017866749271722 ], [ -80.143181672313702, 26.017317749133255 ], [ -80.143175672307109, 26.017134749087113 ], [ -80.143170672300656, 26.016945749039373 ], [ -80.143155672281267, 26.016381748897018 ], [ -80.143151672275124, 26.01619374884957 ], [ -80.143142672267572, 26.016007748802743 ], [ -80.143116672245171, 26.015450748662392 ], [ -80.143108672237886, 26.015265748615771 ], [ -80.143106672232364, 26.015079748568777 ], [ -80.143102672216415, 26.01452274842794 ], [ -80.14310167221123, 26.014337748381166 ], [ -80.143095672204595, 26.014153748334692 ], [ -80.143077672184688, 26.013602748195723 ], [ -80.143081672180998, 26.013419748149353 ], [ -80.143125672182421, 26.012988748039383 ], [ -80.143132672182332, 26.01290874801894 ], [ -80.143153672186443, 26.012831747999041 ], [ -80.14317867219232, 26.012777747984796 ], [ -80.143256672213084, 26.01269874796316 ], [ -80.143161672185684, 26.012713747968984 ], [ -80.143056672155126, 26.012719747972799 ], [ -80.143017672143756, 26.012722747974415 ], [ -80.142852672095174, 26.012708747974422 ], [ -80.142765672069274, 26.012692747972309 ], [ -80.142728672058169, 26.012682747970555 ], [ -80.142484671985045, 26.012616747959136 ], [ -80.142362671948021, 26.012565747948884 ], [ -80.142255671915237, 26.012510747937267 ], [ -80.142066671856412, 26.012375747907203 ], [ -80.141975671827225, 26.012279747884904 ], [ -80.141928671811939, 26.01222174787128 ], [ -80.141920671809316, 26.012211747868896 ], [ -80.141838671782011, 26.012085747838846 ], [ -80.141790671765463, 26.011990747815787 ], [ -80.141733671744475, 26.011829747776307 ], [ -80.141706671733317, 26.011705747745527 ], [ -80.141695671726737, 26.011580747714131 ], [ -80.141699671724083, 26.011434747677143 ], [ -80.141715671725962, 26.011330747650458 ], [ -80.141753671733284, 26.011186747613223 ], [ -80.141792671742095, 26.011087747587311 ], [ -80.141845671754865, 26.010985747560373 ], [ -80.141862671759014, 26.01095474755212 ], [ -80.141950671781487, 26.010830747518881 ], [ -80.142053671808597, 26.010718747488312 ], [ -80.141911671765641, 26.010664747477691 ], [ -80.141236671568123, 26.010661747491572 ], [ -80.141012671502565, 26.010660747496161 ], [ -80.141004671495324, 26.010474747449294 ], [ -80.140980671473514, 26.00991874730915 ], [ -80.140972671466272, 26.009733747262516 ], [ -80.140967671459947, 26.009550747216323 ], [ -80.140954671441619, 26.009001747077733 ], [ -80.140950671435576, 26.008819747031787 ], [ -80.140943671428531, 26.008630746984092 ], [ -80.140922671407353, 26.008063746841106 ], [ -80.140916671400589, 26.007874746793437 ], [ -80.140913671394827, 26.007690746746899 ], [ -80.140906671378119, 26.007139746607663 ], [ -80.140904671372681, 26.006956746561421 ], [ -80.140895671365129, 26.006769746514269 ], [ -80.140871671343248, 26.006209746373155 ], [ -80.140863671335921, 26.006023746326225 ], [ -80.140859671329835, 26.005837746279269 ], [ -80.140847671311576, 26.005279746138328 ], [ -80.140844671305786, 26.005094746091594 ], [ -80.140838671299363, 26.004920746047688 ], [ -80.140821671280648, 26.004400745916499 ], [ -80.140816671274564, 26.004227745872864 ], [ -80.140812671268435, 26.004040745825588 ], [ -80.140800671250162, 26.003482745684661 ], [ -80.140797671244357, 26.003296745637666 ], [ -80.141188671358364, 26.003283745625946 ], [ -80.14236067170016, 26.003244745590692 ], [ -80.142752671814478, 26.003232745579144 ], [ -80.142747671808152, 26.003048745532695 ], [ -80.142732671789091, 26.002496745393405 ], [ -80.142728671783075, 26.002313745347173 ], [ -80.142725671777313, 26.002128745300386 ], [ -80.142716671760041, 26.001575745160711 ], [ -80.142713671754265, 26.001391745114223 ], [ -80.142706671747334, 26.001207745067745 ], [ -80.142687671727117, 26.000655744928533 ], [ -80.14268167172051, 26.00047174488212 ], [ -80.142676671714156, 26.000286744835421 ], [ -80.142661671695109, 25.999734744696031 ], [ -80.142657671689079, 25.999550744649579 ], [ -80.142653671682879, 25.999360744601553 ], [ -80.142644671665167, 25.998790744457548 ], [ -80.14264167165922, 25.99860174440979 ], [ -80.142635671652599, 25.998416744363094 ], [ -80.14261867163296, 25.997864744223804 ], [ -80.142613671626634, 25.99768074417738 ], [ -80.142612671621393, 25.997493744130026 ], [ -80.142611671606289, 25.996934743988632 ], [ -80.14261167160231, 25.996784743950663 ], [ -80.142763671646648, 25.996779743946114 ], [ -80.143643671903206, 25.996747743918938 ], [ -80.143853671964422, 25.996740743912639 ], [ -80.144483672148198, 25.996721743894195 ], [ -80.144694672209795, 25.996716743888385 ], [ -80.145092672325902, 25.996704743876684 ], [ -80.1462886726748, 25.996670743842227 ], [ -80.146687672791245, 25.996659743830783 ], [ -80.146898672852871, 25.996655743825194 ], [ -80.147533673038353, 25.996645743808958 ], [ -80.147745673100289, 25.996643743803862 ], [ -80.147866673135681, 25.996642743800997 ], [ -80.14823167324235, 25.996639743792358 ], [ -80.14835367327801, 25.996639743789714 ], [ -80.148352673277429, 25.996628743786921 ], [ -80.148352673276634, 25.996598743779359 ], [ -80.148352673276364, 25.99658874377679 ], [ -80.148350673273839, 25.996515743758373 ], [ -80.148334673251398, 25.995845743589175 ], [ -80.148333673248828, 25.995759743567422 ], [ -80.148261673171035, 25.993617743026949 ], [ -80.148249673157721, 25.993246742933373 ], [ -80.148225673142633, 25.992944742857436 ], [ -80.148195673132278, 25.992883742842679 ], [ -80.148156673111203, 25.992519742751433 ], [ -80.148149673107184, 25.992444742732552 ], [ -80.148114673084521, 25.991974742614399 ], [ -80.148104673072766, 25.991642742530633 ], [ -80.148093673063784, 25.991423742475444 ], [ -80.148077673049428, 25.991058742383416 ], [ -80.148066673036382, 25.990689742290243 ], [ -80.148036672998387, 25.989584742011267 ], [ -80.148026672985736, 25.989216741918376 ], [ -80.148004672979255, 25.989215741918603 ], [ -80.147939672960163, 25.98921274191925 ], [ -80.147918672954006, 25.989212741919708 ], [ -80.147911672945767, 25.98897774186036 ], [ -80.147893672921825, 25.988272741682362 ], [ -80.147887672913797, 25.988037741622986 ], [ -80.147874672897288, 25.98755674150156 ], [ -80.147837672848269, 25.98611474113742 ], [ -80.147825672832084, 25.985634741016213 ], [ -80.147903672854753, 25.985630741013541 ], [ -80.148138672923267, 25.985620741005867 ], [ -80.14817467293372, 25.985619741004871 ], [ -80.148217672946288, 25.985618741003684 ], [ -80.148255672957362, 25.985616741002353 ], [ -80.14837067299095, 25.985614740999381 ], [ -80.148409673002377, 25.985614740998528 ], [ -80.14840267299661, 25.985475740963516 ], [ -80.148401672995277, 25.985436740953652 ], [ -80.148378672974431, 25.984902740818988 ], [ -80.14837167296767, 25.984724740774073 ], [ -80.148361672956668, 25.984418740696889 ], [ -80.148332672923885, 25.983501740465432 ], [ -80.148323672913179, 25.98319674038839 ], [ -80.148316672904031, 25.98292774032052 ], [ -80.148296672876867, 25.982122740117205 ], [ -80.148290672867986, 25.981854740049492 ], [ -80.148283672860885, 25.981662740001028 ], [ -80.148264672840142, 25.981089739856451 ], [ -80.14825867283335, 25.980898739808204 ], [ -80.148252672826615, 25.98071073976077 ], [ -80.148234672806467, 25.980147739618662 ], [ -80.14822967280007, 25.97996073957146 ], [ -80.148220672792519, 25.979776739525086 ], [ -80.148195672770612, 25.979224739385909 ], [ -80.148187672763456, 25.979041739339756 ], [ -80.148180672756709, 25.978865739295347 ], [ -80.14815967273671, 25.978340739162956 ], [ -80.148152672730006, 25.978165739118808 ], [ -80.148145672722492, 25.977958739066565 ], [ -80.148127672700824, 25.97733873891001 ], [ -80.148121672693634, 25.977132738857986 ], [ -80.148117672689708, 25.977027738831492 ], [ -80.148108672678745, 25.976714738752509 ], [ -80.148106672675411, 25.976610738726194 ], [ -80.148101672670265, 25.976470738690896 ], [ -80.148093672660295, 25.97618173861791 ], [ -80.148089672655701, 25.976053738585588 ], [ -80.148085672650879, 25.975914738550482 ], [ -80.148080672645463, 25.975765738512859 ], [ -80.14806567262923, 25.97531873840008 ], [ -80.148061672624124, 25.975169738362442 ], [ -80.148061672620102, 25.975017738323942 ], [ -80.148063672608657, 25.974562738208764 ], [ -80.148065672605242, 25.97441173817047 ], [ -80.148478672725702, 25.974396738157779 ], [ -80.149718673087293, 25.974355738120593 ], [ -80.150132673208006, 25.974341738108084 ], [ -80.150151673213529, 25.974340738107443 ], [ -80.150208673230154, 25.974338738105693 ], [ -80.150228673235972, 25.97433873810526 ], [ -80.150530673323971, 25.974324738095167 ], [ -80.15143867358853, 25.974286738065945 ], [ -80.151741673676838, 25.974273738056098 ], [ -80.151840673705706, 25.974271738053471 ], [ -80.151930673732025, 25.974270738051263 ], [ -80.152119673787183, 25.974267738046418 ], [ -80.152139673793016, 25.974266738045742 ], [ -80.152179673804739, 25.9742667380449 ], [ -80.15223967382228, 25.974265738043346 ], [ -80.15232467384709, 25.974263738040996 ], [ -80.152579673921579, 25.974260738034751 ], [ -80.152665673946743, 25.974259738032636 ], [ -80.152883674010184, 25.974249738025357 ], [ -80.153538674200973, 25.974220738003879 ], [ -80.153757674264824, 25.974211737996836 ], [ -80.153848674291311, 25.974206737993622 ], [ -80.154121674370842, 25.974195737984964 ], [ -80.154213674397653, 25.974191737981908 ], [ -80.154428674460391, 25.974185737975766 ], [ -80.155073674648591, 25.974167737957249 ], [ -80.155288674711272, 25.974161737951103 ], [ -80.155473674765219, 25.974155737945612 ], [ -80.156029674927453, 25.974140737929776 ], [ -80.156215674981709, 25.974135737924502 ], [ -80.156237674988134, 25.974134737923773 ], [ -80.156306675008253, 25.974132737921806 ], [ -80.156329675014987, 25.974132737921284 ], [ -80.156580675088236, 25.974124737913861 ], [ -80.157334675308192, 25.974104737892485 ], [ -80.157436675338005, 25.97410273788979 ], [ -80.157586675381722, 25.974098737885488 ], [ -80.157687675411211, 25.97409573788255 ], [ -80.157795675442713, 25.974091737879228 ], [ -80.15811967553725, 25.974083737870213 ], [ -80.158228675569049, 25.974080737867098 ], [ -80.158636675688101, 25.974069737855476 ], [ -80.159862676045819, 25.974038737821157 ], [ -80.160271676165223, 25.974028737809743 ], [ -80.160676676283288, 25.974016737797992 ], [ -80.161893676638357, 25.973981737762802 ], [ -80.162299676756817, 25.973970737751273 ], [ -80.162846676916345, 25.973953737735151 ], [ -80.164490677395861, 25.973905737687481 ], [ -80.1650386775557, 25.973889737671577 ], [ -80.165178677596614, 25.973889737668536 ], [ -80.165394677659876, 25.973891737664371 ], [ -80.165591677715867, 25.973829737644419 ], [ -80.165726677754236, 25.973787737630907 ], [ -80.165529677642056, 25.971725737113257 ], [ -80.16543767759309, 25.970890736903918 ], [ -80.165309677517854, 25.969461736544933 ], [ -80.165233677460662, 25.968137736211517 ], [ -80.16522567744714, 25.967714736104604 ], [ -80.165233677432454, 25.967071735941648 ], [ -80.165282677429801, 25.96642973577811 ], [ -80.165330677427065, 25.965794735616356 ], [ -80.165395677429515, 25.965168735456469 ], [ -80.165485677442504, 25.964663735326663 ], [ -80.165640677470293, 25.963999735155266 ], [ -80.166027677553899, 25.962880734863624 ], [ -80.166370677637545, 25.962250734696749 ], [ -80.166638677702949, 25.96175973456667 ], [ -80.167080677815349, 25.961119734395126 ], [ -80.167357677887793, 25.960796734307412 ], [ -80.167747677991429, 25.960400734198714 ], [ -80.168143678097607, 25.960037734098286 ], [ -80.168595678220868, 25.959699734002971 ], [ -80.168796678275811, 25.959553733961645 ], [ -80.169116678363679, 25.959337733900092 ], [ -80.169432678450875, 25.959140733843373 ], [ -80.169699678524225, 25.95896073379204 ], [ -80.171497679019893, 25.957818733464126 ], [ -80.172836679390272, 25.95701473323173 ], [ -80.173845679668062, 25.956361733044652 ], [ -80.175317680071686, 25.955343732755114 ], [ -80.176257680330352, 25.954728732579177 ], [ -80.176730680460651, 25.954424732492022 ], [ -80.177413680646097, 25.953884732340594 ], [ -80.178094680830441, 25.953323732183875 ], [ -80.179215681134025, 25.952405731927264 ], [ -80.180563681498668, 25.951285731614629 ], [ -80.181425681732122, 25.950581731417845 ], [ -80.183919682405815, 25.948473730830354 ], [ -80.184400682536037, 25.948078730719992 ], [ -80.184642682600185, 25.947827730651241 ], [ -80.184887682665462, 25.947585730584663 ], [ -80.184969682686869, 25.947489730558559 ], [ -80.185099682721599, 25.94736473052415 ], [ -80.18553768283283, 25.946725730352938 ], [ -80.186232683005699, 25.945573730046267 ], [ -80.186737683127717, 25.944602729789537 ], [ -80.186990683189308, 25.944133729665332 ], [ -80.187309683269717, 25.943646729535178 ], [ -80.187567683335928, 25.943294729440485 ], [ -80.187898683432294, 25.943277729429042 ], [ -80.188590683633649, 25.943241729405035 ], [ -80.188686683661629, 25.943236729401718 ], [ -80.188736683655037, 25.942433729197315 ], [ -80.188755683652772, 25.942136729121717 ], [ -80.188794683646108, 25.941453728947927 ], [ -80.188790683642054, 25.941342728919906 ], [ -80.1887876836375, 25.94120372888478 ], [ -80.188766683613693, 25.940533728715646 ], [ -80.188734683581629, 25.939671728498048 ], [ -80.188716683544357, 25.938458728191314 ], [ -80.188657683508183, 25.93774272801134 ], [ -80.188621683474423, 25.936859727788505 ], [ -80.188614683467307, 25.936668727740308 ], [ -80.188587683440261, 25.935941727556827 ], [ -80.188540683402735, 25.935039727329453 ], [ -80.188509683373127, 25.934258727132363 ], [ -80.188506683370221, 25.934181727112886 ], [ -80.188501683362333, 25.933939727051765 ], [ -80.188493683348824, 25.93351572694457 ], [ -80.188483683337168, 25.933182726860458 ], [ -80.18759668307834, 25.933205726885383 ], [ -80.186436682740023, 25.93323772691846 ], [ -80.186404682707305, 25.932352726695058 ], [ -80.184698682210438, 25.932428726751095 ], [ -80.184440682135502, 25.932447726761424 ], [ -80.183212681777974, 25.932507726803095 ], [ -80.182365681531209, 25.932541726829985 ], [ -80.182341681499921, 25.931620726597281 ], [ -80.181178681160659, 25.931652726630421 ], [ -80.180340680916416, 25.931681726655803 ], [ -80.180335680910076, 25.93149672660908 ], [ -80.180321680890302, 25.930902726458964 ], [ -80.180317680886631, 25.930807726435027 ], [ -80.180315680885016, 25.930767726424918 ], [ -80.180233680812677, 25.928933725962199 ], [ -80.178271680241338, 25.929024726027507 ], [ -80.176202679638251, 25.929098726090864 ], [ -80.176186679614645, 25.92838172590961 ], [ -80.176168679591683, 25.927706725739046 ], [ -80.176156679576238, 25.927255725625105 ], [ -80.176151679567994, 25.926997725559836 ], [ -80.176099679535966, 25.926358725399147 ], [ -80.176095679533603, 25.926314725388071 ], [ -80.176097679529761, 25.926146725345511 ], [ -80.176040679494051, 25.925422725163344 ], [ -80.175354679293662, 25.925432725180684 ], [ -80.175029679199127, 25.925450725192256 ], [ -80.174011678902417, 25.925487725223498 ], [ -80.172315678408239, 25.925557725277741 ], [ -80.172002678317085, 25.925570725287805 ], [ -80.170024677741026, 25.925660725353197 ], [ -80.169674677638938, 25.925672725363725 ], [ -80.16944967757415, 25.925711725378473 ], [ -80.168003677153123, 25.925780725427078 ], [ -80.166009676571676, 25.925846725486725 ], [ -80.163994675985023, 25.925945725555245 ], [ -80.163362675800357, 25.925951725570343 ], [ -80.162371675511224, 25.925978725598515 ], [ -80.161946675386886, 25.925976725607146 ], [ -80.161408675230163, 25.926000725624824 ], [ -80.160443674948581, 25.926025725651908 ], [ -80.159982674813705, 25.926022725661106 ], [ -80.157959674222838, 25.926052725712253 ], [ -80.155942673634485, 25.926112725770885 ], [ -80.154430673192749, 25.926131725808286 ], [ -80.154252673140633, 25.926128725811342 ], [ -80.154543673201346, 25.925202725570539 ], [ -80.154824673260023, 25.92430872533803 ], [ -80.15579667346293, 25.921217724534127 ], [ -80.155974673499983, 25.920647724385887 ], [ -80.15588267347313, 25.920649724388362 ], [ -80.15578767344536, 25.920651724390915 ], [ -80.155932673475647, 25.920189724270799 ], [ -80.156009673491695, 25.919944724207056 ], [ -80.156098673507884, 25.919569724110133 ], [ -80.156106673509811, 25.919552724105703 ], [ -80.156395673571495, 25.918687723880318 ], [ -80.156515673596346, 25.918296723778724 ], [ -80.15667067362844, 25.917792723647665 ], [ -80.157034673703819, 25.916612723340922 ], [ -80.157242673764472, 25.916606723334958 ], [ -80.157431673803856, 25.916003723178125 ], [ -80.157602673839676, 25.91546272303739 ], [ -80.157659673851555, 25.915281722990315 ], [ -80.157729673865703, 25.915039722927478 ], [ -80.157558673815814, 25.915044722932407 ], [ -80.157588673820953, 25.914906722896824 ], [ -80.157697673841753, 25.914485722787848 ], [ -80.15772267384591, 25.914365722756877 ], [ -80.157813673865533, 25.914100722687792 ], [ -80.158168673914901, 25.912029722155523 ], [ -80.158204673919784, 25.911813722100014 ], [ -80.158241673923982, 25.911563722035901 ], [ -80.158343673929807, 25.910649721802116 ], [ -80.158368673931875, 25.910450721751126 ], [ -80.158421673936999, 25.910056721650207 ], [ -80.158601673940709, 25.908195721174824 ], [ -80.158621673941013, 25.907984721120965 ], [ -80.158704673942779, 25.90712772090205 ], [ -80.15872567394257, 25.906885720840268 ], [ -80.158767673942847, 25.906428720723603 ], [ -80.158778673944042, 25.906352720704067 ], [ -80.158831673954481, 25.906158720653824 ], [ -80.158850673957815, 25.906075720632362 ], [ -80.158909673968537, 25.905826720568008 ], [ -80.159005673987366, 25.905475720476993 ], [ -80.159114674010823, 25.90515572039358 ], [ -80.159300674054521, 25.904747720286206 ], [ -80.159523674107859, 25.904295720166907 ], [ -80.159547674113767, 25.904253720155733 ], [ -80.159829674183783, 25.903778720029319 ], [ -80.160130674260515, 25.903349719914164 ], [ -80.160430674338258, 25.902967719810928 ], [ -80.160593674380181, 25.902748719751909 ], [ -80.160658674396913, 25.90266271972872 ], [ -80.160833674443467, 25.90248771968065 ], [ -80.160998674485299, 25.902242719615039 ], [ -80.161892674727682, 25.901515719411627 ], [ -80.162209674812985, 25.901234719333583 ], [ -80.162386674860301, 25.901066719287233 ], [ -80.16241967486917, 25.901035719278639 ], [ -80.162457674879363, 25.900999719268736 ], [ -80.162507674892751, 25.900953719256012 ], [ -80.162698674943854, 25.900773719206306 ], [ -80.162766674957325, 25.900529719142991 ], [ -80.162761674953629, 25.900443719121288 ], [ -80.162741674947483, 25.900433719119164 ], [ -80.162620674912247, 25.900437719122817 ], [ -80.162527674885169, 25.900441719125848 ], [ -80.160387674261472, 25.90052371919257 ], [ -80.160541674291096, 25.899936719040522 ], [ -80.160592674301597, 25.899769718997128 ], [ -80.160871674359527, 25.898869718763081 ], [ -80.160937674373528, 25.898666718710231 ], [ -80.16164867452089, 25.89636071811065 ], [ -80.162440674683864, 25.893746717431188 ], [ -80.162518674699839, 25.893486717363661 ], [ -80.162779674752628, 25.892589717130733 ], [ -80.163029674801507, 25.891666716891482 ], [ -80.163287674852398, 25.890731716649015 ], [ -80.163620674923735, 25.889738716390173 ], [ -80.163730674947359, 25.889412716305223 ], [ -80.164014675005973, 25.888480716062968 ], [ -80.164304675066589, 25.887558715823058 ], [ -80.164311675068078, 25.887537715817583 ], [ -80.164550675117113, 25.88674171561069 ], [ -80.164603675127552, 25.886550715561167 ], [ -80.164697675146186, 25.886212715473501 ], [ -80.164833675177277, 25.885881715386684 ], [ -80.164885675189169, 25.885756715353914 ], [ -80.165032675218654, 25.885240715219982 ], [ -80.165408675301151, 25.884193714946527 ], [ -80.16553967533045, 25.883851714857073 ], [ -80.165545675331742, 25.883832714852101 ], [ -80.165568675337028, 25.883777714837684 ], [ -80.165447675301763, 25.883782714841544 ], [ -80.165383675283167, 25.883785714843658 ], [ -80.164855675129303, 25.883808714860834 ], [ -80.160430673771884, 25.881392714343498 ], [ -80.159952673625327, 25.881136714288836 ], [ -80.159734673558503, 25.881017714263354 ], [ -80.159673673540681, 25.881019714265168 ], [ -80.158715673261156, 25.88104571429232 ], [ -80.150970670991597, 25.880876714415717 ], [ -80.15170567118092, 25.879897714151742 ], [ -80.153670671686911, 25.877277713445476 ], [ -80.154805671953326, 25.874776712787174 ], [ -80.154930671982569, 25.874498712714043 ], [ -80.155807672188473, 25.872567712205726 ], [ -80.146840669569002, 25.872685712427913 ], [ -80.145472669169635, 25.872714712464603 ], [ -80.145773669229953, 25.871655712189675 ], [ -80.147470669462351, 25.861577709598194 ], [ -80.147818669509348, 25.859485709060284 ], [ -80.152708670939461, 25.859480708954212 ], [ -80.161744673582078, 25.859480708760618 ], [ -80.16191167362129, 25.859113708664005 ], [ -80.163470673987334, 25.855677707759469 ], [ -80.161770673492782, 25.855777707821211 ], [ -80.161382673379649, 25.855790707832842 ], [ -80.161273673296165, 25.853818707335137 ], [ -80.161109673107475, 25.848436705973924 ], [ -80.160937672909498, 25.842787704545071 ], [ -80.160807672793652, 25.839809703792611 ], [ -80.160675672675694, 25.836771703024922 ], [ -80.16049967253457, 25.833336702157439 ], [ -80.160234672326013, 25.828315700889497 ], [ -80.160063672239531, 25.826918700538808 ], [ -80.159905672122321, 25.82419769985195 ], [ -80.159792672034627, 25.822102699322908 ], [ -80.159598671913599, 25.81963569870123 ], [ -80.159582671892167, 25.818993698538669 ], [ -80.159470671786622, 25.816201697832732 ], [ -80.159399671681683, 25.812971697014756 ], [ -80.159950671791819, 25.811014696506476 ], [ -80.160045671810749, 25.810675696418421 ], [ -80.160092671820166, 25.810507696374756 ], [ -80.160213671844403, 25.810080696263835 ], [ -80.16057767191721, 25.808789695928525 ], [ -80.161128672030969, 25.806969695454971 ], [ -80.161742672153579, 25.80478369488716 ], [ -80.162638672332093, 25.801575694054044 ], [ -80.163255672455193, 25.799373693482075 ], [ -80.163867672577467, 25.797195692916304 ], [ -80.164130672631629, 25.796320692688656 ], [ -80.164968672796746, 25.793247691890944 ], [ -80.164991672801278, 25.793163691869111 ], [ -80.165656672932258, 25.790722691235462 ], [ -80.165687672938276, 25.790605691205052 ], [ -80.165717672944297, 25.790499691177573 ], [ -80.165739672948703, 25.790422691157524 ], [ -80.165757672949312, 25.790242691111416 ], [ -80.165848672970668, 25.790040691058241 ], [ -80.166156673030869, 25.788891690760071 ], [ -80.166962673197048, 25.786217690064188 ], [ -80.168467673523921, 25.781860688926272 ], [ -80.168923673606471, 25.779906688420574 ], [ -80.16897167361526, 25.779704688368263 ], [ -80.16923267369468, 25.779822688392649 ], [ -80.171885674500402, 25.78097668862911 ], [ -80.172913674821217, 25.781753688804379 ], [ -80.173118674886993, 25.781978688857151 ], [ -80.17332467495315, 25.782206688910644 ], [ -80.173644675056366, 25.782577688998011 ], [ -80.173764675096308, 25.782763689042639 ], [ -80.174282675268643, 25.783565689235182 ], [ -80.174636675387575, 25.784158689378131 ], [ -80.175288675606836, 25.78525968964367 ], [ -80.175492675674761, 25.785577689720043 ], [ -80.175663675731542, 25.785839689782907 ], [ -80.175783675770916, 25.786005689822467 ], [ -80.176233675914574, 25.786469689930659 ], [ -80.176697676059987, 25.786842690015401 ], [ -80.177361676264255, 25.787230690099708 ], [ -80.178005676457218, 25.787411690131922 ], [ -80.178740676676085, 25.787562690154594 ], [ -80.178795676692204, 25.7875646901539 ], [ -80.179319676846077, 25.78758869014883 ], [ -80.18052167719496, 25.787489690098123 ], [ -80.1825946777995, 25.787427690038196 ], [ -80.185127678536048, 25.787269689944115 ], [ -80.185466678634626, 25.787248689931552 ], [ -80.185950678774873, 25.787200689909085 ], [ -80.18653667894236, 25.787052689859063 ], [ -80.186578678954319, 25.787039689854851 ], [ -80.186726678997374, 25.787030689849434 ], [ -80.187037679085535, 25.786925689816133 ], [ -80.187925679334938, 25.786530689696939 ], [ -80.189083679661167, 25.786055689551734 ], [ -80.189622679815301, 25.785922689506474 ], [ -80.190060679941638, 25.785855689480154 ], [ -80.190675680121331, 25.785851689466043 ], [ -80.19129968030407, 25.78586168945532 ], [ -80.191833680461258, 25.785904689454856 ], [ -80.192216680573793, 25.785925689451972 ], [ -80.192354680614628, 25.78594268945335 ], [ -80.192731680726027, 25.785988689456993 ], [ -80.19322868087292, 25.786049689461915 ], [ -80.193287680890464, 25.786060689463397 ], [ -80.194034681112612, 25.786204689484041 ], [ -80.194299681191438, 25.786255689491345 ], [ -80.195071681424025, 25.786520689542161 ], [ -80.195272681484724, 25.786594689556612 ], [ -80.195383681518322, 25.786637689565179 ], [ -80.19605968172371, 25.786936689626625 ], [ -80.196073681727995, 25.786942689627885 ], [ -80.196181681760777, 25.786990689637754 ], [ -80.196287681792967, 25.787036689647188 ], [ -80.196506681859489, 25.787131689666595 ], [ -80.196801681949054, 25.787259689692814 ], [ -80.19688768197517, 25.787296689700337 ], [ -80.197215682074912, 25.787445689731154 ], [ -80.197993682311562, 25.787797689803931 ], [ -80.198475682458152, 25.788016689849197 ], [ -80.198689682522939, 25.788100689865953 ], [ -80.198800682556509, 25.788143689874509 ], [ -80.19904468263033, 25.788238689893408 ], [ -80.199943682904532, 25.788675689985144 ], [ -80.200085682947829, 25.788744689999643 ], [ -80.200296683012155, 25.788846690020996 ], [ -80.200595683101199, 25.788907690030118 ], [ -80.200972683214175, 25.789015690049489 ], [ -80.201566683390624, 25.789120690063442 ], [ -80.202175683569806, 25.789164690061629 ], [ -80.203755684030554, 25.78911969001653 ], [ -80.204168684150929, 25.789105690004209 ], [ -80.204355684205439, 25.789097689998137 ], [ -80.205830684635913, 25.789069689959604 ], [ -80.206090684711569, 25.789055689950505 ], [ -80.206562684848734, 25.789023689932336 ], [ -80.206954684962056, 25.788975689911815 ], [ -80.207254685048653, 25.788932689894509 ], [ -80.207464685108675, 25.788878689876359 ], [ -80.207759685192684, 25.788792689848233 ], [ -80.208011685264538, 25.788723689825339 ], [ -80.208574685423301, 25.788500689756763 ], [ -80.208598685430076, 25.788489689753451 ], [ -80.209120685575968, 25.788231689676874 ], [ -80.209245685610725, 25.788162689656726 ], [ -80.210182685873633, 25.787739689529385 ], [ -80.210316685911309, 25.787682689512099 ], [ -80.210476685955712, 25.787591689485531 ], [ -80.210554685977129, 25.787536689469945 ], [ -80.210976686095009, 25.787325689407435 ], [ -80.211474686234226, 25.787080689334648 ], [ -80.211790686322743, 25.786931689290093 ], [ -80.212105686410752, 25.786774689243529 ], [ -80.213453686786607, 25.786074689037182 ], [ -80.213501686799972, 25.786048689029585 ], [ -80.214123686974801, 25.785780688948325 ], [ -80.214861687183429, 25.785506688863073 ], [ -80.215556687379674, 25.785239688780504 ], [ -80.21612668754058, 25.785019688712552 ], [ -80.21740668790224, 25.784537688562953 ], [ -80.217836688023212, 25.784355688507627 ], [ -80.218089688094508, 25.784251688475845 ], [ -80.218215688129959, 25.784199688459978 ], [ -80.218865688314452, 25.783986688392041 ], [ -80.219372688456502, 25.783748688320884 ], [ -80.22026668870825, 25.78338168820866 ], [ -80.220475688767081, 25.783292688181692 ], [ -80.220869688878125, 25.78313468813321 ], [ -80.221562689074446, 25.782893688057271 ], [ -80.222110689231442, 25.782770688014356 ], [ -80.22273968941218, 25.782650687970524 ], [ -80.223410689607448, 25.782615687947306 ], [ -80.223513689637556, 25.782616687945364 ], [ -80.22360868966534, 25.782615687943096 ], [ -80.223915689755259, 25.782623687938624 ], [ -80.224223689845445, 25.782629687933557 ], [ -80.224265689857489, 25.782619687930147 ], [ -80.224308689870028, 25.782617687928742 ], [ -80.226057690380841, 25.782602687887653 ], [ -80.227669690851386, 25.782575687846464 ], [ -80.228130690986291, 25.782580687837896 ], [ -80.22964169142719, 25.78254968779784 ], [ -80.230451691663731, 25.782540687778276 ], [ -80.230754691753077, 25.782571687779644 ], [ -80.231223691892325, 25.782654687790735 ], [ -80.23185169208034, 25.782824687820504 ], [ -80.232184692181221, 25.782960687847925 ], [ -80.232417692251929, 25.783061687868553 ], [ -80.232715692342893, 25.783210687900016 ], [ -80.234059692751586, 25.783818688025637 ], [ -80.234830692985156, 25.784134688089363 ], [ -80.235255693113857, 25.784305688123716 ], [ -80.235733693257274, 25.784449688150037 ], [ -80.236355693443286, 25.784608688177112 ], [ -80.23706869365553, 25.784756688199494 ], [ -80.237115693669438, 25.784762688200026 ], [ -80.237148693679202, 25.784768688200813 ], [ -80.237939693913461, 25.784885688213617 ], [ -80.238256694006964, 25.78491868821526 ], [ -80.238668694128108, 25.784944688213074 ], [ -80.239155694270863, 25.784961688207019 ], [ -80.239523694378121, 25.784948688195861 ], [ -80.239524694381814, 25.785079688229089 ], [ -80.239535694396125, 25.785506688337186 ], [ -80.239572694430507, 25.786412688566219 ], [ -80.239578694443793, 25.786855688678489 ], [ -80.241120694894178, 25.786843688642538 ], [ -80.242112695182655, 25.786785688606713 ], [ -80.24364869563081, 25.786755688566327 ], [ -80.246563696480564, 25.786669688482402 ], [ -80.247762696830179, 25.7866356884482 ], [ -80.247791696857675, 25.787367688633299 ], [ -80.247798696872707, 25.787867688759956 ], [ -80.246599696523504, 25.787914688797457 ], [ -80.246620696561664, 25.789145689109247 ], [ -80.247805696906411, 25.789085689068795 ], [ -80.247860696936002, 25.789602689198773 ], [ -80.247870696959197, 25.790383689396613 ], [ -80.247895696985253, 25.791104689578976 ], [ -80.247919697011781, 25.79185368976848 ], [ -80.248913697301461, 25.791819689738642 ], [ -80.249967697608554, 25.79178468970732 ], [ -80.250011697641227, 25.79254568989942 ], [ -80.25002769766499, 25.793278690084982 ], [ -80.251626698131275, 25.793236690040199 ], [ -80.251587698100522, 25.792494689852834 ], [ -80.253839698757318, 25.792440689791121 ], [ -80.256095699414502, 25.792355689721436 ], [ -80.256125699443416, 25.793129689917098 ], [ -80.256142699460938, 25.793612690039243 ], [ -80.256151699469896, 25.793855690100724 ], [ -80.255703699339264, 25.793866690113031 ], [ -80.254146698885108, 25.793902690155399 ], [ -80.254084698867047, 25.793904690157227 ], [ -80.253885698808986, 25.793909690162717 ], [ -80.253574698718353, 25.793917690171376 ], [ -80.251971698251012, 25.793964690217525 ], [ -80.251632698152193, 25.793974690227273 ], [ -80.250073697697545, 25.794012690270183 ], [ -80.249776697610912, 25.794019690278276 ], [ -80.248261697169127, 25.794057690320258 ], [ -80.24797969708689, 25.794065690328292 ], [ -80.247810697037636, 25.794069690332911 ], [ -80.247691697002864, 25.794072690336179 ], [ -80.245490696361244, 25.794134690398852 ], [ -80.24537669632798, 25.794137690402046 ], [ -80.24502369622509, 25.794148690412396 ], [ -80.243874695889986, 25.79417769044424 ], [ -80.242945695619255, 25.794208690471905 ], [ -80.242707695549754, 25.794211690477745 ], [ -80.242419695465799, 25.794220690486203 ], [ -80.24206069536109, 25.79422969049612 ], [ -80.241874695306848, 25.794233690501088 ], [ -80.240258694835532, 25.794274690545969 ], [ -80.239821694707985, 25.794279690556596 ], [ -80.239846694740066, 25.795232690797789 ], [ -80.239870694770076, 25.796115691021246 ], [ -80.239902694804428, 25.797076691264326 ], [ -80.239902694812756, 25.797396691345501 ], [ -80.239916694826348, 25.797760691437496 ], [ -80.239916694830612, 25.797924691479096 ], [ -80.239919694833844, 25.798014691501855 ], [ -80.239948694865788, 25.798916691730032 ], [ -80.239986694900892, 25.799837691962814 ], [ -80.240004694927833, 25.800669692173475 ], [ -80.240027694961057, 25.801687692431223 ], [ -80.24006069499454, 25.802604692663046 ], [ -80.240078695024152, 25.803538692899579 ], [ -80.24011169505799, 25.804465693133977 ], [ -80.240138695089016, 25.805353693358601 ], [ -80.240150695104091, 25.805798693471207 ], [ -80.240161695120861, 25.806318693602865 ], [ -80.240179695150033, 25.807235693835057 ], [ -80.240217695184796, 25.80814469406474 ], [ -80.240229695200782, 25.808622694185747 ], [ -80.242234695785029, 25.80855369412544 ], [ -80.244285696382846, 25.808488694065158 ], [ -80.244383696411347, 25.808484694061999 ], [ -80.24574869680923, 25.808441694021997 ], [ -80.24620869694364, 25.808441694012163 ], [ -80.246312696974101, 25.808442694010218 ], [ -80.248358697570552, 25.808382693951295 ], [ -80.250401698166286, 25.808327693893688 ], [ -80.251471698478042, 25.80829169386174 ], [ -80.252432698758085, 25.808258693832819 ], [ -80.254330699311623, 25.808213693780875 ], [ -80.25442569933918, 25.80820569377682 ], [ -80.254531699369963, 25.808197693772552 ], [ -80.256488699940292, 25.808134693714788 ], [ -80.256478699924855, 25.807653693593043 ], [ -80.256446699891939, 25.806749693364448 ], [ -80.257805700287761, 25.806696693322003 ], [ -80.258452700489769, 25.807192693433961 ], [ -80.258471700507442, 25.807657693551494 ], [ -80.258506700540906, 25.80854869377665 ], [ -80.2585067005529, 25.809007693893079 ], [ -80.258507700563854, 25.809417693997002 ], [ -80.258508700569848, 25.809636694052536 ], [ -80.258509700572489, 25.809726694075319 ], [ -80.258518700592916, 25.810410694248553 ], [ -80.258315700534268, 25.810436694259469 ], [ -80.25818470049596, 25.810435694262022 ], [ -80.257876700405944, 25.810434694268341 ], [ -80.257618700331435, 25.810469694282766 ], [ -80.257442700280492, 25.810489694291586 ], [ -80.256573700032362, 25.810712694366639 ], [ -80.256570700029116, 25.810621694343645 ], [ -80.256568700026733, 25.810552694326187 ], [ -80.25627269994277, 25.810651694357656 ], [ -80.255958699853721, 25.810754694390454 ], [ -80.255801699809183, 25.810805694406763 ], [ -80.255112699611928, 25.810964694461806 ], [ -80.253976699286198, 25.811205694547144 ], [ -80.253142699046833, 25.811376694608327 ], [ -80.253002699006657, 25.811404694618425 ], [ -80.252881698972004, 25.811430694627585 ], [ -80.252575698884186, 25.811492694649854 ], [ -80.252554698878157, 25.811497694651553 ], [ -80.252397698833079, 25.811529694663065 ], [ -80.250595698316715, 25.811924694801682 ], [ -80.250436698271159, 25.811959694813986 ], [ -80.249741698072171, 25.812118694869142 ], [ -80.248905697830892, 25.812236694916908 ], [ -80.24848369770875, 25.812280694937083 ], [ -80.248488697717221, 25.812550695005449 ], [ -80.248525697752612, 25.813494695244021 ], [ -80.247996697597941, 25.813491695254569 ], [ -80.247492697451179, 25.813511695270424 ], [ -80.246544697174315, 25.813522695293443 ], [ -80.246556697197008, 25.814256695479315 ], [ -80.247333697423585, 25.81423769545788 ], [ -80.247812697563276, 25.814224695444356 ], [ -80.248563697781847, 25.814189695419437 ], [ -80.248562697787008, 25.814398695472462 ], [ -80.248584697806777, 25.814909695601578 ], [ -80.248599697821263, 25.815295695699131 ], [ -80.248609697831171, 25.81556469576714 ], [ -80.248631697855885, 25.816265695944384 ], [ -80.250650698443863, 25.816183695880447 ], [ -80.250662698458157, 25.816597695985184 ], [ -80.250666698469033, 25.816969696079401 ], [ -80.250709698499293, 25.817648696250643 ], [ -80.25078969854269, 25.818414696443156 ], [ -80.252746699113814, 25.81838069639273 ], [ -80.252795699146475, 25.819084696570176 ], [ -80.252804699168991, 25.819846696763197 ], [ -80.252839699203008, 25.820757696993446 ], [ -80.252889699241393, 25.82166969722357 ], [ -80.252886699250652, 25.822057697321984 ], [ -80.2529376992848, 25.822794697507767 ], [ -80.250954698706991, 25.822863697567655 ], [ -80.250958698728212, 25.823632697762509 ], [ -80.252983699318492, 25.823571697703809 ], [ -80.252986699328503, 25.82391969779194 ], [ -80.253006699343416, 25.824268697880008 ], [ -80.253136699458253, 25.827211698623298 ], [ -80.253167699478126, 25.827624698727398 ], [ -80.253185699496697, 25.828135698856514 ], [ -80.257211700670311, 25.828017698740503 ], [ -80.257232700679893, 25.828148698773258 ], [ -80.257238700701336, 25.828903698964481 ], [ -80.257310700744966, 25.829766699181782 ], [ -80.25737470079028, 25.830787699439181 ], [ -80.257445700820881, 25.831162699532758 ], [ -80.257615700956478, 25.834451700362823 ], [ -80.257673701000584, 25.835489700624692 ], [ -80.257758701066493, 25.837063701021819 ], [ -80.257805701102455, 25.837912701236046 ], [ -80.257816701111125, 25.838121701288767 ], [ -80.257845701142458, 25.838996701509931 ], [ -80.257881701178533, 25.839973701756776 ], [ -80.257925701214603, 25.840861701980913 ], [ -80.257927701217554, 25.840952702003946 ], [ -80.257933701229376, 25.841337702101381 ], [ -80.257977701263414, 25.842147702305745 ], [ -80.257980701265424, 25.842191702316835 ], [ -80.257982701266911, 25.84222670232564 ], [ -80.257994701278221, 25.842523702400641 ], [ -80.25801370129571, 25.842979702515823 ], [ -80.258023701304893, 25.843219702576427 ], [ -80.258041701319215, 25.843565702663771 ], [ -80.258077701356129, 25.844574702918656 ], [ -80.258111701389794, 25.84548270314809 ], [ -80.258112701390758, 25.845508703154657 ], [ -80.258112701391426, 25.845533703160989 ], [ -80.258156701427993, 25.846440703389899 ], [ -80.258192701462619, 25.847361703622553 ], [ -80.258213701488074, 25.848098703808883 ], [ -80.258208701488485, 25.848172703827725 ], [ -80.258228701496861, 25.848268703851602 ], [ -80.259532701877333, 25.848243703817356 ], [ -80.259645701910017, 25.848230703811659 ], [ -80.259690701923105, 25.8482287038102 ], [ -80.259731701935067, 25.848227703809076 ], [ -80.25986670197446, 25.848224703805425 ], [ -80.25987170197844, 25.848320703829632 ], [ -80.259885701991678, 25.848670703918 ], [ -80.259940702044389, 25.850071704271912 ], [ -80.259884702028089, 25.850072704273341 ], [ -80.259899702045985, 25.850588704403812 ], [ -80.259964702123682, 25.852833704971257 ], [ -80.259967702127767, 25.852953705001653 ], [ -80.260001702175742, 25.854408705369572 ], [ -80.260133702361273, 25.860019706788503 ], [ -80.260136702365159, 25.860135706817879 ], [ -80.260075702347265, 25.860133706818608 ], [ -80.260165702469493, 25.863795707744561 ], [ -80.260204702526337, 25.865529708183043 ], [ -80.260213702538479, 25.86589170827456 ], [ -80.260242702581962, 25.867227708612454 ], [ -80.260247702589467, 25.867458708670846 ], [ -80.260252702598635, 25.867752708745236 ], [ -80.260287702669416, 25.870061709329399 ], [ -80.26029570268517, 25.870574709459209 ], [ -80.260295702686435, 25.870622709471355 ], [ -80.260295702687614, 25.870667709482767 ], [ -80.260220702665762, 25.870669709484876 ], [ -80.260179702653758, 25.870669709485753 ], [ -80.260144702643558, 25.870670709486813 ], [ -80.260092702628413, 25.870672709488435 ], [ -80.260050702616141, 25.870673709489573 ], [ -80.259054702325926, 25.870706709519283 ], [ -80.259057702329343, 25.870803709543775 ], [ -80.25918270242083, 25.872898710071812 ], [ -80.259218702428143, 25.872776710040174 ], [ -80.259235702474172, 25.874343710436786 ], [ -80.259361702668826, 25.880358711957761 ], [ -80.259433702734626, 25.882064712388335 ], [ -80.260377703009809, 25.882036712360946 ], [ -80.260422703022925, 25.882034712359463 ], [ -80.260463703034887, 25.882033712358339 ], [ -80.260529703054161, 25.882032712356668 ], [ -80.262203703543236, 25.882026712319202 ], [ -80.263053703791655, 25.882025712300702 ], [ -80.264187704120502, 25.8819277122515 ], [ -80.26719970499866, 25.881844712165819 ], [ -80.269196705581081, 25.881798712111298 ], [ -80.271184706160895, 25.881752712056933 ], [ -80.273088706715939, 25.881700712002836 ], [ -80.274309707072049, 25.881671711969286 ], [ -80.275029707281689, 25.881641711946244 ], [ -80.277062707874222, 25.881581711887357 ], [ -80.279133708478511, 25.881545711833795 ], [ -80.281325709117539, 25.881486711771743 ], [ -80.283553709767119, 25.881428711709187 ], [ -80.284382710008785, 25.881405711685549 ], [ -80.285167710237417, 25.881375711661118 ], [ -80.28595171046608, 25.881358711639944 ], [ -80.287272710851227, 25.881326711603496 ], [ -80.287355710937518, 25.883688712199888 ], [ -80.287386710966715, 25.884456712393682 ], [ -80.287612711176195, 25.889918713771937 ], [ -80.287632711184372, 25.890006713793799 ], [ -80.287648711209627, 25.890789713991737 ], [ -80.287860711405216, 25.895873715274494 ], [ -80.288063711464005, 25.895853715265062 ], [ -80.28879771167766, 25.895822715241444 ], [ -80.288921711713783, 25.895817715237467 ], [ -80.289884711994489, 25.895791715210176 ], [ -80.291554712450591, 25.894576714866645 ], [ -80.291649712478389, 25.894578714865112 ], [ -80.29178971251936, 25.894581714862898 ], [ -80.291789712520028, 25.894606714869216 ], [ -80.29183271255485, 25.895453715082724 ], [ -80.291872712586709, 25.896219715275823 ], [ -80.291877712590676, 25.896316715300291 ], [ -80.291905712612092, 25.896819715427021 ], [ -80.291941712639655, 25.897467715590327 ], [ -80.292004712688396, 25.898620715880881 ] ] ] ] } }
]
}
