{
"type": "FeatureCollection",
"name": "DISTRICT_26",
"crs": { "type": "name", "properties": { "name": "urn:ogc:def:crs:OGC:1.3:CRS84" } },
"xy_coordinate_resolution": 1e-15,
"features": [
{ "type": "Feature", "properties": { "LONGNAME": "District 26", "SHORTNAME": "D26", "DISTRICT": 26, "COLOR": -988417664, "TOTAL": 769221, "TARGET_DEV": 0 }, "geometry": { "type": "MultiPolygon", "coordinates": [ [ [ [ -80.258452700489769, 25.807192693433961 ], [ -80.257805700287761, 25.806696693322003 ], [ -80.256446699891939, 25.806749693364448 ], [ -80.256478699924855, 25.807653693593043 ], [ -80.256488699940292, 25.808134693714788 ], [ -80.254531699369963, 25.808197693772552 ], [ -80.25442569933918, 25.80820569377682 ], [ -80.254330699311623, 25.808213693780875 ], [ -80.252432698758085, 25.808258693832819 ], [ -80.251471698478042, 25.80829169386174 ], [ -80.250401698166286, 25.808327693893688 ], [ -80.248358697570552, 25.808382693951295 ], [ -80.246312696974101, 25.808442694010218 ], [ -80.24620869694364, 25.808441694012163 ], [ -80.24574869680923, 25.808441694021997 ], [ -80.244383696411347, 25.808484694061999 ], [ -80.244285696382846, 25.808488694065158 ], [ -80.242234695785029, 25.80855369412544 ], [ -80.240229695200782, 25.808622694185747 ], [ -80.240217695184796, 25.80814469406474 ], [ -80.240179695150033, 25.807235693835057 ], [ -80.240161695120861, 25.806318693602865 ], [ -80.240150695104091, 25.805798693471207 ], [ -80.240138695089016, 25.805353693358601 ], [ -80.24011169505799, 25.804465693133977 ], [ -80.240078695024152, 25.803538692899579 ], [ -80.24006069499454, 25.802604692663046 ], [ -80.240027694961057, 25.801687692431223 ], [ -80.240004694927833, 25.800669692173475 ], [ -80.239986694900892, 25.799837691962814 ], [ -80.239948694865788, 25.798916691730032 ], [ -80.239919694833844, 25.798014691501855 ], [ -80.239916694830612, 25.797924691479096 ], [ -80.239916694826348, 25.797760691437496 ], [ -80.239902694812756, 25.797396691345501 ], [ -80.239902694804428, 25.797076691264326 ], [ -80.239870694770076, 25.796115691021246 ], [ -80.239846694740066, 25.795232690797789 ], [ -80.239821694707985, 25.794279690556596 ], [ -80.240258694835532, 25.794274690545969 ], [ -80.241874695306848, 25.794233690501088 ], [ -80.24206069536109, 25.79422969049612 ], [ -80.242419695465799, 25.794220690486203 ], [ -80.242707695549754, 25.794211690477745 ], [ -80.242945695619255, 25.794208690471905 ], [ -80.243874695889986, 25.79417769044424 ], [ -80.24502369622509, 25.794148690412396 ], [ -80.24537669632798, 25.794137690402046 ], [ -80.245490696361244, 25.794134690398852 ], [ -80.247691697002864, 25.794072690336179 ], [ -80.247810697037636, 25.794069690332911 ], [ -80.24797969708689, 25.794065690328292 ], [ -80.248261697169127, 25.794057690320258 ], [ -80.249776697610912, 25.794019690278276 ], [ -80.250073697697545, 25.794012690270183 ], [ -80.251632698152193, 25.793974690227273 ], [ -80.251971698251012, 25.793964690217525 ], [ -80.253574698718353, 25.793917690171376 ], [ -80.253885698808986, 25.793909690162717 ], [ -80.254084698867047, 25.793904690157227 ], [ -80.254146698885108, 25.793902690155399 ], [ -80.255703699339264, 25.793866690113031 ], [ -80.256151699469896, 25.793855690100724 ], [ -80.256159699480477, 25.794172690180933 ], [ -80.256161699482846, 25.794239690197902 ], [ -80.256170699489758, 25.794404690239521 ], [ -80.258357700124748, 25.794244690152311 ], [ -80.259019700316941, 25.794195690125758 ], [ -80.262508701330304, 25.793952689989688 ], [ -80.262836701423751, 25.79385868995886 ], [ -80.263092701496618, 25.793784689934647 ], [ -80.263529701622147, 25.793699689903754 ], [ -80.263849701714065, 25.79363768988118 ], [ -80.264149701800193, 25.793579689860074 ], [ -80.264208701817168, 25.793568689856023 ], [ -80.264298701843103, 25.793554689850549 ], [ -80.264388701868839, 25.793532689843044 ], [ -80.264483701895969, 25.793508689834933 ], [ -80.264596701927815, 25.793463689821106 ], [ -80.264684701952675, 25.79342968981064 ], [ -80.264809701987659, 25.793369689792733 ], [ -80.264977702033775, 25.793255689760223 ], [ -80.265108702070535, 25.793196689742469 ], [ -80.265327702130691, 25.793048689700282 ], [ -80.265463702167963, 25.792953689673304 ], [ -80.265543702189433, 25.792881689653289 ], [ -80.265659702220574, 25.792775689623976 ], [ -80.265780702253466, 25.792678689596748 ], [ -80.265845702270596, 25.792607689577359 ], [ -80.265923702291602, 25.792539689558428 ], [ -80.266326702399169, 25.792147689450456 ], [ -80.266388702415355, 25.792072689430086 ], [ -80.26658770246857, 25.79188268937768 ], [ -80.266682702493625, 25.791778689349268 ], [ -80.266753702512815, 25.791719689332815 ], [ -80.266810702527877, 25.791656689315605 ], [ -80.266863702541343, 25.791579689294959 ], [ -80.266951702564896, 25.791495689271766 ], [ -80.267059702594395, 25.791416689249392 ], [ -80.267241702643233, 25.791249689203173 ], [ -80.267448702698232, 25.791038689145267 ], [ -80.267603702739805, 25.790895689105657 ], [ -80.267804702793143, 25.790687689048642 ], [ -80.267948702831788, 25.790555689012077 ], [ -80.268000702845299, 25.790491688994713 ], [ -80.268402702952883, 25.790111688889766 ], [ -80.268527702986674, 25.790005688860262 ], [ -80.268601703006013, 25.789917688836368 ], [ -80.268702703033625, 25.789844688815698 ], [ -80.268824703066343, 25.789732688784696 ], [ -80.268894703084769, 25.789654688763381 ], [ -80.269013703116826, 25.789550688734447 ], [ -80.269111703142912, 25.789450688707007 ], [ -80.269194703164274, 25.789341688677592 ], [ -80.269300703190169, 25.789145688625599 ], [ -80.269347703202016, 25.789073688606333 ], [ -80.269580703264452, 25.788853688545618 ], [ -80.269733703305931, 25.788730688511137 ], [ -80.269844703336446, 25.788657688490265 ], [ -80.26993270336034, 25.788586688470378 ], [ -80.270006703379835, 25.78850568844824 ], [ -80.270076703397649, 25.788402688420593 ], [ -80.270184703425713, 25.788268688384367 ], [ -80.270282703452011, 25.788177688359145 ], [ -80.270348703469253, 25.788099688337972 ], [ -80.27042070348854, 25.78803268831944 ], [ -80.270675703555867, 25.787756688244023 ], [ -80.270692703560584, 25.787746688241086 ], [ -80.270822703594604, 25.787592688199318 ], [ -80.270873703607634, 25.78752168818016 ], [ -80.270898703614208, 25.787493688172543 ], [ -80.271010703643057, 25.78734468813235 ], [ -80.270963703626961, 25.787252688110012 ], [ -80.271169703681267, 25.787027688048553 ], [ -80.271227703699481, 25.787074688059285 ], [ -80.271269703712647, 25.787108688066976 ], [ -80.271372703739388, 25.786980688032301 ], [ -80.271450703759669, 25.786882688005807 ], [ -80.271619703804021, 25.786690687953485 ], [ -80.272087703924655, 25.786069687786021 ], [ -80.272355703994492, 25.785743687697586 ], [ -80.272727704092986, 25.785352687590521 ], [ -80.273143704203207, 25.784914687470575 ], [ -80.273844704389106, 25.784185687270675 ], [ -80.274049704443442, 25.783972687212302 ], [ -80.274099704456248, 25.783902687193503 ], [ -80.274162704471138, 25.783767687157919 ], [ -80.274178704474934, 25.78373268714866 ], [ -80.274201704481939, 25.783743687151006 ], [ -80.274284704507252, 25.783783687159332 ], [ -80.274388704538907, 25.783833687169835 ], [ -80.274459704560556, 25.78386768717694 ], [ -80.27608770505347, 25.784526687309352 ], [ -80.277101705359925, 25.784916687386691 ], [ -80.277895705598056, 25.785151687429348 ], [ -80.27821570569327, 25.785217687439268 ], [ -80.279344706028283, 25.785413687464899 ], [ -80.280524706375985, 25.785522687467406 ], [ -80.282017706811686, 25.785500687429991 ], [ -80.283284707177671, 25.785338687361861 ], [ -80.285454707799573, 25.784867687196122 ], [ -80.286785708180759, 25.784569687092173 ], [ -80.288548708687642, 25.784252686974195 ], [ -80.288821708766918, 25.784232686963289 ], [ -80.289277708899306, 25.784200686945493 ], [ -80.289740709035001, 25.784214686939134 ], [ -80.290413709232325, 25.784241686931672 ], [ -80.290990709402578, 25.784303686935047 ], [ -80.2922997097902, 25.784501686957366 ], [ -80.292933709977405, 25.784576686962918 ], [ -80.293452710130325, 25.784625686964258 ], [ -80.294318710384204, 25.784658686954135 ], [ -80.295206710643839, 25.784663686936469 ], [ -80.296139710915526, 25.784628686907705 ], [ -80.297852711415828, 25.784620686869179 ], [ -80.299232711817822, 25.784571686827292 ], [ -80.30151971248354, 25.784476686754452 ], [ -80.302983712907007, 25.784311686681399 ], [ -80.304103713227519, 25.784051686591557 ], [ -80.304816713427911, 25.783746686499043 ], [ -80.30533271357298, 25.783527686432478 ], [ -80.306820713989424, 25.782823686222258 ], [ -80.307307714125898, 25.782601686155569 ], [ -80.307410714154216, 25.782531686135599 ], [ -80.307513714182875, 25.782477686119698 ], [ -80.307636714217537, 25.782427686104413 ], [ -80.308081714342379, 25.782228686044441 ], [ -80.308288714400561, 25.782140686017719 ], [ -80.308412714435534, 25.782093686003147 ], [ -80.308670714507855, 25.781974685967484 ], [ -80.308773714536869, 25.781934685955125 ], [ -80.308922714579055, 25.781881685938529 ], [ -80.309986714876828, 25.781378685788329 ], [ -80.312153715483305, 25.780354685482394 ], [ -80.312501715582172, 25.780245685447344 ], [ -80.312610715613246, 25.78021568543743 ], [ -80.31272071564463, 25.780186685427751 ], [ -80.312837715678015, 25.780156685417591 ], [ -80.312957715712329, 25.780128685407952 ], [ -80.31306971574449, 25.780105685399747 ], [ -80.313188715778622, 25.78008268539136 ], [ -80.313276715803894, 25.780065685385171 ], [ -80.313426715847072, 25.780040685375635 ], [ -80.313544715881051, 25.780021685368293 ], [ -80.313665715916059, 25.780006685361936 ], [ -80.313786715951053, 25.779993685356047 ], [ -80.313901715984258, 25.779979685350039 ], [ -80.314022716019409, 25.779970685345194 ], [ -80.314140716053629, 25.779960685340168 ], [ -80.314258716087977, 25.77995668533659 ], [ -80.314379716123156, 25.779950685332494 ], [ -80.314498716157914, 25.779948685329469 ], [ -80.314622716194094, 25.779948685326811 ], [ -80.314846716259638, 25.779951685322803 ], [ -80.314946716289015, 25.779956685321931 ], [ -80.315075716326845, 25.779963685320979 ], [ -80.315156716350685, 25.779969685320761 ], [ -80.315247716377399, 25.779974685320081 ], [ -80.31537471641478, 25.779984685319945 ], [ -80.315552716467366, 25.780008685322226 ], [ -80.315742716523545, 25.780033685324501 ], [ -80.315856716557263, 25.780049685326116 ], [ -80.315976716592857, 25.780070685328859 ], [ -80.316095716628269, 25.780093685332155 ], [ -80.31621171666275, 25.780117685335775 ], [ -80.316328716697654, 25.780144685340169 ], [ -80.31652071675488, 25.780189685347484 ], [ -80.318271717276502, 25.780575685408042 ], [ -80.318684717399123, 25.780649685417977 ], [ -80.319774717723675, 25.780885685454621 ], [ -80.319942717773685, 25.780921685460147 ], [ -80.320556717956023, 25.781034685475706 ], [ -80.320828718036154, 25.781060685476483 ], [ -80.320905718058924, 25.781072685477916 ], [ -80.320976718079962, 25.781083685479157 ], [ -80.321008718089459, 25.781088685479787 ], [ -80.32104271809952, 25.781093685480315 ], [ -80.321117718121727, 25.781103685481245 ], [ -80.321528718243243, 25.781159685486696 ], [ -80.321859718341244, 25.781208685492068 ], [ -80.322266718461719, 25.781269685498859 ], [ -80.322794718616549, 25.78129368549369 ], [ -80.323895718940676, 25.78138768549405 ], [ -80.324961719254233, 25.78147068549238 ], [ -80.325301719354627, 25.781511685495481 ], [ -80.326747719777927, 25.781543685472784 ], [ -80.327559720015131, 25.781543685455482 ], [ -80.328519720296882, 25.781594685447921 ], [ -80.328752720364889, 25.781591685442198 ], [ -80.32910272046783, 25.781618685441579 ], [ -80.331183721077196, 25.781673685411185 ], [ -80.333016721610321, 25.781583685349293 ], [ -80.334850722146214, 25.781586685310923 ], [ -80.33669172268354, 25.781570685267603 ], [ -80.336777722708646, 25.781569685265527 ], [ -80.339330723454083, 25.781555685207522 ], [ -80.343590724699339, 25.781589685125329 ], [ -80.349611726458448, 25.781604685000751 ], [ -80.352719727366519, 25.78161368493674 ], [ -80.35309472747609, 25.781614684928972 ], [ -80.359000729203032, 25.781687684821541 ], [ -80.361926730053838, 25.781541684722139 ], [ -80.363082730391127, 25.78152668469367 ], [ -80.363684730565566, 25.78147468466765 ], [ -80.364764730878576, 25.781380684620817 ], [ -80.365715731154097, 25.781292684578219 ], [ -80.367690731723641, 25.781014684465596 ], [ -80.368976732092335, 25.780750684371288 ], [ -80.368922732084897, 25.781069684453282 ], [ -80.368826732070644, 25.781598684589415 ], [ -80.368802732070762, 25.781872684659366 ], [ -80.368781732069692, 25.782067684709268 ], [ -80.368743732067514, 25.782410684797011 ], [ -80.368727732066404, 25.782548684832324 ], [ -80.368678732064126, 25.783010684950508 ], [ -80.368645732086151, 25.78422668525948 ], [ -80.36876573217188, 25.786174685750701 ], [ -80.368771732198098, 25.787114685988815 ], [ -80.368780732222703, 25.787957686202333 ], [ -80.368829732283373, 25.789738686652704 ], [ -80.368914732357666, 25.791637687132209 ], [ -80.368932732373381, 25.792040687233964 ], [ -80.368996732429679, 25.793484687598578 ], [ -80.369001732454549, 25.794383687826326 ], [ -80.369061732495581, 25.795285688053674 ], [ -80.36906973251844, 25.796073688253223 ], [ -80.369090732546496, 25.796914688465929 ], [ -80.369094732550366, 25.797016688491688 ], [ -80.369095732551614, 25.797053688501045 ], [ -80.369097732554408, 25.797138688522562 ], [ -80.369317732618626, 25.797138688517855 ], [ -80.36937173263442, 25.797138688516711 ], [ -80.370648733007314, 25.797135688488634 ], [ -80.377038734873167, 25.797122688348932 ], [ -80.377106734893033, 25.797122688347468 ], [ -80.380505735885592, 25.797117688273634 ], [ -80.384516737056799, 25.79711068818618 ], [ -80.384798737139093, 25.797109688179905 ], [ -80.384977737191505, 25.797114688177327 ], [ -80.385228737265251, 25.797132688176546 ], [ -80.385210737257324, 25.797029688150861 ], [ -80.385015737200504, 25.797033688156016 ], [ -80.384991737193786, 25.797044688159303 ], [ -80.384989737191191, 25.796966688139605 ], [ -80.384988737187768, 25.796846688109234 ], [ -80.384969737159167, 25.79596268788557 ], [ -80.384926737096706, 25.794046687400947 ], [ -80.384842736975543, 25.790337686462752 ], [ -80.384814736935411, 25.789110686152402 ], [ -80.384765736865546, 25.786975685612322 ], [ -80.384616736815303, 25.786718685550394 ], [ -80.384605736802413, 25.786345685456084 ], [ -80.384582736774703, 25.785538685252011 ], [ -80.384565736754027, 25.784936685099826 ], [ -80.384525736705683, 25.783527684743529 ], [ -80.384504736680881, 25.78281068456225 ], [ -80.384648736717338, 25.782596684504956 ], [ -80.384686736726962, 25.78253868448942 ], [ -80.38471973673532, 25.782488684476057 ], [ -80.384731736738289, 25.782469684470968 ], [ -80.384736736738034, 25.782403684454117 ], [ -80.384748736737791, 25.782258684417148 ], [ -80.384749736737675, 25.782242684413049 ], [ -80.38471273672684, 25.782242684413852 ], [ -80.384483736659959, 25.782242684418712 ], [ -80.384352736621707, 25.782242684421497 ], [ -80.384353736621449, 25.782222684416418 ], [ -80.384360736621815, 25.782156684399556 ], [ -80.384364736618693, 25.781991684357656 ], [ -80.384367736615943, 25.781851684322117 ], [ -80.384772736735144, 25.781887684322566 ], [ -80.385139736842078, 25.781879684312738 ], [ -80.385551736962995, 25.781900684309271 ], [ -80.385746737020185, 25.781911684307879 ], [ -80.385889737062186, 25.781919684306892 ], [ -80.386015737099299, 25.781932684307453 ], [ -80.386234737163832, 25.781954684308367 ], [ -80.387100737417441, 25.781982684296974 ], [ -80.388498737824051, 25.781919684251243 ], [ -80.389323738066096, 25.78196268424448 ], [ -80.390130738304549, 25.782069684254395 ], [ -80.390829738512451, 25.782214684276276 ], [ -80.391541738726417, 25.782445684319619 ], [ -80.392274738946625, 25.782683684364287 ], [ -80.392569739035523, 25.78278968438487 ], [ -80.392753739090949, 25.782855684397674 ], [ -80.393359739273308, 25.783062684437194 ], [ -80.394330739561354, 25.783235684460347 ], [ -80.394645739655104, 25.783303684470869 ], [ -80.395017739766004, 25.783388684484489 ], [ -80.395256739837023, 25.783435684491288 ], [ -80.395577739931227, 25.783454684489264 ], [ -80.398037740650608, 25.783494684446893 ], [ -80.400744741441244, 25.783501684390931 ], [ -80.400806741459377, 25.783501684389606 ], [ -80.401192741571762, 25.78349068437857 ], [ -80.402779742035563, 25.783503684348027 ], [ -80.404768742616326, 25.783503684305597 ], [ -80.406827743217889, 25.783516684264924 ], [ -80.407072743289262, 25.783511684258443 ], [ -80.408801743794214, 25.783514684222311 ], [ -80.411820744676987, 25.783563684170367 ], [ -80.412493744873771, 25.783574684158758 ], [ -80.413404745139388, 25.783558684135247 ], [ -80.413920745288507, 25.78349968410933 ], [ -80.414407745426857, 25.783352684061661 ], [ -80.414719745515526, 25.783258684031189 ], [ -80.415363745696894, 25.783001683952339 ], [ -80.415826745825598, 25.782754683879865 ], [ -80.416231745937026, 25.782492683804822 ], [ -80.416279745950163, 25.782458683795145 ], [ -80.416965746136171, 25.781908683641145 ], [ -80.417050746158765, 25.781822683617523 ], [ -80.41705074616128, 25.781918683641834 ], [ -80.417037746161213, 25.782063683678892 ], [ -80.417069746169602, 25.782027683669071 ], [ -80.41719274620317, 25.781936683643366 ], [ -80.417971746413627, 25.781282683461043 ], [ -80.418102746448952, 25.78117268343038 ], [ -80.418446746542202, 25.780894683352603 ], [ -80.41879874663698, 25.780589683267774 ], [ -80.419136746727119, 25.780260683177215 ], [ -80.419352746780433, 25.779884683077295 ], [ -80.419455746802896, 25.779593683001352 ], [ -80.419521746813871, 25.779274682919112 ], [ -80.419549746812052, 25.778889682820964 ], [ -80.419493746784923, 25.778475682717247 ], [ -80.419408746753533, 25.77822268265491 ], [ -80.419296746714437, 25.777977682595193 ], [ -80.419005746617771, 25.77752768248736 ], [ -80.418450746438396, 25.776860682330199 ], [ -80.418028746301005, 25.776315682201087 ], [ -80.417690746191326, 25.775892682101073 ], [ -80.417530746137516, 25.775620682035559 ], [ -80.4174737461164, 25.775449681993408 ], [ -80.417417746095737, 25.775282681952316 ], [ -80.417251746027901, 25.774537681767036 ], [ -80.417284746003887, 25.773243681438345 ], [ -80.417270745996831, 25.773130681409995 ], [ -80.417232745977799, 25.77282468133328 ], [ -80.417205745964026, 25.772599681276834 ], [ -80.417204745962493, 25.772551681264645 ], [ -80.417171745907822, 25.770818680826117 ], [ -80.417134745846369, 25.768871680333433 ], [ -80.417118745788912, 25.766838679818491 ], [ -80.417087745739948, 25.765304679430315 ], [ -80.417037745621485, 25.761305678417664 ], [ -80.417036745619868, 25.761255678404986 ], [ -80.417035745618378, 25.761208678393121 ], [ -80.417032745610641, 25.760944678326254 ], [ -80.417523745753925, 25.760941678315046 ], [ -80.420889746736279, 25.760926678239532 ], [ -80.424807747879399, 25.760896678148487 ], [ -80.426943748502609, 25.760880678098907 ], [ -80.432865750232111, 25.760903677978582 ], [ -80.433469750408506, 25.760905677966214 ], [ -80.434240750633691, 25.76090967795081 ], [ -80.435956751134682, 25.760911677914763 ], [ -80.436881751404755, 25.760912677895302 ], [ -80.438852751980249, 25.760914677853872 ], [ -80.438929752002679, 25.76091467785222 ], [ -80.440990752604449, 25.760916677808833 ], [ -80.443945753467162, 25.760920677746892 ], [ -80.444494753627481, 25.760921677735432 ], [ -80.446986754354995, 25.760924677683104 ], [ -80.447361754464495, 25.76092567767536 ], [ -80.448078754673844, 25.760926677660326 ], [ -80.448970754934237, 25.760927677641604 ], [ -80.449166754991424, 25.760926677637173 ], [ -80.454983756688648, 25.760896677505659 ], [ -80.464240759390051, 25.760869677301603 ], [ -80.471222761427015, 25.76083367714369 ], [ -80.471402761479524, 25.760832677139589 ], [ -80.473043761958664, 25.760838677106154 ], [ -80.477145763156258, 25.760853677022553 ], [ -80.481368764389131, 25.760868676936408 ], [ -80.483598765040156, 25.760876676890891 ], [ -80.484070765179567, 25.760939676896804 ], [ -80.484408765280619, 25.761032676913164 ], [ -80.486266765822748, 25.761026676872071 ], [ -80.493804768022017, 25.761003676705599 ], [ -80.494664768272926, 25.761000676686468 ], [ -80.497220769018583, 25.76099267663 ], [ -80.497256769029107, 25.760992676629211 ], [ -80.497951769231889, 25.760990676613911 ], [ -80.498045769259306, 25.760990676611911 ], [ -80.498112769278862, 25.760990676610476 ], [ -80.498422769370492, 25.761034676615026 ], [ -80.527887777967351, 25.760998675977895 ], [ -80.529393778406757, 25.761001675946559 ], [ -80.534397779863369, 25.760870675806771 ], [ -80.536909780597242, 25.760909675763045 ], [ -80.545217783023148, 25.760989675606254 ], [ -80.548562783999301, 25.761000675537701 ], [ -80.550756784638082, 25.760952675478784 ], [ -80.555514786026876, 25.760980675384484 ], [ -80.561495787771577, 25.760980675256956 ], [ -80.569431790085801, 25.760952675080645 ], [ -80.577363792399666, 25.760960674913594 ], [ -80.58112279349595, 25.760956674832386 ], [ -80.603285799959167, 25.760932674353743 ], [ -80.605673800655637, 25.760935674303617 ], [ -80.627040806886598, 25.760940673849188 ], [ -80.649145813330009, 25.760877673361765 ], [ -80.662263817156386, 25.760954673101391 ], [ -80.666921818514467, 25.760961673003816 ], [ -80.67217982004739, 25.760969672893673 ], [ -80.673033820300063, 25.761112672911629 ], [ -80.673724820506877, 25.761318672949059 ], [ -80.674007820592465, 25.761436672972856 ], [ -80.674077820613476, 25.761460672977442 ], [ -80.674147820634445, 25.761482672981511 ], [ -80.675460821027954, 25.761896673058249 ], [ -80.676255821261705, 25.761975673061322 ], [ -80.681725822857018, 25.762007672952674 ], [ -80.699780828118818, 25.761980672560608 ], [ -80.728178836395074, 25.761990671957065 ], [ -80.749872842715249, 25.76195167148418 ], [ -80.764611847008794, 25.761926671163252 ], [ -80.766488847555507, 25.761922671122118 ], [ -80.76767784790195, 25.76192467109724 ], [ -80.769493848431068, 25.761926671059033 ], [ -80.77046084871283, 25.761927671038642 ], [ -80.774602849918878, 25.761905670944639 ], [ -80.775695850236374, 25.761871670912686 ], [ -80.77812885094562, 25.761890670865562 ], [ -80.796396856266099, 25.761856670466905 ], [ -80.817183862318828, 25.761795670007658 ], [ -80.820328863234423, 25.761782669937176 ], [ -80.820688863339413, 25.761787669930758 ], [ -80.821078863452996, 25.761788669922673 ], [ -80.821565863595083, 25.761797669914579 ], [ -80.822398863837833, 25.76180266989806 ], [ -80.825875864850119, 25.761792669821279 ], [ -80.827365865289252, 25.761993669840294 ], [ -80.828518865637278, 25.762464669934683 ], [ -80.829531865947203, 25.763037670057951 ], [ -80.854552873867888, 25.787374675673828 ], [ -80.864885877140182, 25.797468678002719 ], [ -80.873098879738237, 25.805381679825526 ], [ -80.873102879745446, 25.805610679883248 ], [ -80.873125879756302, 25.805768679922675 ], [ -80.873189879785244, 25.806165680021532 ], [ -80.873194879922892, 25.811368681335523 ], [ -80.873168879996228, 25.814458682116431 ], [ -80.873242880741984, 25.842082689089381 ], [ -80.873246880789267, 25.843839689532789 ], [ -80.873267880825338, 25.844980689820321 ], [ -80.87329288086724, 25.846298690152491 ], [ -80.873360880985828, 25.85005969110032 ], [ -80.873413881041188, 25.851580691483104 ], [ -80.873390881037679, 25.851701691514105 ], [ -80.873562881338657, 25.861244693918842 ], [ -80.873574881360227, 25.861931694091911 ], [ -80.87358388137568, 25.862420694215125 ], [ -80.873558881523692, 25.868321695704729 ], [ -80.873512881696058, 25.875378697486315 ], [ -80.873602882590774, 25.908305705789822 ], [ -80.873457882871222, 25.920512708870991 ], [ -80.873318883140996, 25.932236711829731 ], [ -80.873270883166569, 25.933728712206864 ], [ -80.872994883532002, 25.950550716452792 ], [ -80.872959884101178, 25.972370721951648 ], [ -80.872934884281847, 25.979438723732752 ], [ -80.87294088434048, 25.981578724271721 ], [ -80.872960884517141, 25.987998725888374 ], [ -80.872967884576227, 25.990139726427469 ], [ -80.872967884582309, 25.99036772648487 ], [ -80.872968884600809, 25.991052726657369 ], [ -80.872969884607201, 25.991281726715055 ], [ -80.872972884652455, 25.992948727134863 ], [ -80.872981884788359, 25.997952728394861 ], [ -80.872985884833952, 25.999620728814829 ], [ -80.872974884831621, 25.999652728823097 ], [ -80.872944884825543, 25.999750728848458 ], [ -80.872934884823465, 25.999783728856972 ], [ -80.872896884815532, 25.999901728887501 ], [ -80.872786884792973, 26.000255728979052 ], [ -80.872750884785646, 26.000374729009788 ], [ -80.872786884823839, 26.001413729270705 ], [ -80.872896884938967, 26.004533730053947 ], [ -80.872933884977513, 26.00557373031501 ], [ -80.873097885149178, 26.01022173148181 ], [ -80.873590885664939, 26.024165734981612 ], [ -80.873755885837213, 26.028813736148056 ], [ -80.873961886053408, 26.034658737614745 ], [ -80.874582886703408, 26.052193742014033 ], [ -80.874789886920325, 26.058038743480225 ], [ -80.874789886924688, 26.05820274352147 ], [ -80.874789886937933, 26.058696743645747 ], [ -80.874789886942352, 26.058861743687252 ], [ -80.874807886965257, 26.059522743853208 ], [ -80.874864887035059, 26.061506744351099 ], [ -80.87488388705836, 26.062168744517223 ], [ -80.875121887350048, 26.070463746598843 ], [ -80.875838888227236, 26.095349752842086 ], [ -80.876078888520311, 26.103645754922734 ], [ -80.876107888548461, 26.104378755106428 ], [ -80.876197888633939, 26.106580755658094 ], [ -80.876227888662413, 26.107314755841944 ], [ -80.876656889273761, 26.12536976037115 ], [ -80.877209889655489, 26.133549762414848 ], [ -80.877646889957276, 26.140015764030107 ], [ -80.877660889969874, 26.14033076410896 ], [ -80.877679889984677, 26.140673764194716 ], [ -80.877688889992015, 26.140849764238769 ], [ -80.877693889997644, 26.141001764276876 ], [ -80.877735890022592, 26.141474764394783 ], [ -80.877724890024055, 26.14164676443821 ], [ -80.877796890086955, 26.143199764826857 ], [ -80.878024890287136, 26.148151766066093 ], [ -80.878861891022538, 26.166330770614564 ], [ -80.879112891245356, 26.171858771997456 ], [ -80.879144891273341, 26.172548772170078 ], [ -80.874997890068542, 26.172651772287363 ], [ -80.87169688910528, 26.172579772342104 ], [ -80.8698748885719, 26.17247677235644 ], [ -80.866720887644604, 26.172151772344318 ], [ -80.862352886354856, 26.171498772276621 ], [ -80.860336885759665, 26.171198772245731 ], [ -80.856267884557269, 26.17055877217464 ], [ -80.850683882907177, 26.169679772076929 ], [ -80.850529882861665, 26.16965577207429 ], [ -80.839144879498164, 26.16790077188433 ], [ -80.833233877751923, 26.166994771786985 ], [ -80.830977877085459, 26.166649771750023 ], [ -80.828540876365039, 26.166261771706189 ], [ -80.828228876272803, 26.166211771700521 ], [ -80.828059876222724, 26.166178771695975 ], [ -80.827869876166361, 26.166140771690596 ], [ -80.82490187528974, 26.165694771643924 ], [ -80.824380875135873, 26.165616771635829 ], [ -80.818989873542904, 26.164783771545284 ], [ -80.814857872320999, 26.164109771466936 ], [ -80.808774870523905, 26.163187771369223 ], [ -80.802035868532329, 26.162140771254499 ], [ -80.795793866687404, 26.161165771146923 ], [ -80.795249866526618, 26.161080771137513 ], [ -80.789746864900138, 26.160225771043795 ], [ -80.782546862772705, 26.159131770927345 ], [ -80.766879858141536, 26.156687770657793 ], [ -80.761883856664568, 26.155906770571427 ], [ -80.751903853714794, 26.154375770406091 ], [ -80.74447885151983, 26.153224770279991 ], [ -80.741611850671958, 26.152770770228884 ], [ -80.724336845563755, 26.150059769927083 ], [ -80.723752845391033, 26.149967769916795 ], [ -80.71843984382042, 26.149154769829167 ], [ -80.709777841258273, 26.147776769672948 ], [ -80.706899840408624, 26.14737976963638 ], [ -80.703965839540984, 26.146923769586195 ], [ -80.702922839233892, 26.146809769580411 ], [ -80.701744838885944, 26.146641769564063 ], [ -80.70033683847241, 26.146527769566333 ], [ -80.699057838096977, 26.146433769570809 ], [ -80.696629837385927, 26.146314769594269 ], [ -80.694239836689704, 26.146333769651516 ], [ -80.691434835871434, 26.146314769708439 ], [ -80.687885834837289, 26.14633376979117 ], [ -80.687171834627506, 26.146274769792043 ], [ -80.681758833050949, 26.146333769925835 ], [ -80.679239832315702, 26.146304769973913 ], [ -80.678328832049843, 26.146294769991428 ], [ -80.675572831245731, 26.146274770046958 ], [ -80.672618830384977, 26.146294770116906 ], [ -80.668256829113631, 26.14631477021781 ], [ -80.664312827962164, 26.146260770290866 ], [ -80.659265826490511, 26.146260770401764 ], [ -80.650877824044485, 26.146260770586082 ], [ -80.644616822219362, 26.146285770729904 ], [ -80.641585821334274, 26.146242770785673 ], [ -80.639767820803741, 26.146229770822377 ], [ -80.638616820468073, 26.146229770847658 ], [ -80.636735819919465, 26.146229770888979 ], [ -80.633382818941499, 26.146225770961657 ], [ -80.633056818846427, 26.146225770968833 ], [ -80.632862818789803, 26.146225770973068 ], [ -80.632044818551293, 26.146225770991059 ], [ -80.628031817380915, 26.146226771079469 ], [ -80.622275815699723, 26.146138771183747 ], [ -80.615696813782407, 26.146197771343061 ], [ -80.607648811434117, 26.146168771512585 ], [ -80.604507810517489, 26.146152771577505 ], [ -80.596340808133959, 26.146109771746058 ], [ -80.586119805153032, 26.146138771977881 ], [ -80.578042802795039, 26.146079772140364 ], [ -80.569026800164579, 26.14607977233835 ], [ -80.566588799453015, 26.146072772390127 ], [ -80.560640797718463, 26.146105772528994 ], [ -80.558540797104243, 26.146050772561292 ], [ -80.556700796568322, 26.146086772610722 ], [ -80.548208794090726, 26.146098772800229 ], [ -80.540661791887132, 26.146049772953578 ], [ -80.533184789704606, 26.146028773112434 ], [ -80.533161789697246, 26.146004773106881 ], [ -80.528678788389243, 26.146014773207796 ], [ -80.52713878793999, 26.14602277324364 ], [ -80.524523787176932, 26.14602677330204 ], [ -80.512726783732603, 26.145978773548901 ], [ -80.499779779952817, 26.145947773825206 ], [ -80.496677779047303, 26.145946773893026 ], [ -80.48835577661724, 26.145914774067627 ], [ -80.482197774818744, 26.145882774194657 ], [ -80.477144773343241, 26.145867774301784 ], [ -80.468872770926509, 26.145801774466644 ], [ -80.46550676994184, 26.145727774521834 ], [ -80.46299276920972, 26.145797774594676 ], [ -80.46140576874663, 26.145805774631476 ], [ -80.461315768720368, 26.145805774633462 ], [ -80.461215768691162, 26.145806774635883 ], [ -80.461051768643316, 26.145807774639742 ], [ -80.460374768445746, 26.145810774655338 ], [ -80.4589347680255, 26.145817774688673 ], [ -80.456637767355019, 26.145823774740627 ], [ -80.453814766530726, 26.145821774802055 ], [ -80.453096766320968, 26.145816774816527 ], [ -80.452462766135554, 26.145807774828182 ], [ -80.451851765956619, 26.145787774836538 ], [ -80.451286765790826, 26.145756774841136 ], [ -80.450670765609487, 26.14570077484052 ], [ -80.450195765469374, 26.145648774837845 ], [ -80.449660765311464, 26.145584774833445 ], [ -80.447656764717934, 26.145273774799023 ], [ -80.447527764679705, 26.145253774796807 ], [ -80.447650764709493, 26.145023774736192 ], [ -80.447665764713079, 26.144996774729062 ], [ -80.447702764722024, 26.144926774710605 ], [ -80.447826764752023, 26.144694774649448 ], [ -80.447875764763836, 26.144602774625127 ], [ -80.44821076486167, 26.144603774618083 ], [ -80.449613765271479, 26.144609774588837 ], [ -80.44968576523884, 26.142617774085263 ], [ -80.449713765226221, 26.141845773890129 ], [ -80.449754765208738, 26.140750773613277 ], [ -80.449217764989797, 26.138442773043483 ], [ -80.446548763901703, 26.126960770208203 ], [ -80.444261762969646, 26.117125767779168 ], [ -80.44328876257309, 26.112937766744651 ], [ -80.443267762545688, 26.112145766545446 ], [ -80.443247762519292, 26.111380766353026 ], [ -80.443229762495193, 26.110677766176192 ], [ -80.443204762462116, 26.109717765934693 ], [ -80.44315676239809, 26.107853765465762 ], [ -80.443110762337824, 26.106108765026828 ], [ -80.443061762272734, 26.104214764550349 ], [ -80.443014762210638, 26.102411764096757 ], [ -80.442862762008801, 26.096539762619379 ], [ -80.442632761705866, 26.087739760405139 ], [ -80.44246976148996, 26.081454758823497 ], [ -80.44226576120937, 26.073194756744378 ], [ -80.44210476096849, 26.065946754919366 ], [ -80.442036760866614, 26.062876754146327 ], [ -80.442002760831699, 26.061940753910889 ], [ -80.440160760293722, 26.061935753949786 ], [ -80.437399759487292, 26.061926754007676 ], [ -80.434655758685693, 26.061910754063476 ], [ -80.434439758622275, 26.061897754064887 ], [ -80.433637758386894, 26.061854754071526 ], [ -80.433312758291535, 26.061836754074061 ], [ -80.431895757877882, 26.061840754105997 ], [ -80.431674757813127, 26.06183275410875 ], [ -80.430630757508609, 26.061844754134562 ], [ -80.428037756751024, 26.061827754186758 ], [ -80.426828756397398, 26.061806754207829 ], [ -80.426700756359907, 26.061802754209609 ], [ -80.426009756157725, 26.061786754220613 ], [ -80.425938756136958, 26.061786754222165 ], [ -80.42478675580054, 26.061785754247033 ], [ -80.422527755140862, 26.061783754295764 ], [ -80.421345754796349, 26.061809754328067 ], [ -80.419614754292894, 26.061885754385006 ], [ -80.418976754106893, 26.06189675440169 ], [ -80.417904753794645, 26.061925754432341 ], [ -80.417858753781189, 26.061926754433589 ], [ -80.417220753594975, 26.061929754448233 ], [ -80.413364752472461, 26.062061754565608 ], [ -80.411598751957584, 26.062094754612456 ], [ -80.410040751502962, 26.062108754649913 ], [ -80.409871751453693, 26.062110754654132 ], [ -80.409856751449297, 26.062110754654462 ], [ -80.406007750327618, 26.062199754760751 ], [ -80.403750749669697, 26.062245754821532 ], [ -80.401248748940901, 26.062316754894034 ], [ -80.398698748198015, 26.062388754967767 ], [ -80.396368747519503, 26.0624607550367 ], [ -80.395715747328808, 26.062462755051438 ], [ -80.39430274691675, 26.062486755088276 ], [ -80.39413474686809, 26.062500755095481 ], [ -80.393977746823239, 26.06253875510852 ], [ -80.393855746788105, 26.062558755116193 ], [ -80.393726746750403, 26.062555755118243 ], [ -80.393282746620571, 26.062550755126658 ], [ -80.39323274660596, 26.062549755127506 ], [ -80.392819746484619, 26.062524755130195 ], [ -80.392364746351916, 26.06253075514163 ], [ -80.391783746182782, 26.062552755159857 ], [ -80.391257746029183, 26.062552755171282 ], [ -80.390305745752073, 26.062587755200898 ], [ -80.389792745602321, 26.062591755213088 ], [ -80.38921274543307, 26.062597755227209 ], [ -80.387740745003399, 26.062606755261584 ], [ -80.385515744355089, 26.062665755324929 ], [ -80.384762744135557, 26.062679755344885 ], [ -80.383879743877912, 26.062690755366884 ], [ -80.381905743303378, 26.062766755429116 ], [ -80.380735742962486, 26.062798755462651 ], [ -80.379047742471187, 26.062864755516106 ], [ -80.378810742402578, 26.062888755527332 ], [ -80.378643742354029, 26.062895755532715 ], [ -80.378592742339123, 26.062897755534316 ], [ -80.37849474231038, 26.062892755535209 ], [ -80.37829074225057, 26.062883755537413 ], [ -80.377991742163005, 26.062874755541628 ], [ -80.377883742131388, 26.062872755543477 ], [ -80.377398741989893, 26.062879755555844 ], [ -80.374180741051845, 26.062952755644389 ], [ -80.373980740993574, 26.062956755649747 ], [ -80.373750740926511, 26.062962755656248 ], [ -80.373674740904406, 26.062964755658417 ], [ -80.373368740815152, 26.062970755666623 ], [ -80.373014740712023, 26.062979755676579 ], [ -80.372452740548155, 26.062990755691647 ], [ -80.372147740459226, 26.062997755700021 ], [ -80.371986740412282, 26.063000755704284 ], [ -80.371780740352222, 26.06300475570978 ], [ -80.37150374027145, 26.063009755717054 ], [ -80.371343740224759, 26.063013755721609 ], [ -80.370878740089253, 26.063023755734246 ], [ -80.370217739896518, 26.063038755752448 ], [ -80.367691739160207, 26.063096755822087 ], [ -80.366842738912851, 26.063119755846401 ], [ -80.365718738585372, 26.063151755878998 ], [ -80.365088738401795, 26.063168755896964 ], [ -80.36320073785167, 26.06322175595151 ], [ -80.362571737668418, 26.063239755969775 ], [ -80.362526737655287, 26.063240755971012 ], [ -80.362480737641917, 26.063242755972496 ], [ -80.362394737616839, 26.063244755974882 ], [ -80.362350737604018, 26.063246755976355 ], [ -80.362347737601183, 26.063172755957726 ], [ -80.362339737593388, 26.062967755906183 ], [ -80.362338737592708, 26.062953755902655 ], [ -80.362336737590141, 26.062880755884272 ], [ -80.362088737518008, 26.06289275589268 ], [ -80.361972737484322, 26.062899755897007 ], [ -80.361344737300826, 26.062898755910386 ], [ -80.361109737232198, 26.062898755915501 ], [ -80.361096737228394, 26.062899755916103 ], [ -80.36061273708637, 26.06287375592002 ], [ -80.360484737048751, 26.062866755921075 ], [ -80.360127736943994, 26.062848755924286 ], [ -80.358676736518092, 26.062772755936731 ], [ -80.358125736357223, 26.062777755949995 ], [ -80.358039736332174, 26.062778755952113 ], [ -80.357882736286442, 26.062782755956516 ], [ -80.357288736113233, 26.062796755973022 ], [ -80.357167736077969, 26.062798755976171 ], [ -80.355038735457413, 26.062851756035908 ], [ -80.354288735238811, 26.062870756057041 ], [ -80.354151735198698, 26.062866756059034 ], [ -80.353972735146257, 26.062861756061686 ], [ -80.353741735078628, 26.062855756065197 ], [ -80.35360573503884, 26.062852756067389 ], [ -80.352890734830467, 26.062872756088012 ], [ -80.352756734791384, 26.062875756091675 ], [ -80.352196734628123, 26.062888756107185 ], [ -80.350013733991787, 26.06294175616808 ], [ -80.34899373369403, 26.062949756192374 ], [ -80.348411733523889, 26.062945756204062 ], [ -80.348418733526259, 26.062958756207152 ], [ -80.348847733651937, 26.062971756201097 ], [ -80.348498733552688, 26.063072756234195 ], [ -80.347693733322785, 26.06327075630173 ], [ -80.347667733315077, 26.063265756301035 ], [ -80.34762873330348, 26.06325875630008 ], [ -80.347592733292828, 26.063252756299356 ], [ -80.347567733285373, 26.063248756298922 ], [ -80.347490733262546, 26.063234756297032 ], [ -80.347370733227237, 26.063225756297392 ], [ -80.346938733100259, 26.063196756299504 ], [ -80.346775733052667, 26.063198756303557 ], [ -80.346577732994916, 26.063202756308865 ], [ -80.34641473294738, 26.063205756313177 ], [ -80.346271732905706, 26.063208756317046 ], [ -80.346075732848618, 26.063215756323114 ], [ -80.346059732843926, 26.063215756323459 ], [ -80.345926732805168, 26.063217756326875 ], [ -80.345764732757857, 26.063220756331138 ], [ -80.344539732400563, 26.063241756363126 ], [ -80.344310732333781, 26.063245756369124 ], [ -80.344114732276694, 26.063252756375142 ], [ -80.342350731762124, 26.063282756421174 ], [ -80.342271731739174, 26.063287756424135 ], [ -80.342115731693639, 26.063289756428048 ], [ -80.340743731293429, 26.063314756464241 ], [ -80.340430731202233, 26.063323756473295 ], [ -80.340087731102216, 26.063329756482339 ], [ -80.338784730722111, 26.063352756516537 ], [ -80.338706730699485, 26.063357756519473 ], [ -80.338118730527995, 26.063368756535048 ], [ -80.338078730516244, 26.063366756535409 ], [ -80.338039730504903, 26.063369756537 ], [ -80.338017730498464, 26.063368756537237 ], [ -80.337500730347742, 26.063381756551777 ], [ -80.337422730324889, 26.063378756552748 ], [ -80.336875730165374, 26.063388756567161 ], [ -80.336679730108301, 26.063396756573493 ], [ -80.335272729697763, 26.063418756609696 ], [ -80.335193729674856, 26.063423756612682 ], [ -80.334646729515313, 26.06343375662707 ], [ -80.334568729492432, 26.063431756628283 ], [ -80.333746729252766, 26.063448756650502 ], [ -80.333668729229899, 26.063447756651936 ], [ -80.333590729207316, 26.063453756655125 ], [ -80.33304272904742, 26.063463756669645 ], [ -80.332846728990205, 26.063463756673919 ], [ -80.332181728796201, 26.063475756691396 ], [ -80.332103728773575, 26.063480756694329 ], [ -80.331438728579556, 26.063492756711895 ], [ -80.33135972855645, 26.063490756713094 ], [ -80.330459728293931, 26.063507756736993 ], [ -80.330381728271249, 26.063512756739961 ], [ -80.330263728236801, 26.06351375674279 ], [ -80.330107728191223, 26.0635137567462 ], [ -80.329911728134078, 26.063519756751937 ], [ -80.329396727983777, 26.063525756764655 ], [ -80.327791727515404, 26.063546756804943 ], [ -80.327478727424165, 26.063554756813815 ], [ -80.326068727012697, 26.063572756849013 ], [ -80.325990726990014, 26.06357875685228 ], [ -80.324463726544764, 26.063613756894352 ], [ -80.324385726522152, 26.063618756897284 ], [ -80.323060726135779, 26.063648756933762 ], [ -80.322502725973095, 26.06366275694943 ], [ -80.322424725950455, 26.063667756952412 ], [ -80.321913725801423, 26.063678756966322 ], [ -80.321843725781051, 26.063681756968574 ], [ -80.321773725760693, 26.063684756970837 ], [ -80.321626725717678, 26.063683756973813 ], [ -80.321273725614702, 26.063688756982799 ], [ -80.320489725385869, 26.063697757002135 ], [ -80.320411725363158, 26.063702757005082 ], [ -80.31951072510023, 26.063714757027775 ], [ -80.319432725077363, 26.063711757028702 ], [ -80.318884724917382, 26.063718757042395 ], [ -80.318141724700737, 26.063735757062883 ], [ -80.318063724677941, 26.063734757064328 ], [ -80.317408724486938, 26.063748757082106 ], [ -80.31738472447995, 26.063749757082874 ], [ -80.317320724461354, 26.063754757085565 ], [ -80.317152724412367, 26.063757757089977 ], [ -80.316456724209388, 26.063772757108893 ], [ -80.31641972419861, 26.063773757109953 ], [ -80.316340724175461, 26.063772757111412 ], [ -80.316224724141648, 26.063775757114691 ], [ -80.315886724043096, 26.063782757123867 ], [ -80.315760724006367, 26.063785757127377 ], [ -80.315438723912422, 26.06379275713612 ], [ -80.315360723889796, 26.063797757139092 ], [ -80.31437072360103, 26.063817757165697 ], [ -80.313907723465988, 26.063827757178331 ], [ -80.313853723450222, 26.063827757179489 ], [ -80.313693723403574, 26.063831757183994 ], [ -80.313640723388133, 26.063832757185413 ], [ -80.31333072329771, 26.063838757193654 ], [ -80.313016723206118, 26.063845757202305 ], [ -80.312781723137547, 26.063850757208673 ], [ -80.311683722817449, 26.063876757239132 ], [ -80.3116047227943, 26.063874757240345 ], [ -80.311145722660427, 26.063883757252594 ], [ -80.310820722565609, 26.06389175726175 ], [ -80.310742722542997, 26.063896757264693 ], [ -80.310522722478836, 26.063901757270731 ], [ -80.31050572247382, 26.0639017572711 ], [ -80.310455722459281, 26.063902757272427 ], [ -80.310439722454589, 26.063903757273042 ], [ -80.310272722405912, 26.063906757277429 ], [ -80.309841722280197, 26.063915757289106 ], [ -80.309772722259993, 26.06391375729013 ], [ -80.309723722245678, 26.0639137572912 ], [ -80.309685722234278, 26.06390275728922 ], [ -80.30965072222358, 26.063886757285914 ], [ -80.309617722213403, 26.06386475728107 ], [ -80.309585722204602, 26.063887757287596 ], [ -80.309551722195195, 26.063905757292883 ], [ -80.309513722184391, 26.063917757296775 ], [ -80.309474722173164, 26.063922757298869 ], [ -80.309004722036008, 26.063929757310856 ], [ -80.308926722013112, 26.06392775731204 ], [ -80.308143721784631, 26.06393975733214 ], [ -80.308065721761992, 26.063944757335111 ], [ -80.307281721533201, 26.063956757355182 ], [ -80.30724872152355, 26.063955757355664 ], [ -80.307202721510095, 26.063954757356409 ], [ -80.305320720961035, 26.063989757406254 ], [ -80.304104720606162, 26.064007757437292 ], [ -80.304025720583155, 26.064011757440017 ], [ -80.300101719438118, 26.064074757541405 ], [ -80.298874719080132, 26.064095757573437 ], [ -80.298795719057125, 26.064099757576162 ], [ -80.298362718930761, 26.064105757587086 ], [ -80.298243718896089, 26.064108757590422 ], [ -80.297850718781447, 26.064117757601295 ], [ -80.297814718770965, 26.06411875760233 ], [ -80.297785718762455, 26.064118757602966 ], [ -80.29771971874321, 26.064120757604893 ], [ -80.297651718723372, 26.064121757606618 ], [ -80.297473718671469, 26.064125757611503 ], [ -80.297299718620749, 26.064129757616293 ], [ -80.296734718455966, 26.064141757631656 ], [ -80.296489718384521, 26.064147757638487 ], [ -80.296058718258834, 26.064156757650139 ], [ -80.294764717881364, 26.06418475768541 ], [ -80.294469717795366, 26.064191757693582 ], [ -80.294334717755973, 26.064194757697283 ], [ -80.293761717588851, 26.064206757712828 ], [ -80.292045717088328, 26.064244757759756 ], [ -80.291473716921558, 26.064258757775754 ], [ -80.291271716862624, 26.064262757781162 ], [ -80.290667716686428, 26.064275757797638 ], [ -80.290466716627819, 26.064280757803257 ], [ -80.290062716509965, 26.064288757814051 ], [ -80.289827716441465, 26.064294757820729 ], [ -80.288850716156162, 26.06430375784425 ], [ -80.288446716038237, 26.064307757854049 ], [ -80.288367716015216, 26.064310757856529 ], [ -80.28712471565288, 26.0643467578927 ], [ -80.282598714332039, 26.064419758009702 ], [ -80.280855713823357, 26.064448758054954 ], [ -80.280779713801451, 26.064459758059439 ], [ -80.280742713790957, 26.064472758063459 ], [ -80.280702713779206, 26.064468758063356 ], [ -80.280531713729218, 26.064468758067083 ], [ -80.280360713679215, 26.064468758070795 ], [ -80.280273713653813, 26.064468758072692 ], [ -80.280162713621394, 26.064468758075083 ], [ -80.280050713588651, 26.064468758077538 ], [ -80.280010713576871, 26.064465758077656 ], [ -80.279895713543524, 26.064475758082718 ], [ -80.279778713509359, 26.064476758085537 ], [ -80.279700713486676, 26.06448175808848 ], [ -80.278837713234793, 26.064494758110531 ], [ -80.277343712798739, 26.064518758149109 ], [ -80.277264712775818, 26.064523758152131 ], [ -80.27688671266543, 26.064527758161372 ], [ -80.274529711977721, 26.064573758224313 ], [ -80.274450711954643, 26.064572758225783 ], [ -80.274411711943316, 26.064575758227384 ], [ -80.274332711920223, 26.064574758228858 ], [ -80.273096711559575, 26.064597758261595 ], [ -80.272637711425574, 26.064605758273572 ], [ -80.272360711344774, 26.064610758280907 ], [ -80.27126271102442, 26.064632758310367 ], [ -80.270804710890829, 26.064642758322861 ], [ -80.269507710512414, 26.064668758357659 ], [ -80.266093709516454, 26.064740758450156 ], [ -80.265660709390005, 26.064746758461144 ], [ -80.26561770937748, 26.064746758462075 ], [ -80.265202709256428, 26.064756758473614 ], [ -80.264399709022157, 26.064774758495645 ], [ -80.264360709010745, 26.064772758496005 ], [ -80.264322708999373, 26.064762758494286 ], [ -80.264258708981103, 26.064780758500223 ], [ -80.263592708786803, 26.06479275851779 ], [ -80.262462708457065, 26.06481575854821 ], [ -80.261397708146276, 26.064835758576454 ], [ -80.260666707933055, 26.064850758596119 ], [ -80.260401707855721, 26.064855758603137 ], [ -80.260400707858167, 26.06495775862896 ], [ -80.260398707863942, 26.065195758689136 ], [ -80.260246707819562, 26.065198758693203 ], [ -80.259968707738452, 26.065203758700502 ], [ -80.258679707362305, 26.065229758735146 ], [ -80.258250707237153, 26.06523875874672 ], [ -80.257816707110237, 26.06523575875541 ], [ -80.256827706821028, 26.065231758775941 ], [ -80.256517706730463, 26.065234758783458 ], [ -80.256375706689013, 26.065236758787041 ], [ -80.256321706673305, 26.06523775878847 ], [ -80.256303706668021, 26.06523775878885 ], [ -80.256084706604085, 26.065240758794449 ], [ -80.255283706370179, 26.065249758814126 ], [ -80.252979705697328, 26.065275758870857 ], [ -80.252882705669023, 26.0652767588732 ], [ -80.252348705513143, 26.065285758887143 ], [ -80.252082705435512, 26.065290758894196 ], [ -80.251785705348851, 26.065296758902161 ], [ -80.250898705090123, 26.065315758926282 ], [ -80.250602705003772, 26.065322758934474 ], [ -80.25033170492469, 26.065327758941621 ], [ -80.249520704688052, 26.065344758963594 ], [ -80.24925070460931, 26.065350758970972 ], [ -80.249037704546978, 26.065349758975369 ], [ -80.248899704506627, 26.065349758978371 ], [ -80.248401704361271, 26.065357758991279 ], [ -80.248189704299364, 26.065361758996879 ], [ -80.247886704211012, 26.065369759005474 ], [ -80.246980703946917, 26.065396759032005 ], [ -80.246678703858848, 26.065406759041153 ], [ -80.246486703802887, 26.065411759046594 ], [ -80.245913703635864, 26.065430759063869 ], [ -80.245722703580228, 26.065437759069759 ], [ -80.245522703521857, 26.065440759074875 ], [ -80.244926703347957, 26.065452759090913 ], [ -80.244727703289882, 26.065456759096246 ], [ -80.244401703194555, 26.065457759103591 ], [ -80.244194703134113, 26.065459759108599 ], [ -80.243424702909692, 26.065483759131428 ], [ -80.243099702814931, 26.06549475914132 ], [ -80.242752702713801, 26.065505759151616 ], [ -80.242512702643864, 26.065514759159157 ], [ -80.241713702410735, 26.065530759180543 ], [ -80.241367702309731, 26.065537759189898 ], [ -80.24120370226187, 26.06554075919421 ], [ -80.240965702192483, 26.065545759200642 ], [ -80.240711702118276, 26.065549759207169 ], [ -80.24054770207043, 26.065552759211482 ], [ -80.240492702054368, 26.065552759212689 ], [ -80.240342702010565, 26.06555475921645 ], [ -80.240327702006169, 26.065554759216784 ], [ -80.240273701990418, 26.065555759218263 ], [ -80.239669701814208, 26.065569759234894 ], [ -80.237860701286536, 26.065613759285398 ], [ -80.237257701110636, 26.065628759302339 ], [ -80.237149701079076, 26.065629759304965 ], [ -80.236825700984483, 26.065632759312763 ], [ -80.236717700952923, 26.06563375931535 ], [ -80.236637700929535, 26.065634759317351 ], [ -80.236398700859809, 26.065638759323573 ], [ -80.236319700836731, 26.06564075932577 ], [ -80.236187700798169, 26.065642759329151 ], [ -80.235795700683767, 26.065648759339251 ], [ -80.235664700645543, 26.065651759342849 ], [ -80.2353737005607, 26.065660759351445 ], [ -80.234503700307116, 26.065688759377434 ], [ -80.234213700222597, 26.065698759386304 ], [ -80.233934700141219, 26.065706759394374 ], [ -80.233098699897553, 26.065734759419637 ], [ -80.232820699816543, 26.065744759428252 ], [ -80.232684699776911, 26.0657487594322 ], [ -80.232277699658269, 26.065761759444374 ], [ -80.232142699618919, 26.065766759448579 ], [ -80.231937699559069, 26.065768759453523 ], [ -80.231325699380363, 26.065778759469353 ], [ -80.231121699320823, 26.065782759474864 ], [ -80.230921699262353, 26.065782759479202 ], [ -80.230322699087253, 26.065782759492254 ], [ -80.230123699029107, 26.065783759496838 ], [ -80.229719698911083, 26.065787759506637 ], [ -80.228511698558307, 26.065803759537005 ], [ -80.228108698440664, 26.065808759547 ], [ -80.228108698439058, 26.065748759531825 ], [ -80.22810969843529, 26.065596759493388 ], [ -80.228109698434537, 26.065568759486347 ], [ -80.228109698432931, 26.065508759471147 ], [ -80.227663698302763, 26.065517759483178 ], [ -80.22730269819759, 26.065530759494287 ], [ -80.227112698142193, 26.065538759500477 ], [ -80.22533969762496, 26.065578759549208 ], [ -80.224883697491805, 26.065586759561111 ], [ -80.224471697371584, 26.065594759572082 ], [ -80.224236697303255, 26.065608759580762 ], [ -80.224156697279881, 26.065609759582738 ], [ -80.224077697256845, 26.065610759584729 ], [ -80.224073697253942, 26.065547759568879 ], [ -80.224072697253149, 26.065529759564345 ], [ -80.224064697247769, 26.065414759535482 ], [ -80.224060697245193, 26.06536175952218 ], [ -80.224057697242685, 26.06529975950658 ], [ -80.223397697050132, 26.06531675952526 ], [ -80.221417696472642, 26.065370759581985 ], [ -80.220758696280456, 26.065388759600872 ], [ -80.22051669620997, 26.065398759608708 ], [ -80.219790695998626, 26.065432759633079 ], [ -80.219549695928421, 26.065443759641113 ], [ -80.218856695726387, 26.065463759661206 ], [ -80.217828695426647, 26.0654957596917 ], [ -80.216776695119847, 26.065526759722431 ], [ -80.216108694925126, 26.065546759742013 ], [ -80.216084694918081, 26.065547759742792 ], [ -80.215932694873828, 26.065553759747612 ], [ -80.215799694835084, 26.065559759752052 ], [ -80.215646694790507, 26.065564759756626 ], [ -80.215494694746155, 26.065569759761189 ], [ -80.21548269473567, 26.065306759694998 ], [ -80.21531569468695, 26.065312759700173 ], [ -80.215309694680258, 26.065125759653036 ], [ -80.215303694674773, 26.064985759617802 ], [ -80.21522969460618, 26.063225759174713 ], [ -80.215222694599305, 26.063045759129398 ], [ -80.215213694585842, 26.062638759026747 ], [ -80.215207694576222, 26.062343758952327 ], [ -80.215154694527143, 26.061085758635631 ], [ -80.215103694479893, 26.059873758330468 ], [ -80.215013694386954, 26.057374757700952 ], [ -80.21497869435143, 26.056427757462419 ], [ -80.214959694331455, 26.055884757325607 ], [ -80.214923694294015, 26.054875757071411 ], [ -80.21491869428931, 26.054754757040957 ], [ -80.214905694275842, 26.054391756949524 ], [ -80.214901694271475, 26.054271756919256 ], [ -80.214884694253954, 26.053801756800837 ], [ -80.214883694252848, 26.053770756793043 ], [ -80.214842694212692, 26.05271475652707 ], [ -80.214664694036173, 26.048043755350509 ], [ -80.214641694012769, 26.047417755192786 ], [ -80.214582693970812, 26.046488754959285 ], [ -80.214581693970246, 26.046478754956752 ], [ -80.214579693968659, 26.046440754947238 ], [ -80.214572693964186, 26.046351754924888 ], [ -80.214529693935617, 26.045751754774162 ], [ -80.214503693918161, 26.04537975468067 ], [ -80.214325693821166, 26.043692754258164 ], [ -80.21425369378187, 26.043007754086606 ], [ -80.21424169377525, 26.042889754057057 ], [ -80.214177693740297, 26.042279753904278 ], [ -80.213951693616167, 26.04009975335816 ], [ -80.213876693574832, 26.039372753176067 ], [ -80.213868693570447, 26.039294753156483 ], [ -80.213844693557235, 26.039061753098135 ], [ -80.213836693552864, 26.038984753078797 ], [ -80.213773693518391, 26.038381752927794 ], [ -80.213585693415297, 26.036572752474573 ], [ -80.21352369338112, 26.035970752323724 ], [ -80.213517693377568, 26.035904752307232 ], [ -80.21350469336862, 26.035709752258203 ], [ -80.213501693366467, 26.035661752246146 ], [ -80.213500693365731, 26.035644752241865 ], [ -80.213458693335312, 26.034963752070631 ], [ -80.213434693317936, 26.034573751972552 ], [ -80.213379693271236, 26.03342475168327 ], [ -80.213358693251706, 26.032921751556593 ], [ -80.21333069322543, 26.032240751385075 ], [ -80.213401693246084, 26.032237751382787 ], [ -80.213492693272599, 26.032234751380042 ], [ -80.213591693301538, 26.032232751377361 ], [ -80.213617693309118, 26.032231751376528 ], [ -80.213690693330449, 26.032231751374965 ], [ -80.213772693354414, 26.032230751372911 ], [ -80.213823693369321, 26.032230751371806 ], [ -80.213881693386256, 26.032229751370302 ], [ -80.214253693494499, 26.032210751357415 ], [ -80.214418693542569, 26.032202751351821 ], [ -80.214958693699515, 26.032169751331768 ], [ -80.215189693766035, 26.032129751316639 ], [ -80.215645693897613, 26.032063751290053 ], [ -80.215936693982158, 26.032043751278689 ], [ -80.216011694003939, 26.032038751275795 ], [ -80.216501694146842, 26.032024751261591 ], [ -80.217358694397518, 26.032028751243974 ], [ -80.218066694604673, 26.03203375122991 ], [ -80.218541694743351, 26.032025751217553 ], [ -80.219596695050612, 26.031982751183769 ], [ -80.219927695146879, 26.03196275117153 ], [ -80.220080695191371, 26.031953751165947 ], [ -80.220528695320851, 26.031896751141829 ], [ -80.220779695393389, 26.031864751128243 ], [ -80.220778695392482, 26.031841751122478 ], [ -80.220775695389804, 26.031773751105352 ], [ -80.22077469538894, 26.031751751099794 ], [ -80.220809695398998, 26.031746751097788 ], [ -80.220916695429935, 26.031732751091909 ], [ -80.220952695440346, 26.031728751090135 ], [ -80.221728695666272, 26.031693751064413 ], [ -80.22172769566933, 26.031818751096051 ], [ -80.221893695717768, 26.031813751091196 ], [ -80.222392695863221, 26.031797751076311 ], [ -80.222559695911912, 26.031793751071678 ], [ -80.222962696029398, 26.031780751059628 ], [ -80.224174696382761, 26.031743751023964 ], [ -80.224578696500558, 26.031731751012135 ], [ -80.22457169649492, 26.031597750978413 ], [ -80.226579697080339, 26.031533750918619 ], [ -80.227335697301129, 26.031525750900229 ], [ -80.228108697526466, 26.031499750876858 ], [ -80.228854697743827, 26.031471750853605 ], [ -80.22885769774804, 26.031597750885361 ], [ -80.229012697793223, 26.031592750880737 ], [ -80.229480697929574, 26.031576750866503 ], [ -80.229637697975363, 26.031572750862097 ], [ -80.23023669814998, 26.031552750844028 ], [ -80.232032698673521, 26.03149475079039 ], [ -80.232632698848406, 26.031475750772568 ], [ -80.232625698842597, 26.031333750736842 ], [ -80.232612698830891, 26.031035750661747 ], [ -80.232555698779095, 26.029715750329377 ], [ -80.23253669876182, 26.029275750218531 ], [ -80.232532698756799, 26.029130750181992 ], [ -80.232520698741808, 26.028697750072766 ], [ -80.23251669873676, 26.028553750036483 ], [ -80.232508698730655, 26.028410750000514 ], [ -80.232486698712762, 26.027980749892315 ], [ -80.232479698706953, 26.027838749856524 ], [ -80.232474698701552, 26.027691749819521 ], [ -80.232461698686052, 26.027250749708301 ], [ -80.232457698681003, 26.027104749671505 ], [ -80.232451698675419, 26.026961749635444 ], [ -80.23243669865974, 26.026535749528076 ], [ -80.232431698654494, 26.026393749492314 ], [ -80.232424698648543, 26.026247749455578 ], [ -80.23240669863165, 26.025810749345457 ], [ -80.232401698626347, 26.025665749308956 ], [ -80.232394698620539, 26.025523749273166 ], [ -80.232374698603365, 26.025097749165965 ], [ -80.232368698597867, 26.024956749130407 ], [ -80.23235969859131, 26.024809749093478 ], [ -80.23233269857171, 26.024369748982799 ], [ -80.232324698565535, 26.024223748946092 ], [ -80.232462698605744, 26.024219748942095 ], [ -80.232879698727317, 26.024207748929985 ], [ -80.233018698767921, 26.02420474892622 ], [ -80.233102698792379, 26.024202748923909 ], [ -80.233300698850115, 26.024196748918097 ], [ -80.234145699096572, 26.024173748893887 ], [ -80.234428699179091, 26.024166748885996 ], [ -80.234581699223696, 26.024161748881433 ], [ -80.235043699358442, 26.024148748868086 ], [ -80.235197699403329, 26.02414574886398 ], [ -80.235348699447385, 26.024141748859702 ], [ -80.235804699580342, 26.024129748846828 ], [ -80.235956699624722, 26.024126748842722 ], [ -80.236109699669427, 26.024124748838897 ], [ -80.236567699803203, 26.024121748828197 ], [ -80.236721699848218, 26.024120748824593 ], [ -80.236709699836922, 26.023826748750547 ], [ -80.236673699802921, 26.022944748528378 ], [ -80.236661699791583, 26.022650748454314 ], [ -80.236644699774914, 26.022209748343187 ], [ -80.236596699725752, 26.020887748010068 ], [ -80.236580699709364, 26.020447747899158 ], [ -80.236732699753674, 26.020441747894367 ], [ -80.237191699887362, 26.020424747880089 ], [ -80.237344699931981, 26.020419747875515 ], [ -80.23749469997567, 26.020414747870991 ], [ -80.237946700107514, 26.020401747857886 ], [ -80.238097700151542, 26.020398747853854 ], [ -80.238093700146649, 26.020258747818581 ], [ -80.238081700132014, 26.019838747712612 ], [ -80.238078700127375, 26.019698747677314 ], [ -80.238071700121282, 26.01954674763903 ], [ -80.238051700103355, 26.019091747524445 ], [ -80.238045700097587, 26.018940747486397 ], [ -80.238040700092483, 26.018802747451627 ], [ -80.238025700077173, 26.018391747348048 ], [ -80.238020700072056, 26.018254747313549 ], [ -80.238014700066259, 26.018101747274969 ], [ -80.237997700049092, 26.017642747159265 ], [ -80.237992700043563, 26.017489747120749 ], [ -80.237986700037936, 26.017345747084427 ], [ -80.237968700021185, 26.016913746975625 ], [ -80.237963700015953, 26.016770746939589 ], [ -80.237983700021772, 26.016769746938923 ], [ -80.238043700039299, 26.016768746937355 ], [ -80.238064700045456, 26.016768746936911 ], [ -80.238458700160251, 26.016755746925039 ], [ -80.23964370050561, 26.016715746889222 ], [ -80.240038700620758, 26.016703746877646 ], [ -80.240238700679001, 26.016694746870996 ], [ -80.240841700854631, 26.016670746851855 ], [ -80.241042700913226, 26.016663746845733 ], [ -80.241079700924018, 26.016661746844456 ], [ -80.241192700956944, 26.016657746840991 ], [ -80.241230700968003, 26.016657746840163 ], [ -80.241477701039969, 26.016648746832484 ], [ -80.241971701183928, 26.016631746817531 ], [ -80.242217701255655, 26.016623746810119 ], [ -80.24246570132793, 26.016615746802746 ], [ -80.242497701337285, 26.016614746801814 ], [ -80.242537701348922, 26.01661374680069 ], [ -80.242615701371733, 26.016612746798739 ], [ -80.243065701503099, 26.016606746787431 ], [ -80.24321670154724, 26.016605746783892 ], [ -80.243373701592958, 26.016598746778737 ], [ -80.243844701730069, 26.016578746763443 ], [ -80.244002701776139, 26.016572746758534 ], [ -80.244718701984766, 26.016548746736923 ], [ -80.246866702610802, 26.016476746672151 ], [ -80.24758370281981, 26.016453746650765 ], [ -80.247694702852158, 26.016452746648124 ], [ -80.248026702949232, 26.016451746640666 ], [ -80.248138702981947, 26.01645174663825 ], [ -80.248174702992472, 26.016451746637461 ], [ -80.248282703024074, 26.016451746635106 ], [ -80.248319703034866, 26.016451746634306 ], [ -80.248457703074976, 26.01644374662925 ], [ -80.24848770308374, 26.016441746628097 ], [ -80.248559703104661, 26.016437746625549 ], [ -80.249282703314933, 26.016397746599729 ], [ -80.249523703385108, 26.016385746591514 ], [ -80.250228703590793, 26.016371746572656 ], [ -80.250690703725624, 26.016362746560382 ], [ -80.252344704207431, 26.016300746508801 ], [ -80.252583704277114, 26.016292746501556 ], [ -80.253050704413525, 26.016290746490938 ], [ -80.253591704571193, 26.016272746474684 ], [ -80.255218705045394, 26.016218746425693 ], [ -80.255760705203357, 26.016201746409646 ], [ -80.256000705273209, 26.016191746401937 ], [ -80.256722705483554, 26.016165746379709 ], [ -80.256963705553773, 26.016156746372182 ], [ -80.257197705622048, 26.016149746365333 ], [ -80.257900705827041, 26.016131746345518 ], [ -80.258135705895569, 26.016125746338943 ], [ -80.25871570606472, 26.016111746322768 ], [ -80.260458706573147, 26.01607274627516 ], [ -80.261039706742636, 26.016059746259245 ], [ -80.26116970678045, 26.016052746254672 ], [ -80.261562706894779, 26.016032746241084 ], [ -80.261693706932917, 26.016026746236747 ], [ -80.262155707067578, 26.016011746222897 ], [ -80.263542707471871, 26.015970746182443 ], [ -80.264005707606884, 26.015956746168889 ], [ -80.264072707626383, 26.015953746166641 ], [ -80.264139707645896, 26.015951746164671 ], [ -80.26418670765959, 26.015950746163394 ], [ -80.264527707759214, 26.015948746155512 ], [ -80.264732707819036, 26.015945746150312 ], [ -80.264915707872518, 26.015944746146083 ], [ -80.265462708031961, 26.015926746129665 ], [ -80.267103708510248, 26.015874746080936 ], [ -80.267651708669916, 26.015857746064711 ], [ -80.267803708714268, 26.015853746060433 ], [ -80.268260708847507, 26.015842746047706 ], [ -80.268413708892183, 26.015839746043635 ], [ -80.268526708925094, 26.015835746040185 ], [ -80.268869709025026, 26.015823746029742 ], [ -80.268983709058276, 26.015820746026474 ], [ -80.269000709063221, 26.015819746025848 ], [ -80.26905570907924, 26.015817746024148 ], [ -80.269073709084481, 26.015817746023764 ], [ -80.26931070915353, 26.015808746016365 ], [ -80.270021709360719, 26.015785745995117 ], [ -80.270259709430107, 26.015778745988218 ], [ -80.270984709641425, 26.015756745966911 ], [ -80.273158710275069, 26.015691745903322 ], [ -80.273884710486755, 26.015670745882247 ], [ -80.274203710579741, 26.015661745873025 ], [ -80.27516371085963, 26.015634745845389 ], [ -80.275483710952926, 26.015626745836439 ], [ -80.275923711080907, 26.015604745821339 ], [ -80.275946711087585, 26.015602745820352 ], [ -80.27636371120893, 26.015581745805957 ], [ -80.277082711417847, 26.015534745778496 ], [ -80.277337711491882, 26.015517745768644 ], [ -80.277801711626722, 26.015487745751031 ], [ -80.278721711894946, 26.015462745724751 ], [ -80.279276712056003, 26.01542074570208 ], [ -80.279897712235424, 26.015341745668614 ], [ -80.279875712216977, 26.014889745554843 ], [ -80.279865712205833, 26.014581745477205 ], [ -80.27984771217605, 26.013656745243797 ], [ -80.27981171213294, 26.012430744934708 ], [ -80.279785712101969, 26.011550744712853 ], [ -80.279706712036642, 26.009961744312907 ], [ -80.279676712011621, 26.009349744158865 ], [ -80.279664711981198, 26.008336743903072 ], [ -80.279662711973828, 26.008080743838399 ], [ -80.279655711956693, 26.007511743694689 ], [ -80.279568711876109, 26.00543474317157 ], [ -80.279524711835222, 26.004379742905819 ], [ -80.279477711789937, 26.003190742606318 ], [ -80.279441711763539, 26.002591742455635 ], [ -80.2794207117269, 26.001441742165358 ], [ -80.279408711711412, 26.000992742052112 ], [ -80.279387711683142, 26.000157741841502 ], [ -80.279325711623883, 25.998608741451228 ], [ -80.279316711615635, 25.998395741397577 ], [ -80.279278711567372, 25.996995741044419 ], [ -80.279268711557222, 25.996722740975621 ], [ -80.279235711522944, 25.995794740741715 ], [ -80.279234711519408, 25.99567274071093 ], [ -80.279196711485298, 25.994803740492017 ], [ -80.279163711448504, 25.993781740234358 ], [ -80.279154711442047, 25.993636740197847 ], [ -80.279143711433491, 25.99343574014727 ], [ -80.279103711389823, 25.992228739843 ], [ -80.279057711340116, 25.990860739498089 ], [ -80.279034711311724, 25.990045739292519 ], [ -80.279017711291132, 25.989454739143419 ], [ -80.278970711243829, 25.988187738824092 ], [ -80.27894271121572, 25.987438738635323 ], [ -80.278937711211086, 25.987317738604794 ], [ -80.278938711188616, 25.986459738387822 ], [ -80.278924711168031, 25.985835738230399 ], [ -80.278902711152071, 25.985476738140061 ], [ -80.278867711120654, 25.984677737938767 ], [ -80.278856711109839, 25.98438973786617 ], [ -80.278818711073413, 25.983434737625505 ], [ -80.278758711016877, 25.981963737254855 ], [ -80.278721710972448, 25.980692736934216 ], [ -80.278854711011178, 25.980689736930589 ], [ -80.278905711026084, 25.980687736928967 ], [ -80.279058711070689, 25.980683736924664 ], [ -80.279110711085849, 25.980682736923285 ], [ -80.27910471108035, 25.980540736887459 ], [ -80.278849711005904, 25.980545736894285 ], [ -80.278810710959306, 25.97921473655855 ], [ -80.278767710912518, 25.97792373623296 ], [ -80.278727710874435, 25.976926735981696 ], [ -80.278719710867691, 25.976761735940155 ], [ -80.2785807108271, 25.976762735943417 ], [ -80.278576710822833, 25.976644735913624 ], [ -80.278713710862661, 25.976637735908902 ], [ -80.278652710801808, 25.975010735498756 ], [ -80.278630710773399, 25.974180735289309 ], [ -80.278630710771012, 25.974089735266293 ], [ -80.278584710727486, 25.97295573498052 ], [ -80.278532710695004, 25.972302734816505 ], [ -80.278482710670986, 25.971946734727531 ], [ -80.27847471066535, 25.971821734696046 ], [ -80.278472710664062, 25.971794734689286 ], [ -80.27846771065559, 25.971531734622854 ], [ -80.278698710722935, 25.97152373461585 ], [ -80.278787710748887, 25.971521734613425 ], [ -80.27877271074091, 25.97138573457935 ], [ -80.278771710738695, 25.971313734561178 ], [ -80.278767710736432, 25.971271734550644 ], [ -80.278766710734544, 25.971211734535459 ], [ -80.278766710729798, 25.971031734489937 ], [ -80.27876671072822, 25.970972734475048 ], [ -80.278438710628805, 25.970838734448247 ], [ -80.278397710545676, 25.968150733769232 ], [ -80.278272710421774, 25.964847732936441 ], [ -80.2782687104134, 25.964576732867979 ], [ -80.278263710401973, 25.96419873277252 ], [ -80.278258710388243, 25.963734732655229 ], [ -80.278449710403137, 25.962185732259258 ], [ -80.278424710374864, 25.961394732059738 ], [ -80.278398710361571, 25.961179732005952 ], [ -80.278434710366113, 25.960951731947432 ], [ -80.278333710270402, 25.958449731316719 ], [ -80.278314710246732, 25.957762731143372 ], [ -80.278322710215136, 25.956479730818614 ], [ -80.27821971012834, 25.954334730278205 ], [ -80.278211710121838, 25.954176730238409 ], [ -80.278208710114441, 25.953929730175997 ], [ -80.278125710055221, 25.952607729843312 ], [ -80.278096710028606, 25.951919729669861 ], [ -80.278113710025991, 25.951631729596624 ], [ -80.278093710010879, 25.951281729508526 ], [ -80.278065709990955, 25.950837729396774 ], [ -80.278050709979723, 25.950577729331357 ], [ -80.277993709944752, 25.949885729157469 ], [ -80.277876709881838, 25.948797728884767 ], [ -80.277859709865552, 25.948370728777103 ], [ -80.277829709838613, 25.947680728603135 ], [ -80.277794709809484, 25.946966728423231 ], [ -80.277769709792437, 25.946596728330167 ], [ -80.277756709773357, 25.946017728183925 ], [ -80.277736709753285, 25.945478728048009 ], [ -80.277704709728013, 25.944877727896603 ], [ -80.27767870970716, 25.944374727769898 ], [ -80.277674709703646, 25.944285727747474 ], [ -80.277648709680747, 25.943705727601255 ], [ -80.277624709658625, 25.943132727456817 ], [ -80.277611709646919, 25.942834727381722 ], [ -80.277588709626286, 25.942307727248842 ], [ -80.277587709616697, 25.941955727159819 ], [ -80.277548709595905, 25.941599727070553 ], [ -80.277532709580413, 25.941188726966921 ], [ -80.277530709578457, 25.941136726953776 ], [ -80.277520709571306, 25.940977726913761 ], [ -80.27748370954464, 25.940375726762287 ], [ -80.277449709516659, 25.939692726590142 ], [ -80.277408709489322, 25.939110726443761 ], [ -80.2773627094613, 25.938558726305093 ], [ -80.277354709449909, 25.938214726218202 ], [ -80.277326709432415, 25.93786172612948 ], [ -80.277290709402536, 25.937128725944731 ], [ -80.277295709385854, 25.936440725770577 ], [ -80.277217709333982, 25.93533772549311 ], [ -80.277192709317589, 25.934993725406589 ], [ -80.277188709313222, 25.934874725376549 ], [ -80.277185709309535, 25.934766725349277 ], [ -80.277181709307499, 25.934733725341033 ], [ -80.277166709299493, 25.934594725306194 ], [ -80.276981709150832, 25.93100972440293 ], [ -80.276839709032657, 25.928100723669747 ], [ -80.276801708999329, 25.927258723457481 ], [ -80.276778708975954, 25.926626723298014 ], [ -80.276716708928916, 25.925527723021183 ], [ -80.276723708925303, 25.925313722966891 ], [ -80.276730708922557, 25.925131722920639 ], [ -80.278872709549617, 25.925172722884859 ], [ -80.279860709840406, 25.925250722883352 ], [ -80.2813297102729, 25.925371722882304 ], [ -80.284728711263938, 25.925284722787026 ], [ -80.289379712619734, 25.925154722653868 ], [ -80.293176713726012, 25.925028722540194 ], [ -80.293125713701983, 25.924683722453999 ], [ -80.293066713647121, 25.923254722093588 ], [ -80.293009713584809, 25.921522721656462 ], [ -80.29302071357921, 25.921187721571449 ], [ -80.292942713518769, 25.919759721211733 ], [ -80.292928713507365, 25.919480721141383 ], [ -80.292850713439947, 25.917787720714575 ], [ -80.292850713434547, 25.917582720662711 ], [ -80.292820713409611, 25.916967720507699 ], [ -80.292653713269132, 25.913487719630446 ], [ -80.292647713264259, 25.913368719600474 ], [ -80.292645713262687, 25.913330719590871 ], [ -80.292637713255786, 25.91315671954704 ], [ -80.292536713153709, 25.910400718851559 ], [ -80.292516713133836, 25.909868718717362 ], [ -80.29237271298436, 25.905785717686864 ], [ -80.292173712838448, 25.902449716846601 ], [ -80.292067712742053, 25.899963716219553 ], [ -80.292042712718697, 25.899351716065091 ], [ -80.292042712714078, 25.89917671602085 ], [ -80.292019712698661, 25.898845715937522 ], [ -80.292004712688396, 25.898620715880881 ], [ -80.291941712639655, 25.897467715590327 ], [ -80.291905712612092, 25.896819715427021 ], [ -80.291877712590676, 25.896316715300291 ], [ -80.291872712586709, 25.896219715275823 ], [ -80.29183271255485, 25.895453715082724 ], [ -80.291789712520028, 25.894606714869216 ], [ -80.29178971251936, 25.894581714862898 ], [ -80.291649712478389, 25.894578714865112 ], [ -80.291554712450591, 25.894576714866645 ], [ -80.289884711994489, 25.895791715210176 ], [ -80.288921711713783, 25.895817715237467 ], [ -80.28879771167766, 25.895822715241444 ], [ -80.288063711464005, 25.895853715265062 ], [ -80.287860711405216, 25.895873715274494 ], [ -80.287648711209627, 25.890789713991737 ], [ -80.287632711184372, 25.890006713793799 ], [ -80.287612711176195, 25.889918713771937 ], [ -80.287386710966715, 25.884456712393682 ], [ -80.287355710937518, 25.883688712199888 ], [ -80.287272710851227, 25.881326711603496 ], [ -80.28595171046608, 25.881358711639944 ], [ -80.285167710237417, 25.881375711661118 ], [ -80.284382710008785, 25.881405711685549 ], [ -80.283553709767119, 25.881428711709187 ], [ -80.281325709117539, 25.881486711771743 ], [ -80.279133708478511, 25.881545711833795 ], [ -80.277062707874222, 25.881581711887357 ], [ -80.275029707281689, 25.881641711946244 ], [ -80.274309707072049, 25.881671711969286 ], [ -80.273088706715939, 25.881700712002836 ], [ -80.271184706160895, 25.881752712056933 ], [ -80.269196705581081, 25.881798712111298 ], [ -80.26719970499866, 25.881844712165819 ], [ -80.264187704120502, 25.8819277122515 ], [ -80.263053703791655, 25.882025712300702 ], [ -80.262203703543236, 25.882026712319202 ], [ -80.260529703054161, 25.882032712356668 ], [ -80.260463703034887, 25.882033712358339 ], [ -80.260422703022925, 25.882034712359463 ], [ -80.260377703009809, 25.882036712360946 ], [ -80.259433702734626, 25.882064712388335 ], [ -80.259361702668826, 25.880358711957761 ], [ -80.259235702474172, 25.874343710436786 ], [ -80.259218702428143, 25.872776710040174 ], [ -80.25918270242083, 25.872898710071812 ], [ -80.259057702329343, 25.870803709543775 ], [ -80.259054702325926, 25.870706709519283 ], [ -80.260050702616141, 25.870673709489573 ], [ -80.260092702628413, 25.870672709488435 ], [ -80.260144702643558, 25.870670709486813 ], [ -80.260179702653758, 25.870669709485753 ], [ -80.260220702665762, 25.870669709484876 ], [ -80.260295702687614, 25.870667709482767 ], [ -80.260295702686435, 25.870622709471355 ], [ -80.26029570268517, 25.870574709459209 ], [ -80.260287702669416, 25.870061709329399 ], [ -80.260252702598635, 25.867752708745236 ], [ -80.260247702589467, 25.867458708670846 ], [ -80.260242702581962, 25.867227708612454 ], [ -80.260213702538479, 25.86589170827456 ], [ -80.260204702526337, 25.865529708183043 ], [ -80.260165702469493, 25.863795707744561 ], [ -80.260075702347265, 25.860133706818608 ], [ -80.260136702365159, 25.860135706817879 ], [ -80.260133702361273, 25.860019706788503 ], [ -80.260001702175742, 25.854408705369572 ], [ -80.259967702127767, 25.852953705001653 ], [ -80.259964702123682, 25.852833704971257 ], [ -80.259899702045985, 25.850588704403812 ], [ -80.259884702028089, 25.850072704273341 ], [ -80.259940702044389, 25.850071704271912 ], [ -80.259885701991678, 25.848670703918 ], [ -80.25987170197844, 25.848320703829632 ], [ -80.25986670197446, 25.848224703805425 ], [ -80.259731701935067, 25.848227703809076 ], [ -80.259690701923105, 25.8482287038102 ], [ -80.259645701910017, 25.848230703811659 ], [ -80.259532701877333, 25.848243703817356 ], [ -80.258228701496861, 25.848268703851602 ], [ -80.258208701488485, 25.848172703827725 ], [ -80.258213701488074, 25.848098703808883 ], [ -80.258192701462619, 25.847361703622553 ], [ -80.258156701427993, 25.846440703389899 ], [ -80.258112701391426, 25.845533703160989 ], [ -80.258112701390758, 25.845508703154657 ], [ -80.258111701389794, 25.84548270314809 ], [ -80.258077701356129, 25.844574702918656 ], [ -80.258041701319215, 25.843565702663771 ], [ -80.258023701304893, 25.843219702576427 ], [ -80.25801370129571, 25.842979702515823 ], [ -80.257994701278221, 25.842523702400641 ], [ -80.257982701266911, 25.84222670232564 ], [ -80.257980701265424, 25.842191702316835 ], [ -80.257977701263414, 25.842147702305745 ], [ -80.257933701229376, 25.841337702101381 ], [ -80.257927701217554, 25.840952702003946 ], [ -80.257925701214603, 25.840861701980913 ], [ -80.257881701178533, 25.839973701756776 ], [ -80.257845701142458, 25.838996701509931 ], [ -80.257816701111125, 25.838121701288767 ], [ -80.257805701102455, 25.837912701236046 ], [ -80.257758701066493, 25.837063701021819 ], [ -80.257673701000584, 25.835489700624692 ], [ -80.257615700956478, 25.834451700362823 ], [ -80.257445700820881, 25.831162699532758 ], [ -80.25737470079028, 25.830787699439181 ], [ -80.257310700744966, 25.829766699181782 ], [ -80.257238700701336, 25.828903698964481 ], [ -80.257232700679893, 25.828148698773258 ], [ -80.257211700670311, 25.828017698740503 ], [ -80.253185699496697, 25.828135698856514 ], [ -80.253167699478126, 25.827624698727398 ], [ -80.253136699458253, 25.827211698623298 ], [ -80.253006699343416, 25.824268697880008 ], [ -80.252986699328503, 25.82391969779194 ], [ -80.252983699318492, 25.823571697703809 ], [ -80.250958698728212, 25.823632697762509 ], [ -80.250954698706991, 25.822863697567655 ], [ -80.2529376992848, 25.822794697507767 ], [ -80.252886699250652, 25.822057697321984 ], [ -80.252889699241393, 25.82166969722357 ], [ -80.252839699203008, 25.820757696993446 ], [ -80.252804699168991, 25.819846696763197 ], [ -80.252795699146475, 25.819084696570176 ], [ -80.252746699113814, 25.81838069639273 ], [ -80.25078969854269, 25.818414696443156 ], [ -80.250709698499293, 25.817648696250643 ], [ -80.250666698469033, 25.816969696079401 ], [ -80.250662698458157, 25.816597695985184 ], [ -80.250650698443863, 25.816183695880447 ], [ -80.248631697855885, 25.816265695944384 ], [ -80.248609697831171, 25.81556469576714 ], [ -80.248599697821263, 25.815295695699131 ], [ -80.248584697806777, 25.814909695601578 ], [ -80.248562697787008, 25.814398695472462 ], [ -80.248563697781847, 25.814189695419437 ], [ -80.247812697563276, 25.814224695444356 ], [ -80.247333697423585, 25.81423769545788 ], [ -80.246556697197008, 25.814256695479315 ], [ -80.246544697174315, 25.813522695293443 ], [ -80.247492697451179, 25.813511695270424 ], [ -80.247996697597941, 25.813491695254569 ], [ -80.248525697752612, 25.813494695244021 ], [ -80.248488697717221, 25.812550695005449 ], [ -80.24848369770875, 25.812280694937083 ], [ -80.248905697830892, 25.812236694916908 ], [ -80.249741698072171, 25.812118694869142 ], [ -80.250436698271159, 25.811959694813986 ], [ -80.250595698316715, 25.811924694801682 ], [ -80.252397698833079, 25.811529694663065 ], [ -80.252554698878157, 25.811497694651553 ], [ -80.252575698884186, 25.811492694649854 ], [ -80.252881698972004, 25.811430694627585 ], [ -80.253002699006657, 25.811404694618425 ], [ -80.253142699046833, 25.811376694608327 ], [ -80.253976699286198, 25.811205694547144 ], [ -80.255112699611928, 25.810964694461806 ], [ -80.255801699809183, 25.810805694406763 ], [ -80.255958699853721, 25.810754694390454 ], [ -80.25627269994277, 25.810651694357656 ], [ -80.256568700026733, 25.810552694326187 ], [ -80.256570700029116, 25.810621694343645 ], [ -80.256573700032362, 25.810712694366639 ], [ -80.257442700280492, 25.810489694291586 ], [ -80.257618700331435, 25.810469694282766 ], [ -80.257876700405944, 25.810434694268341 ], [ -80.25818470049596, 25.810435694262022 ], [ -80.258315700534268, 25.810436694259469 ], [ -80.258518700592916, 25.810410694248553 ], [ -80.258509700572489, 25.809726694075319 ], [ -80.258508700569848, 25.809636694052536 ], [ -80.258507700563854, 25.809417693997002 ], [ -80.2585067005529, 25.809007693893079 ], [ -80.258506700540906, 25.80854869377665 ], [ -80.258471700507442, 25.807657693551494 ], [ -80.258452700489769, 25.807192693433961 ] ] ] ] } }
]
}
