{
"type": "FeatureCollection",
"name": "DISTRICT_27",
"crs": { "type": "name", "properties": { "name": "urn:ogc:def:crs:OGC:1.3:CRS84" } },
"xy_coordinate_resolution": 1e-15,
"features": [
{ "type": "Feature", "properties": { "LONGNAME": "District 27", "SHORTNAME": "D27", "DISTRICT": 27, "COLOR": 2048786304, "TOTAL": 769221, "TARGET_DEV": 0 }, "geometry": { "type": "MultiPolygon", "coordinates": [ [ [ [ -80.22273968941218, 25.782650687970524 ], [ -80.222110689231442, 25.782770688014356 ], [ -80.221562689074446, 25.782893688057271 ], [ -80.220869688878125, 25.78313468813321 ], [ -80.220475688767081, 25.783292688181692 ], [ -80.22026668870825, 25.78338168820866 ], [ -80.219372688456502, 25.783748688320884 ], [ -80.218865688314452, 25.783986688392041 ], [ -80.218215688129959, 25.784199688459978 ], [ -80.218089688094508, 25.784251688475845 ], [ -80.217836688023212, 25.784355688507627 ], [ -80.21740668790224, 25.784537688562953 ], [ -80.21612668754058, 25.785019688712552 ], [ -80.215556687379674, 25.785239688780504 ], [ -80.214861687183429, 25.785506688863073 ], [ -80.214123686974801, 25.785780688948325 ], [ -80.213501686799972, 25.786048689029585 ], [ -80.213453686786607, 25.786074689037182 ], [ -80.212105686410752, 25.786774689243529 ], [ -80.211790686322743, 25.786931689290093 ], [ -80.211474686234226, 25.787080689334648 ], [ -80.210976686095009, 25.787325689407435 ], [ -80.210554685977129, 25.787536689469945 ], [ -80.210476685955712, 25.787591689485531 ], [ -80.210316685911309, 25.787682689512099 ], [ -80.210182685873633, 25.787739689529385 ], [ -80.209245685610725, 25.788162689656726 ], [ -80.209120685575968, 25.788231689676874 ], [ -80.208598685430076, 25.788489689753451 ], [ -80.208574685423301, 25.788500689756763 ], [ -80.208011685264538, 25.788723689825339 ], [ -80.207759685192684, 25.788792689848233 ], [ -80.207464685108675, 25.788878689876359 ], [ -80.207254685048653, 25.788932689894509 ], [ -80.206954684962056, 25.788975689911815 ], [ -80.206562684848734, 25.789023689932336 ], [ -80.206090684711569, 25.789055689950505 ], [ -80.205830684635913, 25.789069689959604 ], [ -80.204355684205439, 25.789097689998137 ], [ -80.204168684150929, 25.789105690004209 ], [ -80.203755684030554, 25.78911969001653 ], [ -80.202175683569806, 25.789164690061629 ], [ -80.201566683390624, 25.789120690063442 ], [ -80.200972683214175, 25.789015690049489 ], [ -80.200595683101199, 25.788907690030118 ], [ -80.200296683012155, 25.788846690020996 ], [ -80.200085682947829, 25.788744689999643 ], [ -80.199943682904532, 25.788675689985144 ], [ -80.19904468263033, 25.788238689893408 ], [ -80.198800682556509, 25.788143689874509 ], [ -80.198689682522939, 25.788100689865953 ], [ -80.198475682458152, 25.788016689849197 ], [ -80.197993682311562, 25.787797689803931 ], [ -80.197215682074912, 25.787445689731154 ], [ -80.19688768197517, 25.787296689700337 ], [ -80.196801681949054, 25.787259689692814 ], [ -80.196506681859489, 25.787131689666595 ], [ -80.196287681792967, 25.787036689647188 ], [ -80.196181681760777, 25.786990689637754 ], [ -80.196073681727995, 25.786942689627885 ], [ -80.19605968172371, 25.786936689626625 ], [ -80.195383681518322, 25.786637689565179 ], [ -80.195272681484724, 25.786594689556612 ], [ -80.195071681424025, 25.786520689542161 ], [ -80.194299681191438, 25.786255689491345 ], [ -80.194034681112612, 25.786204689484041 ], [ -80.193287680890464, 25.786060689463397 ], [ -80.19322868087292, 25.786049689461915 ], [ -80.192731680726027, 25.785988689456993 ], [ -80.192354680614628, 25.78594268945335 ], [ -80.192216680573793, 25.785925689451972 ], [ -80.191833680461258, 25.785904689454856 ], [ -80.19129968030407, 25.78586168945532 ], [ -80.190675680121331, 25.785851689466043 ], [ -80.190060679941638, 25.785855689480154 ], [ -80.189622679815301, 25.785922689506474 ], [ -80.189083679661167, 25.786055689551734 ], [ -80.187925679334938, 25.786530689696939 ], [ -80.187037679085535, 25.786925689816133 ], [ -80.186726678997374, 25.787030689849434 ], [ -80.186578678954319, 25.787039689854851 ], [ -80.18653667894236, 25.787052689859063 ], [ -80.185950678774873, 25.787200689909085 ], [ -80.185466678634626, 25.787248689931552 ], [ -80.185127678536048, 25.787269689944115 ], [ -80.1825946777995, 25.787427690038196 ], [ -80.18052167719496, 25.787489690098123 ], [ -80.179319676846077, 25.78758869014883 ], [ -80.178795676692204, 25.7875646901539 ], [ -80.178740676676085, 25.787562690154594 ], [ -80.178005676457218, 25.787411690131922 ], [ -80.177361676264255, 25.787230690099708 ], [ -80.176697676059987, 25.786842690015401 ], [ -80.176233675914574, 25.786469689930659 ], [ -80.175783675770916, 25.786005689822467 ], [ -80.175663675731542, 25.785839689782907 ], [ -80.175492675674761, 25.785577689720043 ], [ -80.175288675606836, 25.78525968964367 ], [ -80.174636675387575, 25.784158689378131 ], [ -80.174282675268643, 25.783565689235182 ], [ -80.173764675096308, 25.782763689042639 ], [ -80.173644675056366, 25.782577688998011 ], [ -80.17332467495315, 25.782206688910644 ], [ -80.173118674886993, 25.781978688857151 ], [ -80.172913674821217, 25.781753688804379 ], [ -80.171885674500402, 25.78097668862911 ], [ -80.16923267369468, 25.779822688392649 ], [ -80.16897167361526, 25.779704688368263 ], [ -80.169009673621019, 25.779498688315211 ], [ -80.169052673626211, 25.779213688241924 ], [ -80.167907673278634, 25.778722688141716 ], [ -80.163150671834543, 25.776683687725374 ], [ -80.162203671547104, 25.77627868764273 ], [ -80.152078668473138, 25.771924686752925 ], [ -80.144472666163765, 25.768653686084225 ], [ -80.141410665226914, 25.767061685745155 ], [ -80.139082664523443, 25.766191685573741 ], [ -80.138403664318275, 25.765937685523692 ], [ -80.138116664231575, 25.765831685502867 ], [ -80.136904663859923, 25.765168685360326 ], [ -80.138229664247419, 25.765168685332135 ], [ -80.137737664095724, 25.764865685265622 ], [ -80.137589664049912, 25.764769685244413 ], [ -80.138616664349883, 25.764753685218487 ], [ -80.138603664340351, 25.764533685162888 ], [ -80.138632664347284, 25.764473685147077 ], [ -80.138678664360668, 25.764471685145594 ], [ -80.139173664505108, 25.76445868513175 ], [ -80.139423664577905, 25.764444685122843 ], [ -80.139681664652997, 25.764431685114115 ], [ -80.139955664732796, 25.764417685104682 ], [ -80.140013664750043, 25.764428685106289 ], [ -80.141184665091885, 25.76440368507502 ], [ -80.14170466524341, 25.764382685058628 ], [ -80.144086665938275, 25.764313684990459 ], [ -80.144428666038067, 25.764304684980868 ], [ -80.148050667094566, 25.764196684876385 ], [ -80.148480667219843, 25.764177684862467 ], [ -80.148899667341851, 25.764158684848717 ], [ -80.148954667357586, 25.764144684843966 ], [ -80.149002667370794, 25.76411268483486 ], [ -80.14906166738632, 25.764044684816334 ], [ -80.149079667390509, 25.764005684806026 ], [ -80.14908966739236, 25.763962684794915 ], [ -80.149090667391221, 25.763908684781178 ], [ -80.148823667273447, 25.76237868439836 ], [ -80.145099666113154, 25.759632683780222 ], [ -80.144526665934478, 25.75920568368398 ], [ -80.144191665830277, 25.758965683630109 ], [ -80.142921665434457, 25.758023683417893 ], [ -80.142688665361987, 25.757856683380449 ], [ -80.142320665246714, 25.75756268331363 ], [ -80.142057665164117, 25.757342683263321 ], [ -80.142030665155531, 25.757317683257536 ], [ -80.141326664936159, 25.756797683140459 ], [ -80.141283664922923, 25.756771683134783 ], [ -80.141242664910237, 25.756745683128994 ], [ -80.140401664648238, 25.756126682989706 ], [ -80.140352664633184, 25.756097682983395 ], [ -80.140312664621035, 25.756080682979917 ], [ -80.139969664513202, 25.755790682913531 ], [ -80.139794664458549, 25.755656682883231 ], [ -80.138349664007293, 25.754551682633309 ], [ -80.135718663185699, 25.752540682178452 ], [ -80.132181662083539, 25.749929681590427 ], [ -80.132540662152834, 25.748551681232737 ], [ -80.131369661787815, 25.747681681036656 ], [ -80.124769659741844, 25.743218680043089 ], [ -80.10930865496519, 25.733393677874911 ], [ -80.091782649520894, 25.721114675125914 ], [ -80.091842649504571, 25.719804674791675 ], [ -80.091942649481709, 25.717784674276096 ], [ -80.092102649469396, 25.715494673690575 ], [ -80.092372649490045, 25.71323467311036 ], [ -80.092642649515881, 25.711174672580945 ], [ -80.092842649540586, 25.709864672243704 ], [ -80.093032649567519, 25.708754671957507 ], [ -80.093132649567607, 25.7076246716681 ], [ -80.093142649526698, 25.705924671235692 ], [ -80.093242649497142, 25.703644670653922 ], [ -80.093392649497233, 25.701944670218488 ], [ -80.093562649513203, 25.700634669881829 ], [ -80.093732649533791, 25.699504669590958 ], [ -80.093892649556366, 25.698564669348549 ], [ -80.094152649598939, 25.697264669012554 ], [ -80.094412649646358, 25.696154668724763 ], [ -80.094742649709445, 25.694854668387229 ], [ -80.095162649794716, 25.69339466800713 ], [ -80.095572649881674, 25.692114667672971 ], [ -80.096162650012531, 25.69049466724854 ], [ -80.096582650107877, 25.68942466696755 ], [ -80.097192650250008, 25.688014666596146 ], [ -80.09787265040849, 25.68644466618251 ], [ -80.098322650513623, 25.685414665911029 ], [ -80.098862650640953, 25.684224665597011 ], [ -80.098702650561464, 25.682954665277432 ], [ -80.098562650501748, 25.682224665094704 ], [ -80.098342650404433, 25.680944664773875 ], [ -80.098132650304962, 25.67946466440188 ], [ -80.097992650230765, 25.678174664076778 ], [ -80.097792650119274, 25.676114663557044 ], [ -80.097692650041708, 25.674234663081016 ], [ -80.097672650011916, 25.673304662844838 ], [ -80.097722649958953, 25.670674662174832 ], [ -80.097872649945018, 25.668424661599374 ], [ -80.098122649965177, 25.666364661070066 ], [ -80.098432650003204, 25.66431466054204 ], [ -80.098802650058758, 25.662264660012742 ], [ -80.099252650137998, 25.660224659484275 ], [ -80.100147650325212, 25.657318658726091 ], [ -80.100452650386131, 25.656214658438799 ], [ -80.101122650536126, 25.654424657969294 ], [ -80.102332650817715, 25.651604657226272 ], [ -80.103102651002928, 25.650044656813158 ], [ -80.103732651156676, 25.64885465649709 ], [ -80.104002651165871, 25.646134655799347 ], [ -80.107772651257491, 25.606634645666592 ], [ -80.107062651001257, 25.604734645197809 ], [ -80.106222650687357, 25.602064644535606 ], [ -80.105652650464208, 25.599854643984862 ], [ -80.105132650245409, 25.59724464333123 ], [ -80.104762650070072, 25.594614642669313 ], [ -80.104562649948775, 25.592154642047088 ], [ -80.104492649874985, 25.590064641516324 ], [ -80.104512649827768, 25.587984640986235 ], [ -80.10461264981339, 25.586274640548648 ], [ -80.10478264981495, 25.584384640063735 ], [ -80.104982649835208, 25.582884639677513 ], [ -80.10527264987698, 25.581194639240998 ], [ -80.104782649686996, 25.579364638785215 ], [ -80.104302649489497, 25.577124638224696 ], [ -80.103812649265137, 25.573944637424997 ], [ -80.103542649104682, 25.57074463661554 ], [ -80.103512649013908, 25.567524635795902 ], [ -80.103652648987662, 25.564884635120446 ], [ -80.104002649013395, 25.561874634346282 ], [ -80.104502649088658, 25.55908463362498 ], [ -80.105072649194639, 25.556694633004152 ], [ -80.106022649394191, 25.553614632199533 ], [ -80.107332649691671, 25.550244631313426 ], [ -80.108592649984487, 25.547264630527764 ], [ -80.109542650199586, 25.544794629878499 ], [ -80.110552650437597, 25.542534629281466 ], [ -80.110802650497519, 25.542014629143768 ], [ -80.111675650709472, 25.540305628690003 ], [ -80.115916651975397, 25.541310628857456 ], [ -80.119556653039254, 25.541279628773442 ], [ -80.120595653160052, 25.534069626914423 ], [ -80.135204657519822, 25.537504627484502 ], [ -80.152458662675087, 25.541824628224447 ], [ -80.163535665985222, 25.54462562870641 ], [ -80.168374667431209, 25.545849628916955 ], [ -80.174994669411532, 25.547609629226766 ], [ -80.175464669552113, 25.547734629248787 ], [ -80.236579687005431, 25.531525623842636 ], [ -80.249739690851982, 25.531547623573175 ], [ -80.315261710023307, 25.532613622474667 ], [ -80.31552471010022, 25.532617622470205 ], [ -80.316684710439574, 25.532637622450999 ], [ -80.323324712416905, 25.534120622689578 ], [ -80.323966712607998, 25.534261622712091 ], [ -80.32515171296086, 25.534525622754444 ], [ -80.325284713002091, 25.534619622775594 ], [ -80.325769713152482, 25.534963622853031 ], [ -80.32573971314369, 25.534961622853164 ], [ -80.325660713119987, 25.534937622848705 ], [ -80.325339713022686, 25.534798622820002 ], [ -80.325243712993739, 25.534762622812874 ], [ -80.325179712974673, 25.534747622810372 ], [ -80.325159712968897, 25.534750622811554 ], [ -80.32513671296276, 25.53477362281788 ], [ -80.325148712967689, 25.534827622831411 ], [ -80.325208712990232, 25.535027622881071 ], [ -80.325116712972189, 25.535374622971283 ], [ -80.325038712951169, 25.535442622990214 ], [ -80.325035712952001, 25.535509623007336 ], [ -80.325062712961895, 25.535589623027143 ], [ -80.325095712972924, 25.535644623040451 ], [ -80.325162712995947, 25.535780623073645 ], [ -80.325181713002792, 25.535830623085968 ], [ -80.325207713011267, 25.535865623094352 ], [ -80.325245713024998, 25.535969623119978 ], [ -80.325279713036323, 25.536022623132784 ], [ -80.325355713062336, 25.536173623169613 ], [ -80.325434713088526, 25.536297623199541 ], [ -80.325510713114355, 25.536438623233813 ], [ -80.325562713132456, 25.536554623262234 ], [ -80.325640713158506, 25.536681623292939 ], [ -80.325737713189767, 25.536797623320421 ], [ -80.325868713232879, 25.53698762336608 ], [ -80.326031713287605, 25.537268623434162 ], [ -80.326142713324231, 25.53743362347382 ], [ -80.326182713337488, 25.537493623488242 ], [ -80.326341713389567, 25.537716623541694 ], [ -80.32637571340122, 25.537785623558516 ], [ -80.326528713452404, 25.538039623619952 ], [ -80.32658571347082, 25.538108623636305 ], [ -80.326748713525092, 25.538371623699849 ], [ -80.326784713537307, 25.538439623716403 ], [ -80.326827713551552, 25.538505623732313 ], [ -80.326896713573944, 25.538593623753272 ], [ -80.32698771360495, 25.53876762379566 ], [ -80.327158713660836, 25.539000623851354 ], [ -80.327193713672102, 25.53904062386081 ], [ -80.327318713713851, 25.539247623910878 ], [ -80.3274227137493, 25.539445623959089 ], [ -80.327491713772218, 25.539555623985642 ], [ -80.327607713811787, 25.539778624039997 ], [ -80.32778671387166, 25.540077624112321 ], [ -80.327791713874063, 25.540114624121639 ], [ -80.327844713891736, 25.540201624142632 ], [ -80.328004713942889, 25.540373624183054 ], [ -80.328055713958904, 25.54041862419345 ], [ -80.328269714028224, 25.540687624257437 ], [ -80.328886714213411, 25.540881624293917 ], [ -80.328900714218236, 25.540911624301248 ], [ -80.328923714225652, 25.540938624307614 ], [ -80.329005714250997, 25.540992624319671 ], [ -80.329027714258061, 25.541017624325558 ], [ -80.329067714271432, 25.541083624341518 ], [ -80.329308714349153, 25.541373624410234 ], [ -80.32941671438364, 25.541488624437303 ], [ -80.329532714421489, 25.541644624474497 ], [ -80.329741714489145, 25.541902624535819 ], [ -80.329859714526634, 25.542022624563863 ], [ -80.329931714549147, 25.542081624577403 ], [ -80.330084714597547, 25.542226624611068 ], [ -80.329940714557935, 25.542322624638544 ], [ -80.329998714576661, 25.542393624655389 ], [ -80.330121714617022, 25.542566624696811 ], [ -80.330266714663225, 25.542719624732719 ], [ -80.330425714712746, 25.54284062476021 ], [ -80.330768714818802, 25.543071624811819 ], [ -80.330814714833153, 25.543107624819964 ], [ -80.330859714845772, 25.543087624813982 ], [ -80.330946714872638, 25.543143624826378 ], [ -80.331012714893532, 25.543207624841287 ], [ -80.33114171493358, 25.543299624862009 ], [ -80.331311714985674, 25.543396624883101 ], [ -80.331406715015305, 25.543468624899429 ], [ -80.331415715018863, 25.543506624908932 ], [ -80.331522715052401, 25.543595624929345 ], [ -80.331574715067603, 25.543596624928512 ], [ -80.33160171507572, 25.543606624930522 ], [ -80.331667715096586, 25.543668624944875 ], [ -80.331715715111443, 25.54370162495227 ], [ -80.331784715132528, 25.543738624960241 ], [ -80.332092715226096, 25.543879624989703 ], [ -80.332202715259143, 25.543915624996536 ], [ -80.332802715434894, 25.5439346249888 ], [ -80.333021715498845, 25.543934624984235 ], [ -80.333259715567962, 25.543918624975163 ], [ -80.334556715948509, 25.543984624964814 ], [ -80.33530671616542, 25.543901624928022 ], [ -80.3368237166098, 25.54395162490896 ], [ -80.339564717410397, 25.543951624851569 ], [ -80.340441717674565, 25.544266624913398 ], [ -80.344462718906769, 25.546536625406787 ], [ -80.34563271926703, 25.547265625567768 ], [ -80.346418719515526, 25.548011625741093 ], [ -80.34698571969254, 25.548458625842947 ], [ -80.347734719921405, 25.548856625928536 ], [ -80.348465720143324, 25.549187625997465 ], [ -80.348904720281269, 25.549568626085151 ], [ -80.350329720726549, 25.550712626346332 ], [ -80.35092872092882, 25.551785626606815 ], [ -80.351008720955761, 25.551927626641241 ], [ -80.351225721026594, 25.552219626710958 ], [ -80.351846721240918, 25.553512627026937 ], [ -80.352321721386801, 25.553794627088674 ], [ -80.354606722081556, 25.554871627314807 ], [ -80.355739722420864, 25.555202627375273 ], [ -80.358079723104268, 25.555202627326242 ], [ -80.358865723343499, 25.555583627406701 ], [ -80.35924872346591, 25.55599762750396 ], [ -80.35943172352863, 25.556362627592943 ], [ -80.359504723575313, 25.557356627844257 ], [ -80.359358723549946, 25.558036628020325 ], [ -80.35917572352524, 25.559162628310556 ], [ -80.359128723514914, 25.559297628345899 ], [ -80.359285723572953, 25.559775628464173 ], [ -80.359631723684927, 25.560205628566287 ], [ -80.35977872373256, 25.560388628609733 ], [ -80.360015723811898, 25.560786628706037 ], [ -80.360206723875834, 25.561106628783421 ], [ -80.360272723897964, 25.561217628810244 ], [ -80.360455723965728, 25.561780628949627 ], [ -80.360674724052103, 25.562659629168593 ], [ -80.360729724078695, 25.563073629272719 ], [ -80.361332724291969, 25.564531629630917 ], [ -80.361899724487103, 25.565691629914081 ], [ -80.362043724548343, 25.566444630102534 ], [ -80.362063724562844, 25.566784630188597 ], [ -80.362069724567306, 25.566888630214912 ], [ -80.362161724633822, 25.56844463060872 ], [ -80.362436724714101, 25.568443630602712 ], [ -80.362616724766681, 25.568443630598921 ], [ -80.362813724824008, 25.568434630592474 ], [ -80.363149724922224, 25.568438630586471 ], [ -80.363478725018311, 25.568440630580081 ], [ -80.363762725100955, 25.568427630570806 ], [ -80.3644597253098, 25.568634630608813 ], [ -80.364780725405254, 25.568702630619374 ], [ -80.365926725746078, 25.568944630656894 ], [ -80.367773726295439, 25.56933463071729 ], [ -80.36857272653306, 25.56950363074354 ], [ -80.37106472726903, 25.569826630773392 ], [ -80.371893727513651, 25.569925630781199 ], [ -80.372286727629827, 25.569981630787172 ], [ -80.372287727631885, 25.570051630804944 ], [ -80.372292727661957, 25.571171631089655 ], [ -80.372359727738655, 25.573411631657844 ], [ -80.372429727817277, 25.575691632236165 ], [ -80.372764727922998, 25.576000632307675 ], [ -80.368839726879415, 25.580023633413013 ], [ -80.368400726762275, 25.580455633532043 ], [ -80.366462726247335, 25.582454634081039 ], [ -80.366473726251286, 25.582484634088409 ], [ -80.367483726613102, 25.585101634732617 ], [ -80.369177727246736, 25.590541636080033 ], [ -80.369961727527581, 25.592571636579621 ], [ -80.370332727653562, 25.593260636746997 ], [ -80.370552727726889, 25.593616636832866 ], [ -80.370850727822571, 25.593953636912275 ], [ -80.372017728190471, 25.595016637157961 ], [ -80.372354728296301, 25.595305637224342 ], [ -80.374137728856098, 25.59683463757554 ], [ -80.374183728870676, 25.596879637586014 ], [ -80.374227728884634, 25.596922637596016 ], [ -80.374979729123126, 25.597662637768302 ], [ -80.375192729190658, 25.597872637817197 ], [ -80.375771729374463, 25.598446637950897 ], [ -80.376548729627558, 25.599470638194862 ], [ -80.377333729889131, 25.60073463849962 ], [ -80.377986730131326, 25.602747638997499 ], [ -80.378120730184577, 25.603302639135773 ], [ -80.378140730192726, 25.603391639157969 ], [ -80.378205730227606, 25.604013639314708 ], [ -80.378336730333359, 25.606650639982163 ], [ -80.378645730575727, 25.612592641485723 ], [ -80.379133730990802, 25.623232644179076 ], [ -80.379163731045324, 25.625016644631778 ], [ -80.379190731063289, 25.62540964473104 ], [ -80.379336731124539, 25.626136644912648 ], [ -80.379476731177945, 25.626623645033451 ], [ -80.379650731238627, 25.627009645127849 ], [ -80.379848731307447, 25.627439645232929 ], [ -80.379896731324123, 25.627543645258339 ], [ -80.380103731392992, 25.627869645336787 ], [ -80.380410731491835, 25.628229645421772 ], [ -80.381276731764771, 25.62900964560172 ], [ -80.382142732034453, 25.629666645750355 ], [ -80.382295732082582, 25.629799645780921 ], [ -80.382303732097199, 25.630279645902672 ], [ -80.382328732104966, 25.630298645906997 ], [ -80.382480732152757, 25.630430645937341 ], [ -80.382528732179495, 25.630926646062338 ], [ -80.382674732314243, 25.634515646970989 ], [ -80.382739732382291, 25.636426647455082 ], [ -80.382743732387624, 25.636590647496696 ], [ -80.382847732485047, 25.63920364815824 ], [ -80.382956732585001, 25.641856648829791 ], [ -80.383029732655871, 25.643784649318007 ], [ -80.38304873268612, 25.644747649562213 ], [ -80.38309173272927, 25.645938649863822 ], [ -80.383092732731328, 25.646007649881309 ], [ -80.383095732735043, 25.646118649909457 ], [ -80.383127732758624, 25.646671650049182 ], [ -80.383185732812152, 25.648096650409943 ], [ -80.383231732848699, 25.648996650637553 ], [ -80.383333732939775, 25.651380651240892 ], [ -80.383267732922704, 25.651465651263809 ], [ -80.383237732914864, 25.651500651273349 ], [ -80.383258732932646, 25.651954651388209 ], [ -80.383285732955528, 25.652538651535956 ], [ -80.38336473297629, 25.652449651511688 ], [ -80.383435733070186, 25.655294652232683 ], [ -80.383490733119444, 25.656585652559407 ], [ -80.383529733148904, 25.657287652736844 ], [ -80.383532733151981, 25.657373652758622 ], [ -80.383600733199756, 25.65845965303297 ], [ -80.383614733224434, 25.659258653235536 ], [ -80.383623733231403, 25.65942865327855 ], [ -80.383655733253917, 25.659941653408158 ], [ -80.383686733276349, 25.660460653539289 ], [ -80.383712733295667, 25.660915653654264 ], [ -80.383745733329334, 25.661851653891251 ], [ -80.383801733387003, 25.663456654297612 ], [ -80.38382173341266, 25.664225654492437 ], [ -80.383827733419054, 25.664406654538304 ], [ -80.383868733450498, 25.665162654729418 ], [ -80.383923733495308, 25.666281655012334 ], [ -80.383935733511308, 25.666764655134745 ], [ -80.384025733601391, 25.669243655762276 ], [ -80.384056733627389, 25.669902655928922 ], [ -80.384146733704014, 25.671857656423391 ], [ -80.384175733730018, 25.67253965659593 ], [ -80.384216733775375, 25.673835656924098 ], [ -80.384191733773477, 25.674044656977671 ], [ -80.384211733802843, 25.67495765720907 ], [ -80.384278733838073, 25.675565657362029 ], [ -80.384334733882653, 25.676662657639284 ], [ -80.384324733907533, 25.67774065791318 ], [ -80.384379733946346, 25.678624658136478 ], [ -80.384414733992671, 25.680024658491138 ], [ -80.384461734028704, 25.680890658709949 ], [ -80.384483734050889, 25.681501658864597 ], [ -80.384499734064278, 25.681839658950043 ], [ -80.384518734077488, 25.68213665902508 ], [ -80.384531734106659, 25.683122659275064 ], [ -80.384535734119453, 25.683573659389452 ], [ -80.384534734122624, 25.683707659423494 ], [ -80.384478734118517, 25.684181659544983 ], [ -80.384498734133615, 25.684539659635465 ], [ -80.384526734161554, 25.685306659829561 ], [ -80.384577734204612, 25.686399660105948 ], [ -80.384581734207927, 25.686483660127195 ], [ -80.384506734196279, 25.686880660229523 ], [ -80.384154734113039, 25.687639660429657 ], [ -80.383819734026787, 25.688086660550212 ], [ -80.383327733896508, 25.68860566069236 ], [ -80.383303733890159, 25.68863166069946 ], [ -80.382960733797731, 25.688932660783117 ], [ -80.382788733751397, 25.689082660824841 ], [ -80.382244733616488, 25.690010661071899 ], [ -80.38215973359975, 25.690324661153404 ], [ -80.382058733579854, 25.690697661250244 ], [ -80.382008733570018, 25.690881661297993 ], [ -80.381989733573874, 25.691246661391048 ], [ -80.381994733578651, 25.691373661423178 ], [ -80.381954733580187, 25.69188666155425 ], [ -80.381953733585718, 25.692111661611381 ], [ -80.3819767336105, 25.692812661788807 ], [ -80.381992733632217, 25.693473661956236 ], [ -80.3819947336398, 25.693743662024705 ], [ -80.382010733658007, 25.694269662157851 ], [ -80.38205673374587, 25.697153662888898 ], [ -80.382086733792931, 25.698634663264105 ], [ -80.382124733857466, 25.700706663789138 ], [ -80.382164733887592, 25.7014206639695 ], [ -80.3825417341708, 25.708121665662034 ], [ -80.382641734234241, 25.709446665996129 ], [ -80.382603734234948, 25.709901666112366 ], [ -80.382556734227876, 25.710159666178829 ], [ -80.382503734219981, 25.710454666254787 ], [ -80.382416734207055, 25.710936666378981 ], [ -80.382469734259686, 25.712373666742486 ], [ -80.382450734259152, 25.712567666792083 ], [ -80.382469734273386, 25.712903666876958 ], [ -80.382557734337738, 25.714398667254446 ], [ -80.382565734343487, 25.714531667287975 ], [ -80.382585734357875, 25.714861667371299 ], [ -80.3821197342223, 25.714881667386262 ], [ -80.380910733870564, 25.714933667425107 ], [ -80.380949733903691, 25.715773667637439 ], [ -80.381024733984404, 25.718048668213072 ], [ -80.380269733764209, 25.71805866823161 ], [ -80.380245733734085, 25.717164668005282 ], [ -80.380180733679381, 25.715783667656282 ], [ -80.378482733185052, 25.715842667707303 ], [ -80.37600073246297, 25.715949667787076 ], [ -80.375984732436635, 25.715110667574553 ], [ -80.375634732334959, 25.715132667587568 ], [ -80.375498732295313, 25.71513466759092 ], [ -80.375469732286859, 25.715135667591802 ], [ -80.3754387322778, 25.715136667592709 ], [ -80.374927732128839, 25.715145667605874 ], [ -80.374932732136884, 25.715400667670469 ], [ -80.374937732141319, 25.715516667699795 ], [ -80.374953732154481, 25.715844667782704 ], [ -80.37502073221745, 25.717522668206996 ], [ -80.375128732289497, 25.719087668601823 ], [ -80.37514673230676, 25.719553668719627 ], [ -80.37514873230856, 25.719600668731569 ], [ -80.375150732310743, 25.719660668746716 ], [ -80.375166732326406, 25.720086668854467 ], [ -80.37428273206811, 25.720081668871977 ], [ -80.37337773180387, 25.720083668891693 ], [ -80.373208731755881, 25.720136668908722 ], [ -80.373233731767769, 25.720314668953343 ], [ -80.373551731878408, 25.72099966912042 ], [ -80.373679731945941, 25.722166669413806 ], [ -80.374443732168785, 25.722155669394756 ], [ -80.375242732401347, 25.722124669369936 ], [ -80.375256732415991, 25.72253366947341 ], [ -80.375258732417677, 25.72257666948429 ], [ -80.375134732381454, 25.722575669486666 ], [ -80.375114732376403, 25.722605669494698 ], [ -80.375032732352906, 25.722623669501015 ], [ -80.374979732337493, 25.722625669502627 ], [ -80.37487673230774, 25.722639669508407 ], [ -80.374266732130096, 25.722659669526362 ], [ -80.374169732101592, 25.722651669526417 ], [ -80.372484731610271, 25.722681669569781 ], [ -80.371405731295312, 25.722687669594269 ], [ -80.371371731285777, 25.722701669598496 ], [ -80.371358731282427, 25.72271966960335 ], [ -80.371345731279874, 25.722766669615535 ], [ -80.371364731291777, 25.723013669677819 ], [ -80.371367731293873, 25.723058669689181 ], [ -80.371365731294418, 25.72310566970112 ], [ -80.371293731273454, 25.723106669702908 ], [ -80.371233731255955, 25.723107669704426 ], [ -80.370070730916865, 25.7231296697347 ], [ -80.368589730484175, 25.723123669764639 ], [ -80.367588730181168, 25.722710669681138 ], [ -80.367298730096479, 25.722711669687527 ], [ -80.367320730123069, 25.723490669884686 ], [ -80.367396730179578, 25.724816670219511 ], [ -80.367440730215947, 25.725725670449243 ], [ -80.367485730252611, 25.726634670678884 ], [ -80.367514730279211, 25.727335670856117 ], [ -80.367604730346798, 25.728930671258858 ], [ -80.367632730381246, 25.729943671515276 ], [ -80.367704730430233, 25.731024671787988 ], [ -80.367775730478996, 25.732106672060958 ], [ -80.367780730485777, 25.732312672113107 ], [ -80.367775730506651, 25.733174672331877 ], [ -80.367770730529884, 25.734127672573791 ], [ -80.367733730566044, 25.735941673034702 ], [ -80.367751730618366, 25.737756673494754 ], [ -80.367720730656458, 25.739576673957099 ], [ -80.367733730682161, 25.740422674171366 ], [ -80.367728730705409, 25.741376674413512 ], [ -80.367726730733082, 25.742465674689772 ], [ -80.367719730749727, 25.743185674872521 ], [ -80.367715730767188, 25.743906675055495 ], [ -80.367711730784734, 25.744627675238455 ], [ -80.367736730800459, 25.744952675320398 ], [ -80.367707730801953, 25.7453366754184 ], [ -80.367704730818204, 25.745996675585825 ], [ -80.367713730839526, 25.746718675768779 ], [ -80.367814730920571, 25.748704676270304 ], [ -80.36791173099607, 25.750523676729603 ], [ -80.367911731005265, 25.750878676819656 ], [ -80.367962731055783, 25.752251677166765 ], [ -80.368017731091044, 25.752990677353029 ], [ -80.368016731096233, 25.753201677406558 ], [ -80.368068731139502, 25.754284677680079 ], [ -80.368071731142251, 25.75435667769829 ], [ -80.368134731192001, 25.755564678003285 ], [ -80.368133731197517, 25.755788678060139 ], [ -80.368211731258285, 25.75725267842973 ], [ -80.36826673130146, 25.758296678693277 ], [ -80.368301731330575, 25.759024678877193 ], [ -80.368410731421605, 25.761304679453019 ], [ -80.367323731105401, 25.761352679488311 ], [ -80.365408730547429, 25.76140367954201 ], [ -80.364710730344072, 25.761423679561961 ], [ -80.363563730009943, 25.761456679594787 ], [ -80.362859729804924, 25.761478679615358 ], [ -80.360399729088329, 25.761553679686745 ], [ -80.360410729093928, 25.761644679709573 ], [ -80.360414729096604, 25.76170267972423 ], [ -80.360419729100087, 25.761781679744132 ], [ -80.36042372910272, 25.761837679758262 ], [ -80.360424729103556, 25.761857679763263 ], [ -80.36043572910674, 25.761856679762762 ], [ -80.360437729107971, 25.761882679769379 ], [ -80.360474729129649, 25.762299679874307 ], [ -80.360510729153134, 25.762800680000559 ], [ -80.360565729187684, 25.763510680179468 ], [ -80.360578729195623, 25.76367268022026 ], [ -80.360620729222262, 25.76422568035963 ], [ -80.359803728984559, 25.764259680385628 ], [ -80.359448728881191, 25.764272680396481 ], [ -80.358993728748814, 25.764292680411256 ], [ -80.358638728645502, 25.76430668042234 ], [ -80.358704728687727, 25.765190680645141 ], [ -80.359199728831783, 25.765170680629513 ], [ -80.360697729267969, 25.76511768058413 ], [ -80.360716729279716, 25.765357680644616 ], [ -80.360751729301583, 25.76580468075721 ], [ -80.360820729341185, 25.766554680945905 ], [ -80.360872729374762, 25.767262681124347 ], [ -80.360921729402151, 25.767763681250333 ], [ -80.360991729448315, 25.768754681500109 ], [ -80.361595729624483, 25.768744681484698 ], [ -80.363440730161642, 25.768680681429206 ], [ -80.363990730322072, 25.768671681415178 ], [ -80.365487730757948, 25.768620681370344 ], [ -80.366491731050488, 25.768593681342136 ], [ -80.368997731778776, 25.768454681253459 ], [ -80.369075731832183, 25.769631681550241 ], [ -80.369172731889108, 25.770732681827333 ], [ -80.369268731946946, 25.771879682116083 ], [ -80.369273731953342, 25.77206768216363 ], [ -80.36927973195921, 25.772226682203812 ], [ -80.369329731979533, 25.772446682258547 ], [ -80.369317731984012, 25.772755682337145 ], [ -80.369355732006454, 25.773191682446871 ], [ -80.369366732011926, 25.773277682468443 ], [ -80.369406732032033, 25.773602682549967 ], [ -80.369468732070146, 25.774371682743585 ], [ -80.369507732093979, 25.774849682863984 ], [ -80.369545732114233, 25.775200682952125 ], [ -80.369544732118328, 25.775369682995017 ], [ -80.369556732127464, 25.775587683049988 ], [ -80.369538732136348, 25.776131683188304 ], [ -80.369479732138501, 25.776875683378211 ], [ -80.369452732139266, 25.777209683463422 ], [ -80.369438732139884, 25.777388683509091 ], [ -80.369393732134128, 25.777673683582329 ], [ -80.369337732127079, 25.778032683674546 ], [ -80.369327732125797, 25.77809468369049 ], [ -80.369184732107513, 25.778996683922205 ], [ -80.369051732097972, 25.780123684210722 ], [ -80.368976732092335, 25.780750684371288 ], [ -80.367690731723641, 25.781014684465596 ], [ -80.365715731154097, 25.781292684578219 ], [ -80.364764730878576, 25.781380684620817 ], [ -80.363684730565566, 25.78147468466765 ], [ -80.363082730391127, 25.78152668469367 ], [ -80.361926730053838, 25.781541684722139 ], [ -80.359000729203032, 25.781687684821541 ], [ -80.35309472747609, 25.781614684928972 ], [ -80.352719727366519, 25.78161368493674 ], [ -80.349611726458448, 25.781604685000751 ], [ -80.343590724699339, 25.781589685125329 ], [ -80.339330723454083, 25.781555685207522 ], [ -80.336777722708646, 25.781569685265527 ], [ -80.33669172268354, 25.781570685267603 ], [ -80.334850722146214, 25.781586685310923 ], [ -80.333016721610321, 25.781583685349293 ], [ -80.331183721077196, 25.781673685411185 ], [ -80.32910272046783, 25.781618685441579 ], [ -80.328752720364889, 25.781591685442198 ], [ -80.328519720296882, 25.781594685447921 ], [ -80.327559720015131, 25.781543685455482 ], [ -80.326747719777927, 25.781543685472784 ], [ -80.325301719354627, 25.781511685495481 ], [ -80.324961719254233, 25.78147068549238 ], [ -80.323895718940676, 25.78138768549405 ], [ -80.322794718616549, 25.78129368549369 ], [ -80.322266718461719, 25.781269685498859 ], [ -80.321859718341244, 25.781208685492068 ], [ -80.321528718243243, 25.781159685486696 ], [ -80.321117718121727, 25.781103685481245 ], [ -80.32104271809952, 25.781093685480315 ], [ -80.321008718089459, 25.781088685479787 ], [ -80.320976718079962, 25.781083685479157 ], [ -80.320905718058924, 25.781072685477916 ], [ -80.320828718036154, 25.781060685476483 ], [ -80.320556717956023, 25.781034685475706 ], [ -80.319942717773685, 25.780921685460147 ], [ -80.319774717723675, 25.780885685454621 ], [ -80.318684717399123, 25.780649685417977 ], [ -80.318271717276502, 25.780575685408042 ], [ -80.31652071675488, 25.780189685347484 ], [ -80.316328716697654, 25.780144685340169 ], [ -80.31621171666275, 25.780117685335775 ], [ -80.316095716628269, 25.780093685332155 ], [ -80.315976716592857, 25.780070685328859 ], [ -80.315856716557263, 25.780049685326116 ], [ -80.315742716523545, 25.780033685324501 ], [ -80.315552716467366, 25.780008685322226 ], [ -80.31537471641478, 25.779984685319945 ], [ -80.315247716377399, 25.779974685320081 ], [ -80.315156716350685, 25.779969685320761 ], [ -80.315075716326845, 25.779963685320979 ], [ -80.314946716289015, 25.779956685321931 ], [ -80.314846716259638, 25.779951685322803 ], [ -80.314622716194094, 25.779948685326811 ], [ -80.314498716157914, 25.779948685329469 ], [ -80.314379716123156, 25.779950685332494 ], [ -80.314258716087977, 25.77995668533659 ], [ -80.314140716053629, 25.779960685340168 ], [ -80.314022716019409, 25.779970685345194 ], [ -80.313901715984258, 25.779979685350039 ], [ -80.313786715951053, 25.779993685356047 ], [ -80.313665715916059, 25.780006685361936 ], [ -80.313544715881051, 25.780021685368293 ], [ -80.313426715847072, 25.780040685375635 ], [ -80.313276715803894, 25.780065685385171 ], [ -80.313188715778622, 25.78008268539136 ], [ -80.31306971574449, 25.780105685399747 ], [ -80.312957715712329, 25.780128685407952 ], [ -80.312837715678015, 25.780156685417591 ], [ -80.31272071564463, 25.780186685427751 ], [ -80.312610715613246, 25.78021568543743 ], [ -80.312501715582172, 25.780245685447344 ], [ -80.312153715483305, 25.780354685482394 ], [ -80.309986714876828, 25.781378685788329 ], [ -80.308922714579055, 25.781881685938529 ], [ -80.308773714536869, 25.781934685955125 ], [ -80.308670714507855, 25.781974685967484 ], [ -80.308412714435534, 25.782093686003147 ], [ -80.308288714400561, 25.782140686017719 ], [ -80.308081714342379, 25.782228686044441 ], [ -80.307636714217537, 25.782427686104413 ], [ -80.307513714182875, 25.782477686119698 ], [ -80.307410714154216, 25.782531686135599 ], [ -80.307307714125898, 25.782601686155569 ], [ -80.306820713989424, 25.782823686222258 ], [ -80.30533271357298, 25.783527686432478 ], [ -80.304816713427911, 25.783746686499043 ], [ -80.304103713227519, 25.784051686591557 ], [ -80.302983712907007, 25.784311686681399 ], [ -80.30151971248354, 25.784476686754452 ], [ -80.299232711817822, 25.784571686827292 ], [ -80.297852711415828, 25.784620686869179 ], [ -80.296139710915526, 25.784628686907705 ], [ -80.295206710643839, 25.784663686936469 ], [ -80.294318710384204, 25.784658686954135 ], [ -80.293452710130325, 25.784625686964258 ], [ -80.292933709977405, 25.784576686962918 ], [ -80.2922997097902, 25.784501686957366 ], [ -80.290990709402578, 25.784303686935047 ], [ -80.290413709232325, 25.784241686931672 ], [ -80.289740709035001, 25.784214686939134 ], [ -80.289277708899306, 25.784200686945493 ], [ -80.288821708766918, 25.784232686963289 ], [ -80.288548708687642, 25.784252686974195 ], [ -80.286785708180759, 25.784569687092173 ], [ -80.285454707799573, 25.784867687196122 ], [ -80.283284707177671, 25.785338687361861 ], [ -80.282017706811686, 25.785500687429991 ], [ -80.280524706375985, 25.785522687467406 ], [ -80.279344706028283, 25.785413687464899 ], [ -80.27821570569327, 25.785217687439268 ], [ -80.277895705598056, 25.785151687429348 ], [ -80.277101705359925, 25.784916687386691 ], [ -80.27608770505347, 25.784526687309352 ], [ -80.274459704560556, 25.78386768717694 ], [ -80.274388704538907, 25.783833687169835 ], [ -80.274284704507252, 25.783783687159332 ], [ -80.274201704481939, 25.783743687151006 ], [ -80.274178704474934, 25.78373268714866 ], [ -80.274162704471138, 25.783767687157919 ], [ -80.274099704456248, 25.783902687193503 ], [ -80.274049704443442, 25.783972687212302 ], [ -80.273844704389106, 25.784185687270675 ], [ -80.273143704203207, 25.784914687470575 ], [ -80.272727704092986, 25.785352687590521 ], [ -80.272355703994492, 25.785743687697586 ], [ -80.272087703924655, 25.786069687786021 ], [ -80.271619703804021, 25.786690687953485 ], [ -80.271450703759669, 25.786882688005807 ], [ -80.271372703739388, 25.786980688032301 ], [ -80.271269703712647, 25.787108688066976 ], [ -80.271227703699481, 25.787074688059285 ], [ -80.271169703681267, 25.787027688048553 ], [ -80.270963703626961, 25.787252688110012 ], [ -80.271010703643057, 25.78734468813235 ], [ -80.270898703614208, 25.787493688172543 ], [ -80.270873703607634, 25.78752168818016 ], [ -80.270822703594604, 25.787592688199318 ], [ -80.270692703560584, 25.787746688241086 ], [ -80.270675703555867, 25.787756688244023 ], [ -80.27042070348854, 25.78803268831944 ], [ -80.270348703469253, 25.788099688337972 ], [ -80.270282703452011, 25.788177688359145 ], [ -80.270184703425713, 25.788268688384367 ], [ -80.270076703397649, 25.788402688420593 ], [ -80.270006703379835, 25.78850568844824 ], [ -80.26993270336034, 25.788586688470378 ], [ -80.269844703336446, 25.788657688490265 ], [ -80.269733703305931, 25.788730688511137 ], [ -80.269580703264452, 25.788853688545618 ], [ -80.269347703202016, 25.789073688606333 ], [ -80.269300703190169, 25.789145688625599 ], [ -80.269194703164274, 25.789341688677592 ], [ -80.269111703142912, 25.789450688707007 ], [ -80.269013703116826, 25.789550688734447 ], [ -80.268894703084769, 25.789654688763381 ], [ -80.268824703066343, 25.789732688784696 ], [ -80.268702703033625, 25.789844688815698 ], [ -80.268601703006013, 25.789917688836368 ], [ -80.268527702986674, 25.790005688860262 ], [ -80.268402702952883, 25.790111688889766 ], [ -80.268000702845299, 25.790491688994713 ], [ -80.267948702831788, 25.790555689012077 ], [ -80.267804702793143, 25.790687689048642 ], [ -80.267603702739805, 25.790895689105657 ], [ -80.267448702698232, 25.791038689145267 ], [ -80.267241702643233, 25.791249689203173 ], [ -80.267059702594395, 25.791416689249392 ], [ -80.266951702564896, 25.791495689271766 ], [ -80.266863702541343, 25.791579689294959 ], [ -80.266810702527877, 25.791656689315605 ], [ -80.266753702512815, 25.791719689332815 ], [ -80.266682702493625, 25.791778689349268 ], [ -80.26658770246857, 25.79188268937768 ], [ -80.266388702415355, 25.792072689430086 ], [ -80.266326702399169, 25.792147689450456 ], [ -80.265923702291602, 25.792539689558428 ], [ -80.265845702270596, 25.792607689577359 ], [ -80.265780702253466, 25.792678689596748 ], [ -80.265659702220574, 25.792775689623976 ], [ -80.265543702189433, 25.792881689653289 ], [ -80.265463702167963, 25.792953689673304 ], [ -80.265327702130691, 25.793048689700282 ], [ -80.265108702070535, 25.793196689742469 ], [ -80.264977702033775, 25.793255689760223 ], [ -80.264809701987659, 25.793369689792733 ], [ -80.264684701952675, 25.79342968981064 ], [ -80.264596701927815, 25.793463689821106 ], [ -80.264483701895969, 25.793508689834933 ], [ -80.264388701868839, 25.793532689843044 ], [ -80.264298701843103, 25.793554689850549 ], [ -80.264208701817168, 25.793568689856023 ], [ -80.264149701800193, 25.793579689860074 ], [ -80.263849701714065, 25.79363768988118 ], [ -80.263529701622147, 25.793699689903754 ], [ -80.263092701496618, 25.793784689934647 ], [ -80.262836701423751, 25.79385868995886 ], [ -80.262508701330304, 25.793952689989688 ], [ -80.259019700316941, 25.794195690125758 ], [ -80.258357700124748, 25.794244690152311 ], [ -80.256170699489758, 25.794404690239521 ], [ -80.256161699482846, 25.794239690197902 ], [ -80.256159699480477, 25.794172690180933 ], [ -80.256151699469896, 25.793855690100724 ], [ -80.256142699460938, 25.793612690039243 ], [ -80.256125699443416, 25.793129689917098 ], [ -80.256095699414502, 25.792355689721436 ], [ -80.253839698757318, 25.792440689791121 ], [ -80.251587698100522, 25.792494689852834 ], [ -80.251626698131275, 25.793236690040199 ], [ -80.25002769766499, 25.793278690084982 ], [ -80.250011697641227, 25.79254568989942 ], [ -80.249967697608554, 25.79178468970732 ], [ -80.248913697301461, 25.791819689738642 ], [ -80.247919697011781, 25.79185368976848 ], [ -80.247895696985253, 25.791104689578976 ], [ -80.247870696959197, 25.790383689396613 ], [ -80.247860696936002, 25.789602689198773 ], [ -80.247805696906411, 25.789085689068795 ], [ -80.246620696561664, 25.789145689109247 ], [ -80.246599696523504, 25.787914688797457 ], [ -80.247798696872707, 25.787867688759956 ], [ -80.247791696857675, 25.787367688633299 ], [ -80.247762696830179, 25.7866356884482 ], [ -80.246563696480564, 25.786669688482402 ], [ -80.24364869563081, 25.786755688566327 ], [ -80.242112695182655, 25.786785688606713 ], [ -80.241120694894178, 25.786843688642538 ], [ -80.239578694443793, 25.786855688678489 ], [ -80.239572694430507, 25.786412688566219 ], [ -80.239535694396125, 25.785506688337186 ], [ -80.239524694381814, 25.785079688229089 ], [ -80.239523694378121, 25.784948688195861 ], [ -80.239155694270863, 25.784961688207019 ], [ -80.238668694128108, 25.784944688213074 ], [ -80.238256694006964, 25.78491868821526 ], [ -80.237939693913461, 25.784885688213617 ], [ -80.237148693679202, 25.784768688200813 ], [ -80.237115693669438, 25.784762688200026 ], [ -80.23706869365553, 25.784756688199494 ], [ -80.236355693443286, 25.784608688177112 ], [ -80.235733693257274, 25.784449688150037 ], [ -80.235255693113857, 25.784305688123716 ], [ -80.234830692985156, 25.784134688089363 ], [ -80.234059692751586, 25.783818688025637 ], [ -80.232715692342893, 25.783210687900016 ], [ -80.232417692251929, 25.783061687868553 ], [ -80.232184692181221, 25.782960687847925 ], [ -80.23185169208034, 25.782824687820504 ], [ -80.231223691892325, 25.782654687790735 ], [ -80.230754691753077, 25.782571687779644 ], [ -80.230451691663731, 25.782540687778276 ], [ -80.22964169142719, 25.78254968779784 ], [ -80.228130690986291, 25.782580687837896 ], [ -80.227669690851386, 25.782575687846464 ], [ -80.226057690380841, 25.782602687887653 ], [ -80.224308689870028, 25.782617687928742 ], [ -80.224265689857489, 25.782619687930147 ], [ -80.224223689845445, 25.782629687933557 ], [ -80.223915689755259, 25.782623687938624 ], [ -80.22360868966534, 25.782615687943096 ], [ -80.223513689637556, 25.782616687945364 ], [ -80.223410689607448, 25.782615687947306 ], [ -80.22273968941218, 25.782650687970524 ] ] ] ] } }
]
}
