{
"type": "FeatureCollection",
"name": "district_3",
"crs": { "type": "name", "properties": { "name": "urn:ogc:def:crs:OGC:1.3:CRS84" } },
"xy_coordinate_resolution": 1e-15,
"features": [
{ "type": "Feature", "properties": { "district": "3" }, "geometry": { "type": "MultiPolygon", "coordinates": [ [ [ [ -76.335327, 36.627499 ], [ -76.335707, 36.627679 ], [ -76.338778, 36.62888 ], [ -76.340984, 36.629689 ], [ -76.343066, 36.630431 ], [ -76.343519, 36.630575 ], [ -76.343831, 36.630653 ], [ -76.347001, 36.631115 ], [ -76.347439, 36.631162 ], [ -76.34781, 36.631198 ], [ -76.349215, 36.631281 ], [ -76.349554, 36.631354 ], [ -76.349804, 36.631457 ], [ -76.350064, 36.631634 ], [ -76.350264, 36.631828 ], [ -76.350708, 36.632396 ], [ -76.350985, 36.632706 ], [ -76.351199, 36.632843 ], [ -76.351321, 36.632887 ], [ -76.351586, 36.632929 ], [ -76.352084, 36.632919 ], [ -76.352334, 36.632862 ], [ -76.352534, 36.632781 ], [ -76.352821, 36.632635 ], [ -76.35319, 36.632491 ], [ -76.353392, 36.632451 ], [ -76.353669, 36.632434 ], [ -76.35418, 36.632444 ], [ -76.354292, 36.632465 ], [ -76.354524, 36.632575 ], [ -76.354929, 36.632839 ], [ -76.355167, 36.632978 ], [ -76.355352, 36.633066 ], [ -76.356474, 36.633518 ], [ -76.356664, 36.633572 ], [ -76.356854, 36.633604 ], [ -76.357085, 36.633619 ], [ -76.358046, 36.633622 ], [ -76.358178, 36.633645 ], [ -76.358346, 36.633756 ], [ -76.360316, 36.635705 ], [ -76.361224, 36.636486 ], [ -76.361425, 36.636639 ], [ -76.361649, 36.636767 ], [ -76.361896, 36.636866 ], [ -76.362581, 36.637095 ], [ -76.362799, 36.637169 ], [ -76.362994, 36.637227 ], [ -76.363197, 36.637268 ], [ -76.363397, 36.63729 ], [ -76.366688, 36.637374 ], [ -76.372879, 36.637618 ], [ -76.371823, 36.641484 ], [ -76.369085, 36.651841 ], [ -76.368546, 36.653563 ], [ -76.368523, 36.653989 ], [ -76.366717, 36.661018 ], [ -76.365108, 36.66708 ], [ -76.364389, 36.669716 ], [ -76.363246, 36.674108 ], [ -76.362387, 36.677345 ], [ -76.361807, 36.679436 ], [ -76.3601, 36.685914 ], [ -76.359743, 36.687205 ], [ -76.359628, 36.687547 ], [ -76.35942, 36.688131 ], [ -76.359158, 36.688737 ], [ -76.358815, 36.689381 ], [ -76.357794, 36.691009 ], [ -76.357516, 36.69142 ], [ -76.3573, 36.691715 ], [ -76.356922, 36.692173 ], [ -76.356105, 36.693063 ], [ -76.355466, 36.693724 ], [ -76.353592, 36.695553 ], [ -76.352524, 36.696527 ], [ -76.349527, 36.699249 ], [ -76.348926, 36.699761 ], [ -76.348304, 36.700253 ], [ -76.347259, 36.701017 ], [ -76.346529, 36.701501 ], [ -76.34568, 36.702018 ], [ -76.345201, 36.701516 ], [ -76.344857, 36.701248 ], [ -76.344412, 36.70099 ], [ -76.344008, 36.700788 ], [ -76.34374, 36.701341 ], [ -76.343407, 36.701969 ], [ -76.343028, 36.702529 ], [ -76.342784, 36.702849 ], [ -76.342396, 36.703283 ], [ -76.341929, 36.703734 ], [ -76.341436, 36.704164 ], [ -76.340463, 36.704853 ], [ -76.335289, 36.707646 ], [ -76.334692, 36.709796 ], [ -76.334376, 36.711061 ], [ -76.334321, 36.711195 ], [ -76.334223, 36.711341 ], [ -76.33397, 36.711636 ], [ -76.333682, 36.711861 ], [ -76.327464, 36.71624 ], [ -76.325056, 36.717897 ], [ -76.324973, 36.717833 ], [ -76.324788, 36.717729 ], [ -76.324545, 36.717646 ], [ -76.324352, 36.717601 ], [ -76.323581, 36.717463 ], [ -76.323512, 36.717471 ], [ -76.323317, 36.717504 ], [ -76.323095, 36.717624 ], [ -76.321282, 36.718963 ], [ -76.321178, 36.719034 ], [ -76.32098, 36.719135 ], [ -76.319833, 36.71964 ], [ -76.319642, 36.719723 ], [ -76.319577, 36.719752 ], [ -76.312409, 36.722903 ], [ -76.31107, 36.723508 ], [ -76.310793, 36.723664 ], [ -76.310424, 36.723921 ], [ -76.309871, 36.724396 ], [ -76.309618, 36.724633 ], [ -76.309428, 36.72484 ], [ -76.308098, 36.726685 ], [ -76.307914, 36.726919 ], [ -76.307714, 36.727119 ], [ -76.307417, 36.727343 ], [ -76.307115, 36.727527 ], [ -76.306714, 36.727705 ], [ -76.306451, 36.727777 ], [ -76.305687, 36.727914 ], [ -76.304669, 36.728059 ], [ -76.304188, 36.728191 ], [ -76.305874, 36.72859 ], [ -76.306036, 36.728626 ], [ -76.307962, 36.729057 ], [ -76.309134, 36.729401 ], [ -76.309683, 36.729611 ], [ -76.310275, 36.729866 ], [ -76.310841, 36.73013 ], [ -76.311425, 36.730459 ], [ -76.311761, 36.730656 ], [ -76.312494, 36.731155 ], [ -76.313292, 36.731789 ], [ -76.313913, 36.732386 ], [ -76.314384, 36.732874 ], [ -76.315165, 36.733608 ], [ -76.315571, 36.73396 ], [ -76.316033, 36.734264 ], [ -76.316186, 36.73451 ], [ -76.317664, 36.735457 ], [ -76.320336, 36.736967 ], [ -76.321814, 36.737615 ], [ -76.323377, 36.738189 ], [ -76.324544, 36.738564 ], [ -76.326026, 36.738906 ], [ -76.326172, 36.73894 ], [ -76.326352, 36.738938 ], [ -76.328648, 36.739456 ], [ -76.331382, 36.74009 ], [ -76.331966, 36.740202 ], [ -76.332314, 36.740252 ], [ -76.333006, 36.740264 ], [ -76.333333, 36.740245 ], [ -76.333636, 36.74021 ], [ -76.33398, 36.740148 ], [ -76.334549, 36.740009 ], [ -76.335193, 36.739761 ], [ -76.336215, 36.739313 ], [ -76.336633, 36.739162 ], [ -76.33709, 36.739055 ], [ -76.337213, 36.739092 ], [ -76.337454, 36.73906 ], [ -76.337714, 36.739013 ], [ -76.338216, 36.738989 ], [ -76.33858, 36.738974 ], [ -76.339151, 36.738984 ], [ -76.340518, 36.739438 ], [ -76.34111, 36.739676 ], [ -76.341982, 36.740056 ], [ -76.342374, 36.740291 ], [ -76.342727, 36.740474 ], [ -76.34317, 36.74064 ], [ -76.344248, 36.740918 ], [ -76.344508, 36.740985 ], [ -76.344774, 36.741056 ], [ -76.344966, 36.741109 ], [ -76.345728, 36.741312 ], [ -76.3456, 36.741516 ], [ -76.34553, 36.741661 ], [ -76.345433, 36.74196 ], [ -76.345306, 36.742488 ], [ -76.345035, 36.743368 ], [ -76.345007, 36.743524 ], [ -76.345006, 36.743648 ], [ -76.345052, 36.74385 ], [ -76.345178, 36.744088 ], [ -76.345883, 36.745128 ], [ -76.346098, 36.745479 ], [ -76.346203, 36.745753 ], [ -76.346229, 36.746041 ], [ -76.346211, 36.746424 ], [ -76.346201, 36.746568 ], [ -76.346184, 36.746818 ], [ -76.346171, 36.747004 ], [ -76.346169, 36.747328 ], [ -76.346185, 36.748072 ], [ -76.346137, 36.748692 ], [ -76.345997, 36.750134 ], [ -76.345904, 36.750867 ], [ -76.345863, 36.751136 ], [ -76.345332, 36.754206 ], [ -76.345203, 36.754997 ], [ -76.345093, 36.75576 ], [ -76.345149, 36.755842 ], [ -76.344854, 36.758521 ], [ -76.344826, 36.758785 ], [ -76.344644, 36.760157 ], [ -76.344439, 36.761978 ], [ -76.344382, 36.76276 ], [ -76.344393, 36.762983 ], [ -76.344319, 36.763176 ], [ -76.344325, 36.763324 ], [ -76.344383, 36.763677 ], [ -76.343932, 36.76371 ], [ -76.343778, 36.763709 ], [ -76.343786, 36.763804 ], [ -76.343824, 36.763893 ], [ -76.344236, 36.764415999999891 ], [ -76.344275, 36.764485 ], [ -76.344293, 36.76458 ], [ -76.344361, 36.76592 ], [ -76.344325, 36.7667 ], [ -76.34435, 36.766964 ], [ -76.344312, 36.767034 ], [ -76.344286, 36.767469 ], [ -76.344256, 36.767934 ], [ -76.344189, 36.769075 ], [ -76.344153, 36.769744 ], [ -76.344197, 36.769895 ], [ -76.344321, 36.770067 ], [ -76.344747, 36.770459 ], [ -76.343928, 36.771045 ], [ -76.343518, 36.771408 ], [ -76.343166, 36.771795 ], [ -76.342709, 36.772372 ], [ -76.345535, 36.772313 ], [ -76.345542, 36.772424 ], [ -76.345503, 36.772483 ], [ -76.345423, 36.772518 ], [ -76.345334, 36.772523 ], [ -76.344213, 36.772547 ], [ -76.344093, 36.772575 ], [ -76.343978, 36.772644 ], [ -76.343958, 36.773116 ], [ -76.343865, 36.774113 ], [ -76.343776, 36.775085 ], [ -76.343746, 36.775414 ], [ -76.343571, 36.777377 ], [ -76.344679, 36.777563 ], [ -76.344863, 36.777572 ], [ -76.347087, 36.777454 ], [ -76.347264, 36.777472 ], [ -76.347335, 36.777501 ], [ -76.347445, 36.777576 ], [ -76.347511, 36.777654 ], [ -76.347546, 36.777744 ], [ -76.347378, 36.778844 ], [ -76.346909, 36.78167 ], [ -76.34664, 36.783323 ], [ -76.346616, 36.783458 ], [ -76.346484, 36.784265 ], [ -76.347033, 36.784379 ], [ -76.348809, 36.784606 ], [ -76.349485, 36.784926 ], [ -76.349876, 36.785572 ], [ -76.350113, 36.786716 ], [ -76.350338, 36.78687 ], [ -76.358671, 36.785548 ], [ -76.358846, 36.785542 ], [ -76.363629, 36.784979 ], [ -76.36403, 36.784933 ], [ -76.364025, 36.785022 ], [ -76.363839, 36.787804 ], [ -76.372871, 36.786471 ], [ -76.375679, 36.786062 ], [ -76.377638, 36.788073 ], [ -76.378711, 36.789099 ], [ -76.384628, 36.795695 ], [ -76.384826, 36.795931 ], [ -76.385009, 36.796172 ], [ -76.386998, 36.798547 ], [ -76.387152, 36.800289 ], [ -76.387199, 36.800627 ], [ -76.387293, 36.800805 ], [ -76.387706, 36.801077 ], [ -76.387985, 36.801312 ], [ -76.388702, 36.802073 ], [ -76.388901, 36.80231 ], [ -76.389356, 36.802628 ], [ -76.389543, 36.802689 ], [ -76.389674, 36.802699 ], [ -76.389946, 36.802675 ], [ -76.390092, 36.802689 ], [ -76.390152, 36.802764 ], [ -76.390115, 36.802924 ], [ -76.39019, 36.802989 ], [ -76.390387, 36.802985 ], [ -76.390438, 36.802966 ], [ -76.390565, 36.802975 ], [ -76.390757, 36.803064 ], [ -76.390945, 36.80306 ], [ -76.391052, 36.803107 ], [ -76.391301, 36.803299 ], [ -76.391371, 36.803364 ], [ -76.391451, 36.803482 ], [ -76.391465, 36.803557 ], [ -76.391437, 36.803824 ], [ -76.391502, 36.803964 ], [ -76.391638, 36.804058 ], [ -76.391737, 36.804091 ], [ -76.391817, 36.804147 ], [ -76.391863, 36.804208 ], [ -76.391849, 36.804297 ], [ -76.391681, 36.804649 ], [ -76.391732, 36.805122 ], [ -76.391849, 36.805291 ], [ -76.39199, 36.80538 ], [ -76.392093, 36.805417 ], [ -76.392342, 36.805446 ], [ -76.392576, 36.805455 ], [ -76.392777, 36.805521 ], [ -76.392988, 36.805647 ], [ -76.393213, 36.805839 ], [ -76.393373, 36.805947 ], [ -76.393509, 36.806017 ], [ -76.393865, 36.806149 ], [ -76.394184, 36.806186 ], [ -76.394306, 36.806228 ], [ -76.394526, 36.806369 ], [ -76.394962, 36.8065 ], [ -76.395271, 36.806374 ], [ -76.395393, 36.806271 ], [ -76.395445, 36.806153 ], [ -76.395473, 36.805975 ], [ -76.395501, 36.805914 ], [ -76.395777, 36.805596 ], [ -76.395881, 36.805525 ], [ -76.395988, 36.805507 ], [ -76.396185, 36.80553 ], [ -76.396293, 36.805563 ], [ -76.39664, 36.805849 ], [ -76.396799, 36.806149 ], [ -76.396977, 36.806374 ], [ -76.397249, 36.806477 ], [ -76.397596, 36.806702 ], [ -76.397718, 36.806617 ], [ -76.397849, 36.806458 ], [ -76.398168, 36.806289 ], [ -76.398566, 36.806248 ], [ -76.398843, 36.806327 ], [ -76.399171, 36.806505 ], [ -76.399256, 36.806533 ], [ -76.399537, 36.806524 ], [ -76.399724, 36.806364 ], [ -76.399799, 36.806252 ], [ -76.399884, 36.806027 ], [ -76.399827, 36.805642 ], [ -76.399659, 36.805474 ], [ -76.399162, 36.805417 ], [ -76.398937, 36.805296 ], [ -76.398806, 36.805052 ], [ -76.398956, 36.804986 ], [ -76.39949, 36.804902 ], [ -76.399687, 36.804883 ], [ -76.400081, 36.804921 ], [ -76.400231, 36.805033 ], [ -76.400324, 36.805239 ], [ -76.400399, 36.805474 ], [ -76.400409, 36.805689 ], [ -76.400315, 36.806027 ], [ -76.400265, 36.806437 ], [ -76.401491, 36.809173 ], [ -76.402266, 36.811048 ], [ -76.403666, 36.814048 ], [ -76.400866, 36.818948 ], [ -76.397927, 36.823719 ], [ -76.397902, 36.823763 ], [ -76.397892, 36.823782 ], [ -76.395466, 36.828148 ], [ -76.390915, 36.831788 ], [ -76.389466, 36.832948 ], [ -76.388796, 36.833516 ], [ -76.388466, 36.834348 ], [ -76.385233, 36.836416 ], [ -76.383466, 36.837548 ], [ -76.384415, 36.839011 ], [ -76.388266, 36.844948 ], [ -76.388266, 36.848948 ], [ -76.387049, 36.851248 ], [ -76.387421, 36.852199 ], [ -76.38834, 36.853107 ], [ -76.389062, 36.853468 ], [ -76.391266, 36.854348 ], [ -76.391416, 36.854898 ], [ -76.391573, 36.855475 ], [ -76.391866, 36.856548 ], [ -76.392642, 36.856645 ], [ -76.394267, 36.856848 ], [ -76.396218, 36.856947 ], [ -76.397695, 36.857165 ], [ -76.399366, 36.857244 ], [ -76.399207, 36.858779 ], [ -76.399092, 36.859882 ], [ -76.398976, 36.861012 ], [ -76.398965, 36.861105 ], [ -76.39894, 36.861324 ], [ -76.398922, 36.861478 ], [ -76.398885, 36.861817 ], [ -76.398661, 36.863837 ], [ -76.398475, 36.865079 ], [ -76.398467, 36.865948 ], [ -76.399658, 36.866246 ], [ -76.39985, 36.86628 ], [ -76.39999, 36.866305 ], [ -76.401467, 36.866548 ], [ -76.40251, 36.866461 ], [ -76.402667, 36.866448 ], [ -76.403412, 36.866505 ], [ -76.403967, 36.866549 ], [ -76.404474, 36.866531 ], [ -76.407141, 36.866448 ], [ -76.411787, 36.866362 ], [ -76.413067, 36.866347 ], [ -76.420368, 36.866348 ], [ -76.420026, 36.866749 ], [ -76.419294, 36.867608 ], [ -76.419271, 36.867635 ], [ -76.41914, 36.867787 ], [ -76.418994, 36.86796 ], [ -76.418967, 36.867992 ], [ -76.417319, 36.869933 ], [ -76.416968, 36.870348 ], [ -76.413566, 36.874147 ], [ -76.413434, 36.874257 ], [ -76.411067, 36.876148 ], [ -76.410172, 36.876566 ], [ -76.410032, 36.876679 ], [ -76.409694, 36.876819 ], [ -76.409347, 36.877063 ], [ -76.409085, 36.877157 ], [ -76.408888, 36.877269 ], [ -76.408785, 36.877354 ], [ -76.408663, 36.877504 ], [ -76.408466, 36.877663 ], [ -76.408213, 36.877813 ], [ -76.407894, 36.877898 ], [ -76.40766, 36.877869 ], [ -76.40736, 36.87786 ], [ -76.407099, 36.877954 ], [ -76.406854, 36.878348 ], [ -76.406797, 36.878516 ], [ -76.40676, 36.878788 ], [ -76.406675, 36.878919 ], [ -76.406413, 36.879079 ], [ -76.406207, 36.879276 ], [ -76.405996, 36.879529 ], [ -76.405925, 36.879772 ], [ -76.405879, 36.880096 ], [ -76.40585, 36.88018 ], [ -76.405775, 36.880274 ], [ -76.405691, 36.880312 ], [ -76.405588, 36.880424 ], [ -76.405444, 36.880858 ], [ -76.405321, 36.881113 ], [ -76.405107, 36.881414 ], [ -76.404954, 36.881541 ], [ -76.40489, 36.881812 ], [ -76.404918, 36.882327 ], [ -76.405141, 36.882394 ], [ -76.405198, 36.882752 ], [ -76.405234, 36.883186 ], [ -76.405171, 36.883656 ], [ -76.405026, 36.884018 ], [ -76.404999, 36.884253 ], [ -76.404918, 36.884479 ], [ -76.4048, 36.884569 ], [ -76.404664, 36.884587 ], [ -76.404547, 36.884578 ], [ -76.404339, 36.884596 ], [ -76.404149, 36.884786 ], [ -76.40414, 36.885039 ], [ -76.404212, 36.885139 ], [ -76.404411, 36.88532 ], [ -76.40461, 36.885437 ], [ -76.404908, 36.885591 ], [ -76.405478, 36.8856 ], [ -76.405641, 36.885636 ], [ -76.405758, 36.885835 ], [ -76.405785, 36.886106 ], [ -76.405776, 36.886513 ], [ -76.405693, 36.887106 ], [ -76.405641, 36.887471 ], [ -76.405632, 36.887796 ], [ -76.405975, 36.888917 ], [ -76.406201, 36.88936 ], [ -76.406355, 36.889649 ], [ -76.406689, 36.889884 ], [ -76.407087, 36.889939 ], [ -76.407349, 36.890174 ], [ -76.407458, 36.890364 ], [ -76.407476, 36.890544 ], [ -76.407304, 36.890942 ], [ -76.406933, 36.891286 ], [ -76.406617, 36.891421 ], [ -76.406283, 36.891439 ], [ -76.405957, 36.891421 ], [ -76.405686, 36.891268 ], [ -76.405243, 36.891168 ], [ -76.404667, 36.891148 ], [ -76.404517, 36.891335 ], [ -76.404556, 36.891491 ], [ -76.404605, 36.89166 ], [ -76.404742, 36.891935 ], [ -76.404792, 36.89211 ], [ -76.404755, 36.892335 ], [ -76.404667, 36.89261 ], [ -76.40458, 36.892748 ], [ -76.404405, 36.89296 ], [ -76.404155, 36.89331 ], [ -76.403988, 36.893625 ], [ -76.403942, 36.89396 ], [ -76.404055, 36.89426 ], [ -76.404392, 36.894523 ], [ -76.405205, 36.894885 ], [ -76.40584, 36.895107 ], [ -76.406317, 36.895385 ], [ -76.406842, 36.89566 ], [ -76.40733, 36.896085 ], [ -76.407656, 36.89656 ], [ -76.407768, 36.896648 ], [ -76.403567, 36.900848 ], [ -76.399567, 36.930947 ], [ -76.400836, 36.930691 ], [ -76.402804, 36.930691 ], [ -76.406778, 36.930775 ], [ -76.407059, 36.930781 ], [ -76.407348, 36.930787 ], [ -76.412436, 36.931459 ], [ -76.41802, 36.932275 ], [ -76.42298, 36.933251 ], [ -76.428453, 36.934211 ], [ -76.434789, 36.935283 ], [ -76.435989, 36.935731 ], [ -76.439125, 36.937139 ], [ -76.442453, 36.939315 ], [ -76.444645, 36.941107 ], [ -76.445301, 36.941891 ], [ -76.445365, 36.942355 ], [ -76.447414, 36.944819 ], [ -76.44983, 36.948307 ], [ -76.452422, 36.952771 ], [ -76.454246, 36.955491 ], [ -76.455558, 36.957843 ], [ -76.458662, 36.963203 ], [ -76.459039, 36.963881 ], [ -76.460086, 36.965763 ], [ -76.462199, 36.968467 ], [ -76.463876, 36.970463 ], [ -76.464551, 36.971267 ], [ -76.467111, 36.973843 ], [ -76.467351, 36.974147 ], [ -76.468183, 36.975027 ], [ -76.471479, 36.977939 ], [ -76.473735, 36.979507 ], [ -76.486112, 36.988541 ], [ -76.486198, 36.988604 ], [ -76.49209, 36.992889 ], [ -76.499673, 36.998355 ], [ -76.499673, 36.998506 ], [ -76.501708, 37.000147 ], [ -76.50398, 37.001713 ], [ -76.53593, 37.023699 ], [ -76.550891, 37.034245 ], [ -76.597084, 37.066803 ], [ -76.603989, 37.072394 ], [ -76.624573, 37.089059 ], [ -76.628205, 37.092755 ], [ -76.645821, 37.125155 ], [ -76.646093, 37.126547 ], [ -76.646093, 37.127411 ], [ -76.645997, 37.128019 ], [ -76.645773, 37.128723 ], [ -76.643965, 37.135331 ], [ -76.643549, 37.137107 ], [ -76.643245, 37.139187 ], [ -76.641597, 37.153379 ], [ -76.641581, 37.153827 ], [ -76.641085, 37.154611 ], [ -76.61689, 37.163744 ], [ -76.611628, 37.166788 ], [ -76.610984, 37.167114 ], [ -76.609036, 37.168101 ], [ -76.60721, 37.168946 ], [ -76.60478, 37.170644 ], [ -76.604732, 37.170866 ], [ -76.604524, 37.171218 ], [ -76.604204, 37.171666 ], [ -76.603768, 37.171982 ], [ -76.602938, 37.172583 ], [ -76.602812, 37.172674 ], [ -76.601876, 37.173946 ], [ -76.601537, 37.174311 ], [ -76.601498, 37.174358 ], [ -76.601617, 37.174583 ], [ -76.601631, 37.174658 ], [ -76.601612, 37.174798 ], [ -76.601539, 37.174911 ], [ -76.601453, 37.174998 ], [ -76.601258, 37.175068 ], [ -76.60103, 37.175114 ], [ -76.600802, 37.175102 ], [ -76.600701, 37.17521 ], [ -76.599453, 37.17655 ], [ -76.599488, 37.176653 ], [ -76.599494, 37.176763 ], [ -76.599432, 37.176941 ], [ -76.599359, 37.177025 ], [ -76.599158, 37.177197 ], [ -76.598806, 37.177384 ], [ -76.598653, 37.177503 ], [ -76.598517, 37.177556 ], [ -76.597875, 37.178246 ], [ -76.595403, 37.178418 ], [ -76.594315, 37.179042 ], [ -76.593275, 37.17957 ], [ -76.592683, 37.17997 ], [ -76.590939, 37.181458 ], [ -76.590299, 37.181506 ], [ -76.589115, 37.180962 ], [ -76.587915, 37.180514 ], [ -76.586987, 37.18021 ], [ -76.586075, 37.180146 ], [ -76.585291, 37.18037 ], [ -76.584507, 37.18085 ], [ -76.584347, 37.181058 ], [ -76.584267, 37.18173 ], [ -76.584571, 37.182578 ], [ -76.584219, 37.182786000000107 ], [ -76.583611, 37.182354 ], [ -76.583051, 37.18205 ], [ -76.582395, 37.181954 ], [ -76.581691, 37.18213 ], [ -76.581218, 37.182511 ], [ -76.581232, 37.182807 ], [ -76.581278, 37.182924 ], [ -76.581291, 37.183123 ], [ -76.581075, 37.183677 ], [ -76.581033, 37.184144 ], [ -76.581, 37.184307 ], [ -76.580969, 37.184336 ], [ -76.580909, 37.184334 ], [ -76.580924, 37.184385 ], [ -76.581011, 37.184382 ], [ -76.581028, 37.184397 ], [ -76.581032, 37.18446 ], [ -76.581103, 37.184492 ], [ -76.581138, 37.184895 ], [ -76.581053, 37.18505 ], [ -76.581067, 37.185266 ], [ -76.580455, 37.185518 ], [ -76.580251, 37.185602 ], [ -76.579451, 37.18597 ], [ -76.578619, 37.186305 ], [ -76.578345, 37.186463 ], [ -76.578263, 37.186578 ], [ -76.578029, 37.186813 ], [ -76.57799, 37.186863 ], [ -76.577975, 37.186926 ], [ -76.577982, 37.187132 ], [ -76.578019, 37.187188 ], [ -76.578052, 37.187404 ], [ -76.578121, 37.187483 ], [ -76.578172, 37.18751 ], [ -76.578193, 37.187584 ], [ -76.578495, 37.187713 ], [ -76.578811, 37.187713 ], [ -76.579387, 37.187889 ], [ -76.579525, 37.187973 ], [ -76.579613, 37.18798 ], [ -76.57991, 37.188092 ], [ -76.579991, 37.188174 ], [ -76.58, 37.188254 ], [ -76.579951, 37.188354 ], [ -76.579979, 37.188593 ], [ -76.579563, 37.188689 ], [ -76.578987, 37.188609 ], [ -76.578523, 37.188721 ], [ -76.578267, 37.188849 ], [ -76.578123, 37.189073 ], [ -76.578045, 37.189267 ], [ -76.57803, 37.189456 ], [ -76.578058, 37.189719 ], [ -76.578046, 37.189787 ], [ -76.577972, 37.189961 ], [ -76.577899, 37.190261 ], [ -76.577943, 37.19034 ], [ -76.577963, 37.19046 ], [ -76.577989, 37.190482 ], [ -76.580175, 37.190745 ], [ -76.580143, 37.190947 ], [ -76.5802, 37.190996 ], [ -76.580233, 37.191065 ], [ -76.580277, 37.191397 ], [ -76.580248, 37.191489 ], [ -76.580224, 37.191728 ], [ -76.580057, 37.192475 ], [ -76.580034, 37.192481 ], [ -76.579977, 37.192665 ], [ -76.581413, 37.192942 ], [ -76.581751, 37.192944 ], [ -76.581907, 37.192843 ], [ -76.582001, 37.19281 ], [ -76.582256, 37.192812 ], [ -76.582591, 37.192861 ], [ -76.582691, 37.192907 ], [ -76.582679, 37.192994 ], [ -76.582738, 37.193026 ], [ -76.582818, 37.193005 ], [ -76.582804, 37.192905 ], [ -76.582827, 37.192872000000101 ], [ -76.58318, 37.192968 ], [ -76.583297, 37.193059 ], [ -76.583375, 37.19322 ], [ -76.583329, 37.193356 ], [ -76.583293, 37.193404 ], [ -76.583219, 37.19345 ], [ -76.582929, 37.193575 ], [ -76.582752, 37.193569 ], [ -76.5827, 37.193644 ], [ -76.582695, 37.193745 ], [ -76.582466, 37.194154 ], [ -76.582148, 37.194581 ], [ -76.58213, 37.194803 ], [ -76.582172, 37.194882 ], [ -76.582702, 37.19501 ], [ -76.583375, 37.195145 ], [ -76.584275, 37.197645 ], [ -76.584427, 37.198049 ], [ -76.584577, 37.198458 ], [ -76.584657, 37.198609 ], [ -76.585165, 37.199625 ], [ -76.585302, 37.200278 ], [ -76.585471, 37.200822 ], [ -76.586466, 37.201914 ], [ -76.587183, 37.202674 ], [ -76.588451, 37.203562 ], [ -76.588585, 37.203684 ], [ -76.589074, 37.20404 ], [ -76.589345, 37.204288 ], [ -76.589549, 37.204503 ], [ -76.590088, 37.205191 ], [ -76.590641, 37.205969 ], [ -76.590921, 37.206398 ], [ -76.591279, 37.207167 ], [ -76.591795, 37.20929 ], [ -76.591824, 37.209414 ], [ -76.591862, 37.209783 ], [ -76.591858, 37.210116 ], [ -76.591789, 37.210283 ], [ -76.591631, 37.210698 ], [ -76.591591, 37.210816 ], [ -76.591512, 37.21106 ], [ -76.59136, 37.211792 ], [ -76.591336, 37.212119 ], [ -76.591351, 37.212773 ], [ -76.591302, 37.213205 ], [ -76.58918, 37.213018 ], [ -76.587923, 37.212938 ], [ -76.5873, 37.212922 ], [ -76.585371, 37.212743 ], [ -76.583121, 37.212499 ], [ -76.583123, 37.212674 ], [ -76.583127, 37.212985 ], [ -76.581714, 37.212911 ], [ -76.581362, 37.212932 ], [ -76.580227, 37.213091 ], [ -76.579588, 37.213139 ], [ -76.579479, 37.213119 ], [ -76.579215, 37.213118 ], [ -76.578134, 37.213068 ], [ -76.577591, 37.213128 ], [ -76.577221, 37.213204 ], [ -76.576992, 37.213227 ], [ -76.57675, 37.213215 ], [ -76.575855, 37.213098 ], [ -76.575184, 37.212988 ], [ -76.575037, 37.213652 ], [ -76.57499, 37.213941 ], [ -76.574971, 37.214243 ], [ -76.574671, 37.215742 ], [ -76.571568, 37.215413 ], [ -76.56999, 37.215218 ], [ -76.569382, 37.216518 ], [ -76.568937, 37.217462 ], [ -76.568078, 37.217602 ], [ -76.567427, 37.217695 ], [ -76.565727, 37.21988 ], [ -76.565627, 37.219984 ], [ -76.565189, 37.220539 ], [ -76.564222, 37.219447 ], [ -76.563132, 37.218211 ], [ -76.560578, 37.215322 ], [ -76.556732, 37.211 ], [ -76.556541, 37.210785 ], [ -76.553775, 37.207666 ], [ -76.540134, 37.192337 ], [ -76.539557, 37.191684 ], [ -76.534377, 37.185858 ], [ -76.533993, 37.185432 ], [ -76.533391, 37.184753 ], [ -76.532791, 37.184069 ], [ -76.53062, 37.181633 ], [ -76.526565, 37.177073 ], [ -76.526272, 37.176743 ], [ -76.526196, 37.176657 ], [ -76.525164, 37.176621 ], [ -76.524991, 37.176389 ], [ -76.524659, 37.176426 ], [ -76.524732, 37.176856 ], [ -76.523021, 37.176964 ], [ -76.522603, 37.177021 ], [ -76.52219, 37.177107 ], [ -76.521737, 37.177236 ], [ -76.517158, 37.17873 ], [ -76.517187, 37.178752 ], [ -76.516903, 37.178844 ], [ -76.516826, 37.178642 ], [ -76.516375, 37.178319 ], [ -76.51623, 37.178042 ], [ -76.515771, 37.177363 ], [ -76.515055, 37.176455 ], [ -76.514898, 37.176181 ], [ -76.514804, 37.175907 ], [ -76.514773, 37.175719 ], [ -76.514777, 37.175403 ], [ -76.514942, 37.174408 ], [ -76.515008, 37.1737 ], [ -76.515102, 37.173185 ], [ -76.514985, 37.173224 ], [ -76.51053, 37.167001 ], [ -76.507636, 37.162942 ], [ -76.506987, 37.16206 ], [ -76.505057, 37.159321 ], [ -76.504453, 37.158506 ], [ -76.505623, 37.157214 ], [ -76.504493, 37.156209 ], [ -76.504869, 37.155774 ], [ -76.506257, 37.154222 ], [ -76.506138, 37.154088 ], [ -76.500302, 37.147502 ], [ -76.488193, 37.133859 ], [ -76.485343, 37.130648 ], [ -76.484807, 37.130042 ], [ -76.483628, 37.128713 ], [ -76.481297, 37.126088 ], [ -76.481202, 37.125983 ], [ -76.472991, 37.116748 ], [ -76.472606, 37.116289 ], [ -76.470977, 37.114445 ], [ -76.470821, 37.114267 ], [ -76.470243, 37.113614 ], [ -76.469585, 37.11287 ], [ -76.468413, 37.11154 ], [ -76.466948, 37.109934 ], [ -76.466088, 37.109011 ], [ -76.464987, 37.107798 ], [ -76.463403, 37.105991 ], [ -76.460816, 37.103039 ], [ -76.460031, 37.102748 ], [ -76.459762, 37.102509 ], [ -76.459619, 37.102364 ], [ -76.459398, 37.102041 ], [ -76.459239, 37.101855 ], [ -76.45909, 37.101478 ], [ -76.459105, 37.101454 ], [ -76.459109, 37.101044 ], [ -76.459074, 37.100934 ], [ -76.458981, 37.100847 ], [ -76.45883, 37.100765 ], [ -76.458498, 37.100727 ], [ -76.458325, 37.100702 ], [ -76.458105, 37.100634 ], [ -76.457939, 37.100554 ], [ -76.457013, 37.100033 ], [ -76.455685, 37.09932 ], [ -76.45511, 37.098958 ], [ -76.454803, 37.098775 ], [ -76.454352, 37.098584 ], [ -76.454045, 37.098326 ], [ -76.453912, 37.098241 ], [ -76.453588, 37.098231 ], [ -76.452333, 37.098431 ], [ -76.451772, 37.098507 ], [ -76.451467, 37.09844 ], [ -76.451353, 37.098336 ], [ -76.451201, 37.098012 ], [ -76.450706, 37.097213 ], [ -76.450516, 37.096966 ], [ -76.450212, 37.096785 ], [ -76.449586, 37.096586 ], [ -76.44898, 37.096394 ], [ -76.448141, 37.096171 ], [ -76.446854, 37.095606 ], [ -76.445731, 37.095054 ], [ -76.444799, 37.094673 ], [ -76.443429, 37.094513 ], [ -76.441561, 37.094637 ], [ -76.441093, 37.094669 ], [ -76.439367, 37.095037 ], [ -76.437743, 37.094199 ], [ -76.437748, 37.094048 ], [ -76.437581, 37.093977 ], [ -76.43741, 37.093941 ], [ -76.437184, 37.093945 ], [ -76.437059, 37.093979 ], [ -76.43575, 37.094467 ], [ -76.435256, 37.094722 ], [ -76.434978, 37.094849 ], [ -76.434888, 37.094877 ], [ -76.434632, 37.094911 ], [ -76.434035, 37.094948 ], [ -76.432857, 37.094908 ], [ -76.432472, 37.094948 ], [ -76.432327, 37.094978 ], [ -76.432164, 37.095038 ], [ -76.431945, 37.095144 ], [ -76.431145, 37.095784 ], [ -76.430745, 37.096011 ], [ -76.430502, 37.096097 ], [ -76.430327, 37.096124 ], [ -76.430189, 37.09613 ], [ -76.430118, 37.096118 ], [ -76.429663, 37.095926 ], [ -76.428979, 37.095507 ], [ -76.428417, 37.095121 ], [ -76.428249, 37.094983 ], [ -76.428065, 37.094799 ], [ -76.427358, 37.09394 ], [ -76.426995, 37.093439 ], [ -76.42672, 37.093162 ], [ -76.425451, 37.092301 ], [ -76.425382, 37.092254 ], [ -76.425251, 37.09227 ], [ -76.424823, 37.09211 ], [ -76.42383, 37.091807000000109 ], [ -76.423526, 37.091752 ], [ -76.423314, 37.091745 ], [ -76.422692, 37.091776 ], [ -76.421444, 37.091902 ], [ -76.420719, 37.09195 ], [ -76.419881, 37.091984 ], [ -76.419169, 37.092051 ], [ -76.418721, 37.092134 ], [ -76.418396, 37.092246 ], [ -76.418128, 37.092374 ], [ -76.417964, 37.092478 ], [ -76.417142, 37.093079 ], [ -76.416755, 37.093292 ], [ -76.416485, 37.093372 ], [ -76.416186, 37.093433 ], [ -76.414977, 37.093587 ], [ -76.414524, 37.093626 ], [ -76.414284, 37.093615 ], [ -76.414154, 37.093554 ], [ -76.414085, 37.093543 ], [ -76.413818, 37.093587 ], [ -76.413742, 37.093576 ], [ -76.413674, 37.093543 ], [ -76.413557, 37.0934 ], [ -76.413235, 37.093422 ], [ -76.413015, 37.093532 ], [ -76.412851, 37.093543 ], [ -76.412673, 37.0934 ], [ -76.412542, 37.093142 ], [ -76.412174, 37.092954 ], [ -76.411973, 37.092845 ], [ -76.411795, 37.092801 ], [ -76.411473, 37.092812 ], [ -76.411253, 37.092883 ], [ -76.411095, 37.092861 ], [ -76.411047, 37.092614 ], [ -76.410986, 37.092592 ], [ -76.410903, 37.092614 ], [ -76.410787, 37.092697 ], [ -76.410663, 37.092719 ], [ -76.410478, 37.092697 ], [ -76.410457, 37.092647 ], [ -76.410506, 37.092427 ], [ -76.41043, 37.092328 ], [ -76.409614, 37.091905 ], [ -76.409539, 37.091894 ], [ -76.409477, 37.091916 ], [ -76.409449, 37.092037 ], [ -76.409525, 37.092119 ], [ -76.409525, 37.092224 ], [ -76.409113, 37.092592 ], [ -76.409038, 37.092779 ], [ -76.408977, 37.092779 ], [ -76.408937, 37.092778 ], [ -76.408857, 37.092747 ], [ -76.408592, 37.092708 ], [ -76.40827, 37.092583 ], [ -76.408197, 37.092542 ], [ -76.408086, 37.092432 ], [ -76.407977, 37.092124 ], [ -76.407907, 37.09206 ], [ -76.407831, 37.092054 ], [ -76.407697, 37.092069 ], [ -76.407493, 37.092141 ], [ -76.407425, 37.092188 ], [ -76.407318, 37.092301 ], [ -76.407305, 37.092442 ], [ -76.407492, 37.092594 ], [ -76.407636, 37.09268 ], [ -76.407801, 37.092732 ], [ -76.407891, 37.092811 ], [ -76.407908, 37.09288 ], [ -76.407888, 37.092948 ], [ -76.407753, 37.093042 ], [ -76.407363, 37.093121 ], [ -76.407097, 37.093153 ], [ -76.406962, 37.093165 ], [ -76.406741, 37.093137 ], [ -76.406687, 37.093081 ], [ -76.406678, 37.092904 ], [ -76.406721, 37.092732 ], [ -76.4067, 37.092663 ], [ -76.406666, 37.092643 ], [ -76.406576, 37.092648 ], [ -76.406403, 37.092685 ], [ -76.406171, 37.092793 ], [ -76.406084, 37.092813 ], [ -76.405726, 37.092808 ], [ -76.40565, 37.092844 ], [ -76.405607, 37.092906 ], [ -76.405609, 37.093012 ], [ -76.405691, 37.093097 ], [ -76.405867, 37.093206 ], [ -76.405995, 37.093238 ], [ -76.406354, 37.093268 ], [ -76.406428, 37.093308 ], [ -76.406452, 37.093338 ], [ -76.406496, 37.093868 ], [ -76.406575, 37.094142 ], [ -76.406556, 37.09421 ], [ -76.406526, 37.094237 ], [ -76.406487, 37.094253 ], [ -76.406045, 37.094317 ], [ -76.405806, 37.094412 ], [ -76.405626, 37.094412 ], [ -76.405588, 37.094382 ], [ -76.40558, 37.094347 ], [ -76.405584, 37.093995 ], [ -76.405395, 37.093636 ], [ -76.40533, 37.093543 ], [ -76.405264, 37.093496 ], [ -76.40513, 37.093488 ], [ -76.405042, 37.093502 ], [ -76.404809, 37.093606 ], [ -76.404677, 37.093701 ], [ -76.404699, 37.094123 ], [ -76.404677, 37.094192 ], [ -76.404644, 37.094217 ], [ -76.404556, 37.094229 ], [ -76.404512, 37.094221 ], [ -76.404235, 37.09399 ], [ -76.404127, 37.093925 ], [ -76.404082, 37.093929 ], [ -76.403923, 37.093994 ], [ -76.403676, 37.094148 ], [ -76.403627, 37.094199 ], [ -76.403576, 37.094334 ], [ -76.403588, 37.094409 ], [ -76.40383, 37.094707 ], [ -76.403865, 37.09481 ], [ -76.403861, 37.094845 ], [ -76.403826, 37.094909 ], [ -76.403753, 37.09495 ], [ -76.403591, 37.095012 ], [ -76.403165, 37.095126 ], [ -76.40293, 37.095231 ], [ -76.402859, 37.095321 ], [ -76.402861, 37.095356 ], [ -76.402969, 37.095512 ], [ -76.402981, 37.095546 ], [ -76.402953, 37.095586 ], [ -76.40275, 37.095589 ], [ -76.40251, 37.095491 ], [ -76.402375, 37.095481 ], [ -76.402151, 37.095489 ], [ -76.40211, 37.095506 ], [ -76.401985, 37.095607 ], [ -76.401728, 37.095851 ], [ -76.401645, 37.09588 ], [ -76.401555, 37.095887 ], [ -76.401421, 37.095877 ], [ -76.401299, 37.095832 ], [ -76.400875, 37.095635 ], [ -76.400745, 37.095604 ], [ -76.400656, 37.095609 ], [ -76.400538, 37.095659 ], [ -76.40029, 37.095851 ], [ -76.400128, 37.09601 ], [ -76.399979, 37.096168 ], [ -76.399953, 37.096272 ], [ -76.399984, 37.096375 ], [ -76.400153, 37.096583 ], [ -76.400215, 37.096716 ], [ -76.400216, 37.096787 ], [ -76.400174, 37.09685 ], [ -76.400106, 37.096896 ], [ -76.399976, 37.096923 ], [ -76.39957, 37.096931 ], [ -76.399403, 37.096877 ], [ -76.399268, 37.096785 ], [ -76.39895, 37.096484 ], [ -76.398604, 37.096205 ], [ -76.398422, 37.096099 ], [ -76.397963, 37.095874 ], [ -76.397874, 37.095864 ], [ -76.397694, 37.095876 ], [ -76.39763, 37.095901 ], [ -76.397429, 37.096092 ], [ -76.397399, 37.096159 ], [ -76.397438, 37.09624 ], [ -76.39752, 37.096324 ], [ -76.397996, 37.096526 ], [ -76.398082, 37.096546 ], [ -76.398242, 37.096612 ], [ -76.398353, 37.096672 ], [ -76.398481, 37.096772 ], [ -76.39853, 37.096944 ], [ -76.398459, 37.097111 ], [ -76.398358, 37.097181 ], [ -76.398055, 37.097253 ], [ -76.3977, 37.097298 ], [ -76.397615, 37.097323 ], [ -76.397506, 37.097387 ], [ -76.397414, 37.097465 ], [ -76.397319, 37.097585 ], [ -76.397206, 37.097855 ], [ -76.397253, 37.098065 ], [ -76.397313, 37.098118 ], [ -76.397393, 37.09815 ], [ -76.397663, 37.098165 ], [ -76.397887, 37.098142 ], [ -76.398059, 37.098097 ], [ -76.398182, 37.098053 ], [ -76.398701, 37.097715 ], [ -76.398858, 37.097645 ], [ -76.399066, 37.097579 ], [ -76.399291, 37.097572 ], [ -76.399552, 37.097624 ], [ -76.399657, 37.09769 ], [ -76.399707, 37.097748 ], [ -76.399722, 37.097818 ], [ -76.399699, 37.097957 ], [ -76.399518, 37.098161 ], [ -76.398884, 37.098618 ], [ -76.398688, 37.098704 ], [ -76.398079, 37.098831 ], [ -76.397942, 37.098924 ], [ -76.397894, 37.098984 ], [ -76.397895, 37.099017 ], [ -76.39792, 37.099046 ], [ -76.398058, 37.099138 ], [ -76.398412, 37.099199 ], [ -76.399258, 37.099271 ], [ -76.399396, 37.099361 ], [ -76.399417, 37.099393 ], [ -76.399473, 37.099707 ], [ -76.399506, 37.099989 ], [ -76.399467, 37.100152 ], [ -76.399371, 37.100227 ], [ -76.399282, 37.100235 ], [ -76.399108, 37.100199 ], [ -76.398873, 37.100094 ], [ -76.398612, 37.100038 ], [ -76.39771, 37.099988 ], [ -76.397534, 37.099958 ], [ -76.397062, 37.099834 ], [ -76.396837, 37.099825 ], [ -76.396747, 37.099835 ], [ -76.396682, 37.099883 ], [ -76.396659, 37.099952 ], [ -76.396654, 37.100093 ], [ -76.396719, 37.100186 ], [ -76.396934, 37.100367 ], [ -76.397401, 37.100701 ], [ -76.397587, 37.100902 ], [ -76.397731, 37.101123 ], [ -76.398072, 37.101499 ], [ -76.398283, 37.101684 ], [ -76.398533, 37.101838 ], [ -76.398741, 37.102025 ], [ -76.398779, 37.102088 ], [ -76.398771, 37.102265 ], [ -76.398726, 37.102366 ], [ -76.398549, 37.102652 ], [ -76.398478, 37.10293 ], [ -76.398419, 37.103064 ], [ -76.397963, 37.103407 ], [ -76.39782, 37.103588 ], [ -76.397799, 37.103729 ], [ -76.397823, 37.10387 ], [ -76.397867, 37.10397 ], [ -76.398134, 37.104255 ], [ -76.398206, 37.104297 ], [ -76.398291, 37.104321 ], [ -76.398381, 37.104316 ], [ -76.398585, 37.104241 ], [ -76.398679, 37.104164 ], [ -76.398788, 37.10401 ], [ -76.398905, 37.103704 ], [ -76.398956, 37.103315 ], [ -76.399106, 37.103182 ], [ -76.399145, 37.103165 ], [ -76.399324, 37.10315 ], [ -76.399547, 37.103173 ], [ -76.399753, 37.103246 ], [ -76.400013, 37.103301 ], [ -76.400283, 37.103303 ], [ -76.400417, 37.103287 ], [ -76.400535, 37.103236 ], [ -76.400667, 37.103093 ], [ -76.40078, 37.102939 ], [ -76.40092, 37.10285300000011 ], [ -76.401054, 37.102839 ], [ -76.401149, 37.102851 ], [ -76.401268, 37.1029 ], [ -76.401366, 37.102973 ], [ -76.401445, 37.10306 ], [ -76.401606, 37.103351 ], [ -76.401957, 37.103887 ], [ -76.402014, 37.104054 ], [ -76.401979, 37.104162 ], [ -76.4019, 37.104195 ], [ -76.401512, 37.104292 ], [ -76.401111, 37.104348 ], [ -76.401004, 37.104413 ], [ -76.400926, 37.104501 ], [ -76.400899, 37.104569 ], [ -76.400897, 37.104711 ], [ -76.401094, 37.104947 ], [ -76.401224, 37.105213 ], [ -76.401233, 37.105425 ], [ -76.401221, 37.105495 ], [ -76.401176, 37.105555 ], [ -76.400984, 37.105647 ], [ -76.400513, 37.105775 ], [ -76.400392, 37.105822 ], [ -76.399643, 37.10628 ], [ -76.399452, 37.106375 ], [ -76.399149, 37.106448 ], [ -76.398884, 37.106494 ], [ -76.398348, 37.106551 ], [ -76.398132, 37.106603 ], [ -76.397988, 37.106688 ], [ -76.397893, 37.106809 ], [ -76.397862, 37.106984 ], [ -76.397842, 37.107374 ], [ -76.397817, 37.107442 ], [ -76.397701, 37.107551 ], [ -76.397498, 37.107629 ], [ -76.397365, 37.107651 ], [ -76.397049, 37.10766 ], [ -76.396823, 37.107648 ], [ -76.396628, 37.10761 ], [ -76.396292, 37.107508 ], [ -76.396075, 37.107379 ], [ -76.395795, 37.107174 ], [ -76.397147, 37.109625 ], [ -76.397186, 37.109721 ], [ -76.398951, 37.112876 ], [ -76.400189, 37.115706 ], [ -76.400859, 37.117293 ], [ -76.400913, 37.117371 ], [ -76.401222, 37.118081 ], [ -76.401761, 37.119233 ], [ -76.402533, 37.119441 ], [ -76.405844, 37.125577 ], [ -76.407757, 37.129118 ], [ -76.407779, 37.129157 ], [ -76.410409, 37.126622 ], [ -76.411209, 37.129556 ], [ -76.411479, 37.130428 ], [ -76.411302, 37.130697 ], [ -76.411322, 37.13071 ], [ -76.410892, 37.131353 ], [ -76.410841, 37.131475 ], [ -76.410801, 37.131791 ], [ -76.410823, 37.132596 ], [ -76.410794, 37.132909 ], [ -76.410736, 37.13316 ], [ -76.410562, 37.133745 ], [ -76.410416, 37.134171 ], [ -76.410251, 37.134569 ], [ -76.410247, 37.134701 ], [ -76.41033, 37.13481 ], [ -76.41075, 37.13513 ], [ -76.411044, 37.135402 ], [ -76.411138, 37.135612 ], [ -76.411188, 37.135679 ], [ -76.411402, 37.135803 ], [ -76.412347, 37.136686 ], [ -76.413409, 37.138114 ], [ -76.413517, 37.138325 ], [ -76.413557, 37.138561 ], [ -76.413145, 37.139557 ], [ -76.413161, 37.140325 ], [ -76.413, 37.141893 ], [ -76.412696, 37.143317 ], [ -76.412408, 37.144245 ], [ -76.412184, 37.145157 ], [ -76.412264, 37.146262 ], [ -76.411703, 37.147893 ], [ -76.411753, 37.148098 ], [ -76.411733, 37.14816 ], [ -76.412597, 37.151552 ], [ -76.412885, 37.155808 ], [ -76.40324, 37.16134 ], [ -76.40322, 37.161352 ], [ -76.400438, 37.162947 ], [ -76.397889, 37.164412 ], [ -76.39289, 37.167279 ], [ -76.392388, 37.167567 ], [ -76.387284, 37.17006 ], [ -76.366594, 37.180167 ], [ -76.330417, 37.197838 ], [ -76.330435, 37.190984 ], [ -76.249661, 37.191016 ], [ -76.13552, 37.19197 ], [ -76.135016, 37.125142 ], [ -76.134941, 37.117603 ], [ -76.133981, 37.056083 ], [ -76.133748, 37.041142 ], [ -76.133872, 37.040886 ], [ -76.153712, 37.000146 ], [ -76.158378, 36.990129 ], [ -76.177275, 36.94957 ], [ -76.177663, 36.948001 ], [ -76.179803, 36.939347 ], [ -76.181159, 36.933147 ], [ -76.181426, 36.931768 ], [ -76.177246, 36.931669 ], [ -76.177092, 36.930054 ], [ -76.176325, 36.922006 ], [ -76.176765, 36.921031 ], [ -76.179467, 36.921179 ], [ -76.182472, 36.921766 ], [ -76.183488, 36.922071 ], [ -76.183419, 36.922595 ], [ -76.187509, 36.922912 ], [ -76.187759, 36.922247 ], [ -76.187923, 36.921865 ], [ -76.18915, 36.918978 ], [ -76.189746, 36.918829 ], [ -76.189745, 36.918731 ], [ -76.189772, 36.918701 ], [ -76.189848, 36.918668 ], [ -76.190001, 36.918636 ], [ -76.190151, 36.918632 ], [ -76.190317, 36.918638 ], [ -76.190384, 36.918657 ], [ -76.19113, 36.918519 ], [ -76.192521, 36.918232 ], [ -76.19258, 36.918184 ], [ -76.192531, 36.918035 ], [ -76.190231, 36.91329 ], [ -76.189943, 36.912814 ], [ -76.18981, 36.912629 ], [ -76.189574, 36.912352 ], [ -76.1892, 36.912034 ], [ -76.187011, 36.91055 ], [ -76.186013, 36.909884 ], [ -76.185758, 36.909689 ], [ -76.185507, 36.90946 ], [ -76.185148, 36.90909 ], [ -76.18414, 36.908019 ], [ -76.183774, 36.907686 ], [ -76.183464, 36.907435 ], [ -76.183109, 36.907191 ], [ -76.182769, 36.906999 ], [ -76.182062, 36.906685 ], [ -76.182012, 36.906668 ], [ -76.182076, 36.906597 ], [ -76.188285, 36.899756 ], [ -76.192559, 36.895047 ], [ -76.193959, 36.893847 ], [ -76.196459, 36.889647 ], [ -76.198459, 36.886642 ], [ -76.197691, 36.885277 ], [ -76.197589, 36.885097 ], [ -76.19752, 36.884975 ], [ -76.197459, 36.884902 ], [ -76.195559, 36.881947 ], [ -76.193329, 36.877919 ], [ -76.193122, 36.877425 ], [ -76.193015, 36.877298 ], [ -76.192865, 36.877175 ], [ -76.189794, 36.875062 ], [ -76.189285, 36.874681 ], [ -76.188569, 36.87419 ], [ -76.188443, 36.874108 ], [ -76.188571, 36.873648 ], [ -76.189852, 36.873644 ], [ -76.190359, 36.869347 ], [ -76.191459, 36.867047 ], [ -76.192559, 36.866347 ], [ -76.193202, 36.865336 ], [ -76.193259, 36.865247 ], [ -76.192843, 36.864691 ], [ -76.191759, 36.863747 ], [ -76.190259, 36.863247 ], [ -76.189759, 36.862447 ], [ -76.188959, 36.862547 ], [ -76.187033, 36.862547 ], [ -76.186959, 36.862547 ], [ -76.185318, 36.86177 ], [ -76.185059, 36.861647 ], [ -76.185122, 36.861209 ], [ -76.185159, 36.860947 ], [ -76.182959, 36.859947 ], [ -76.181858, 36.859347 ], [ -76.180758, 36.858847 ], [ -76.179694, 36.858315 ], [ -76.179558, 36.858247 ], [ -76.178592, 36.85786 ], [ -76.177458, 36.857247 ], [ -76.177005, 36.857021 ], [ -76.176905, 36.856971 ], [ -76.177108, 36.856205 ], [ -76.177637, 36.854364 ], [ -76.177672, 36.8542 ], [ -76.177852, 36.853427 ], [ -76.178106, 36.852498 ], [ -76.178573, 36.851453 ], [ -76.179003, 36.850571 ], [ -76.179097, 36.850324 ], [ -76.179342, 36.849865 ], [ -76.179467, 36.849683 ], [ -76.180512, 36.848668 ], [ -76.180753, 36.848433 ], [ -76.181883, 36.847241 ], [ -76.182918, 36.846149 ], [ -76.183058, 36.846003 ], [ -76.183215, 36.845839 ], [ -76.184591, 36.84438 ], [ -76.184637, 36.844331 ], [ -76.185814, 36.843083 ], [ -76.186077, 36.842851 ], [ -76.186234, 36.84274 ], [ -76.186497, 36.842598 ], [ -76.187369, 36.842244 ], [ -76.187624, 36.842118 ], [ -76.187694, 36.842082 ], [ -76.187763, 36.842045 ], [ -76.18885, 36.841437 ], [ -76.189378, 36.841106 ], [ -76.189529, 36.841003 ], [ -76.189779, 36.840772 ], [ -76.19046, 36.840279 ], [ -76.190595, 36.840172 ], [ -76.191454, 36.839435 ], [ -76.191659, 36.839153 ], [ -76.191843, 36.838775 ], [ -76.192202, 36.838076 ], [ -76.193059, 36.836448 ], [ -76.193557, 36.83559 ], [ -76.194953, 36.833121 ], [ -76.194981, 36.832934 ], [ -76.194928, 36.832264 ], [ -76.194919, 36.831937 ], [ -76.194874, 36.831405 ], [ -76.194846, 36.831259 ], [ -76.194727, 36.830955 ], [ -76.194737, 36.830055 ], [ -76.194742, 36.829967 ], [ -76.19543, 36.829828 ], [ -76.19575, 36.829723 ], [ -76.195799, 36.829672 ], [ -76.197259, 36.828148 ], [ -76.200159, 36.827948 ], [ -76.201389, 36.829409 ], [ -76.203344, 36.830056 ], [ -76.204563, 36.830487 ], [ -76.205493, 36.831207 ], [ -76.206859, 36.832647 ], [ -76.210158, 36.832947 ], [ -76.210412, 36.832907 ], [ -76.210654, 36.832869 ], [ -76.213959, 36.832347 ], [ -76.21726, 36.833547 ], [ -76.21876, 36.835147 ], [ -76.22306, 36.837747 ], [ -76.22606, 36.839947 ], [ -76.22616, 36.839247 ], [ -76.22516, 36.837047 ], [ -76.226142, 36.835839 ], [ -76.22776, 36.833847 ], [ -76.22806, 36.832874 ], [ -76.227757, 36.831981 ], [ -76.227756, 36.831895 ], [ -76.227599, 36.831442 ], [ -76.226833, 36.829275 ], [ -76.226084, 36.827266 ], [ -76.225814, 36.826543 ], [ -76.225154, 36.824846 ], [ -76.224921, 36.824481 ], [ -76.22452, 36.823375 ], [ -76.2242, 36.82249 ], [ -76.223591, 36.820793 ], [ -76.223249, 36.819972 ], [ -76.223164, 36.819813 ], [ -76.222705, 36.818541 ], [ -76.22235, 36.817614 ], [ -76.221572, 36.815657 ], [ -76.221887, 36.815739 ], [ -76.222075, 36.815758 ], [ -76.222167, 36.815746 ], [ -76.222636, 36.815628 ], [ -76.222449, 36.815134 ], [ -76.222458, 36.814949 ], [ -76.222484, 36.81487 ], [ -76.223522, 36.813316 ], [ -76.223661, 36.813222 ], [ -76.22384, 36.813184 ], [ -76.226285, 36.812562 ], [ -76.225937, 36.81184 ], [ -76.225535, 36.810999 ], [ -76.225456, 36.81079 ], [ -76.225408, 36.810468 ], [ -76.225437, 36.810168 ], [ -76.225489, 36.809909 ], [ -76.225494, 36.809654 ], [ -76.225428, 36.809341 ], [ -76.225308, 36.809137 ], [ -76.225202, 36.80901 ], [ -76.225857, 36.808582 ], [ -76.226534, 36.808127 ], [ -76.227199, 36.80768 ], [ -76.228134, 36.80706 ], [ -76.228479, 36.806833 ], [ -76.22928, 36.806302 ], [ -76.229974, 36.805877 ], [ -76.23066, 36.806348 ], [ -76.231995, 36.807082 ], [ -76.232163, 36.807247 ], [ -76.232473, 36.807373 ], [ -76.232618, 36.807406 ], [ -76.232726, 36.807448 ], [ -76.232956, 36.80765 ], [ -76.233349, 36.807889 ], [ -76.233438, 36.808048 ], [ -76.23341, 36.808264 ], [ -76.233438, 36.808479 ], [ -76.233469, 36.808549 ], [ -76.233599, 36.808613 ], [ -76.233748, 36.808671 ], [ -76.233926, 36.8087 ], [ -76.234123, 36.808686 ], [ -76.234512, 36.808582 ], [ -76.234685, 36.808559 ], [ -76.234999, 36.80855 ], [ -76.23514, 36.808522 ], [ -76.235388, 36.808376 ], [ -76.235641, 36.808409 ], [ -76.235787, 36.80839 ], [ -76.235951, 36.808348 ], [ -76.236298, 36.808198 ], [ -76.237188, 36.808268 ], [ -76.237526, 36.808343 ], [ -76.237657, 36.808287 ], [ -76.237741, 36.808006 ], [ -76.237868, 36.807939 ], [ -76.23792, 36.807912 ], [ -76.237995, 36.807921 ], [ -76.238145, 36.807996 ], [ -76.238238, 36.808109 ], [ -76.238257, 36.808278 ], [ -76.238295, 36.8084 ], [ -76.23837, 36.808475 ], [ -76.238885, 36.808709 ], [ -76.239185, 36.808878 ], [ -76.239626, 36.809046 ], [ -76.239795, 36.80899 ], [ -76.239973, 36.808896 ], [ -76.240245, 36.808859 ], [ -76.240451, 36.808887 ], [ -76.240685, 36.809009 ], [ -76.241004, 36.809056 ], [ -76.241276, 36.809196 ], [ -76.24143, 36.809267 ], [ -76.241599, 36.809398 ], [ -76.241787, 36.809581 ], [ -76.241899, 36.809623 ], [ -76.242012, 36.809604 ], [ -76.242044, 36.809562 ], [ -76.242035, 36.809454 ], [ -76.241871, 36.809243 ], [ -76.241852, 36.809131 ], [ -76.241965, 36.808995 ], [ -76.242387, 36.808713 ], [ -76.242523, 36.808587 ], [ -76.242673, 36.808207 ], [ -76.242809, 36.80817 ], [ -76.242944, 36.808203 ], [ -76.243076, 36.808301 ], [ -76.243544, 36.808751 ], [ -76.244098, 36.809154 ], [ -76.244477, 36.809346 ], [ -76.244802, 36.809434 ], [ -76.244923, 36.809562 ], [ -76.244951, 36.809703 ], [ -76.244923, 36.809843 ], [ -76.244791, 36.810021 ], [ -76.244707, 36.810068 ], [ -76.244463, 36.810096 ], [ -76.244229, 36.810228 ], [ -76.244079, 36.810359 ], [ -76.243854, 36.810987 ], [ -76.243713, 36.811137 ], [ -76.243554, 36.811193 ], [ -76.24331, 36.811156 ], [ -76.243048, 36.811146 ], [ -76.242748, 36.811156 ], [ -76.242635, 36.811451 ], [ -76.24264, 36.811713 ], [ -76.242691, 36.811868 ], [ -76.242776, 36.812042 ], [ -76.242893, 36.812215 ], [ -76.243165, 36.812553 ], [ -76.243205, 36.812629 ], [ -76.243561, 36.813308 ], [ -76.24376, 36.813847 ], [ -76.24366, 36.814447 ], [ -76.242241, 36.815984 ], [ -76.241713, 36.817331 ], [ -76.242016, 36.818449 ], [ -76.242016, 36.818712 ], [ -76.241979, 36.819049 ], [ -76.241773, 36.819481 ], [ -76.241477, 36.819776 ], [ -76.241285, 36.819968 ], [ -76.240404, 36.820381 ], [ -76.239973, 36.820531 ], [ -76.239373, 36.820699 ], [ -76.238998, 36.820737 ], [ -76.238548, 36.820906 ], [ -76.238116, 36.821149 ], [ -76.237376, 36.822181 ], [ -76.236793, 36.823362 ], [ -76.236515, 36.823839 ], [ -76.236185, 36.824037 ], [ -76.235407, 36.824215 ], [ -76.235041, 36.824253 ], [ -76.234535, 36.824337 ], [ -76.234151, 36.824524 ], [ -76.233832, 36.824843 ], [ -76.233654, 36.825218 ], [ -76.233569, 36.825471 ], [ -76.233653, 36.826243 ], [ -76.233898, 36.827609 ], [ -76.234188, 36.828668 ], [ -76.234873, 36.829578 ], [ -76.235997, 36.830515 ], [ -76.237048, 36.830778 ], [ -76.237747, 36.83082 ], [ -76.238262, 36.831088 ], [ -76.240038, 36.832231 ], [ -76.240629, 36.832643 ], [ -76.240976, 36.833037 ], [ -76.241304, 36.833768 ], [ -76.241405, 36.834301 ], [ -76.24196, 36.837147 ], [ -76.243765, 36.836862 ], [ -76.24455, 36.83497 ], [ -76.244917, 36.834266 ], [ -76.245533, 36.833173 ], [ -76.24572, 36.832886 ], [ -76.246058, 36.832438 ], [ -76.246673, 36.831726 ], [ -76.247086, 36.831325000000113 ], [ -76.248274, 36.830105 ], [ -76.24926, 36.829147 ], [ -76.249593, 36.828767 ], [ -76.250742, 36.827532 ], [ -76.252851, 36.825474 ], [ -76.253431, 36.824888 ], [ -76.256344, 36.821953 ], [ -76.257475, 36.820757 ], [ -76.258946, 36.821724 ], [ -76.25957, 36.822021 ], [ -76.260416, 36.822384 ], [ -76.260647, 36.822475 ], [ -76.261014, 36.82261 ], [ -76.262083, 36.823005 ], [ -76.262492, 36.823174 ], [ -76.263511, 36.823593 ], [ -76.264301, 36.823916 ], [ -76.265098, 36.824248 ], [ -76.265218, 36.824296 ], [ -76.265892, 36.824564 ], [ -76.26672, 36.824888 ], [ -76.267477, 36.825189 ], [ -76.268284, 36.825496 ], [ -76.269068, 36.825808 ], [ -76.269825, 36.826114 ], [ -76.272198, 36.827049 ], [ -76.272416, 36.82714 ], [ -76.273021, 36.827379 ], [ -76.27471, 36.828039 ], [ -76.275185, 36.827417 ], [ -76.275367, 36.827178 ], [ -76.275804, 36.826651 ], [ -76.275888, 36.82655 ], [ -76.27635, 36.825932 ], [ -76.277035, 36.824967 ], [ -76.276963, 36.824892 ], [ -76.277959, 36.824347 ], [ -76.278143, 36.824278 ], [ -76.278769, 36.824046 ], [ -76.279365, 36.823644 ], [ -76.279725, 36.823429 ], [ -76.279862, 36.823348 ], [ -76.280109, 36.823299 ], [ -76.280357, 36.823249 ], [ -76.280615, 36.823191 ], [ -76.281262, 36.823048 ], [ -76.282003, 36.822929 ], [ -76.28433, 36.821991 ], [ -76.28505, 36.822099 ], [ -76.285612, 36.822151 ], [ -76.28595, 36.822142 ], [ -76.286165, 36.822062 ], [ -76.286357, 36.82201 ], [ -76.286742, 36.821975 ], [ -76.288068, 36.821966 ], [ -76.289462, 36.822048 ], [ -76.289962, 36.822048 ], [ -76.291262, 36.818448 ], [ -76.290394, 36.811641 ], [ -76.290061, 36.808742 ], [ -76.290138, 36.808223 ], [ -76.290662, 36.804548 ], [ -76.291562, 36.799948 ], [ -76.292144, 36.798663 ], [ -76.292828, 36.797154 ], [ -76.297362, 36.792548 ], [ -76.302862, 36.790748 ], [ -76.303262, 36.789548 ], [ -76.303362, 36.786548 ], [ -76.304562, 36.784548 ], [ -76.308463, 36.780448 ], [ -76.308666, 36.779568 ], [ -76.308761, 36.779141 ], [ -76.306551, 36.777602 ], [ -76.297118, 36.776944 ], [ -76.295862, 36.776338 ], [ -76.295091, 36.775231 ], [ -76.295077, 36.775176 ], [ -76.295037, 36.774905 ], [ -76.295263, 36.774055 ], [ -76.298586, 36.767037 ], [ -76.299679, 36.762026 ], [ -76.297833, 36.758152 ], [ -76.297776, 36.758067 ], [ -76.29766, 36.757861 ], [ -76.295162, 36.753448 ], [ -76.295062, 36.752448 ], [ -76.297362, 36.747348 ], [ -76.297265, 36.746599 ], [ -76.296776, 36.744457 ], [ -76.298196, 36.741868 ], [ -76.297608, 36.740176 ], [ -76.296129, 36.737389 ], [ -76.294901, 36.736347 ], [ -76.29484, 36.736295 ], [ -76.294262, 36.736918 ], [ -76.292126, 36.739222 ], [ -76.290716, 36.740776 ], [ -76.285676, 36.746221 ], [ -76.284484, 36.747509 ], [ -76.283907, 36.748091 ], [ -76.28336, 36.748592 ], [ -76.283087, 36.748828 ], [ -76.282468, 36.749321 ], [ -76.281443, 36.750055 ], [ -76.28097, 36.750362 ], [ -76.280039, 36.750911 ], [ -76.279269, 36.751316 ], [ -76.278272, 36.751782 ], [ -76.277449, 36.75212 ], [ -76.273969, 36.75346 ], [ -76.273364, 36.753719 ], [ -76.271683, 36.754329 ], [ -76.271636, 36.754172 ], [ -76.270235, 36.754694 ], [ -76.269787, 36.754829 ], [ -76.269394, 36.754967 ], [ -76.268847, 36.755202 ], [ -76.268421, 36.755317 ], [ -76.268203, 36.755405 ], [ -76.267646, 36.755657 ], [ -76.267309, 36.755852 ], [ -76.267215, 36.755923 ], [ -76.267176, 36.755833 ], [ -76.267016, 36.755492 ], [ -76.266431, 36.754701 ], [ -76.265933, 36.754228 ], [ -76.265643, 36.753988 ], [ -76.263642, 36.752373 ], [ -76.262727, 36.751569 ], [ -76.261694, 36.750584 ], [ -76.260935, 36.74979 ], [ -76.260357, 36.749158 ], [ -76.259538, 36.748191 ], [ -76.259134, 36.747556 ], [ -76.258733, 36.746787 ], [ -76.258353, 36.746241 ], [ -76.257881, 36.745687 ], [ -76.257371, 36.745174 ], [ -76.256587, 36.744545 ], [ -76.256215, 36.744312 ], [ -76.253426, 36.742562 ], [ -76.253274, 36.742767 ], [ -76.253088, 36.7431 ], [ -76.253126, 36.743165 ], [ -76.253145, 36.743275 ], [ -76.253121, 36.743365 ], [ -76.252399, 36.744363 ], [ -76.252109, 36.744731 ], [ -76.251915, 36.744778 ], [ -76.251784, 36.744779 ], [ -76.251691, 36.744919 ], [ -76.251921, 36.745042 ], [ -76.250908, 36.746383 ], [ -76.24987, 36.747695 ], [ -76.249282, 36.748404 ], [ -76.24899, 36.748604 ], [ -76.248833, 36.74869 ], [ -76.24868, 36.748808 ], [ -76.24855, 36.748817 ], [ -76.248418, 36.748907 ], [ -76.248221, 36.748972 ], [ -76.247932, 36.748989 ], [ -76.247595, 36.749036 ], [ -76.246736, 36.749108 ], [ -76.246452, 36.749143 ], [ -76.246156, 36.7492 ], [ -76.245887, 36.749293 ], [ -76.245211, 36.747434 ], [ -76.241465, 36.747404 ], [ -76.239192, 36.747557 ], [ -76.239023, 36.747662 ], [ -76.238304, 36.747421 ], [ -76.237817, 36.74732 ], [ -76.237085, 36.747313 ], [ -76.236754, 36.748277 ], [ -76.2365, 36.749079 ], [ -76.236332, 36.749398 ], [ -76.236289, 36.749452 ], [ -76.236455, 36.749465 ], [ -76.236512, 36.749492 ], [ -76.23654, 36.749545 ], [ -76.236552, 36.749602 ], [ -76.23654, 36.7497 ], [ -76.236481, 36.749765 ], [ -76.236442, 36.74978 ], [ -76.236282, 36.749787 ], [ -76.236205, 36.749763 ], [ -76.236057, 36.749616 ], [ -76.235903, 36.74956 ], [ -76.235792, 36.749543 ], [ -76.2356, 36.74945 ], [ -76.234329, 36.748773 ], [ -76.231082, 36.747063 ], [ -76.229409, 36.746178 ], [ -76.228647, 36.74562 ], [ -76.227961, 36.744931 ], [ -76.22782, 36.744739 ], [ -76.227608, 36.744387 ], [ -76.227451, 36.744056 ], [ -76.227344, 36.74375 ], [ -76.227235, 36.743618 ], [ -76.227156, 36.743319 ], [ -76.22696, 36.742905 ], [ -76.226637, 36.742378 ], [ -76.226267, 36.741886 ], [ -76.225578, 36.742308 ], [ -76.224891, 36.742682 ], [ -76.224205, 36.743014 ], [ -76.223776, 36.743203 ], [ -76.223182, 36.743472 ], [ -76.22126, 36.744331 ], [ -76.221632, 36.744789 ], [ -76.221884, 36.745174 ], [ -76.222112, 36.745634 ], [ -76.222416, 36.746338 ], [ -76.224452, 36.751052 ], [ -76.22456, 36.75134 ], [ -76.224734, 36.751906 ], [ -76.224832, 36.75238 ], [ -76.224879, 36.75277 ], [ -76.22488, 36.753087 ], [ -76.220132, 36.753035 ], [ -76.220012, 36.753045 ], [ -76.219843, 36.753089 ], [ -76.219698, 36.753172 ], [ -76.219634, 36.753236 ], [ -76.218733, 36.754825 ], [ -76.218517, 36.755188 ], [ -76.218142, 36.75562 ], [ -76.218036, 36.755765 ], [ -76.21789, 36.75605 ], [ -76.216963, 36.758958 ], [ -76.216928, 36.7591 ], [ -76.216882, 36.759608 ], [ -76.216843, 36.759768 ], [ -76.215901, 36.762142 ], [ -76.215822, 36.762257 ], [ -76.215731, 36.762353 ], [ -76.215552, 36.762506 ], [ -76.21532, 36.762623 ], [ -76.214778, 36.762798 ], [ -76.214522, 36.762915 ], [ -76.214375, 36.763043 ], [ -76.214264, 36.763209 ], [ -76.213572, 36.765435 ], [ -76.213565, 36.765566 ], [ -76.213598, 36.76571 ], [ -76.213712, 36.765894 ], [ -76.213815, 36.765987 ], [ -76.21402, 36.766096 ], [ -76.214584, 36.766306 ], [ -76.214534, 36.766383 ], [ -76.214202, 36.766952 ], [ -76.212573, 36.76632 ], [ -76.21025, 36.765417 ], [ -76.207298, 36.764334 ], [ -76.204506, 36.763265 ], [ -76.203928, 36.763068 ], [ -76.203715, 36.763021 ], [ -76.203678, 36.763329 ], [ -76.203668, 36.763826 ], [ -76.2037, 36.764265 ], [ -76.203834, 36.765023 ], [ -76.203898, 36.765717 ], [ -76.203991, 36.766989 ], [ -76.204002, 36.767134 ], [ -76.20406, 36.767871 ], [ -76.204074, 36.768274 ], [ -76.204041, 36.768626 ], [ -76.203953, 36.769039 ], [ -76.203788, 36.769525 ], [ -76.2037, 36.769742 ], [ -76.203667, 36.769655 ], [ -76.203598, 36.769633 ], [ -76.201422, 36.768925 ], [ -76.195246, 36.76692 ], [ -76.191515, 36.765711 ], [ -76.189658, 36.765109 ], [ -76.188551, 36.764748 ], [ -76.18716, 36.764095 ], [ -76.186531, 36.763747 ], [ -76.183641, 36.763396 ], [ -76.1836, 36.763391 ], [ -76.18179, 36.763087 ], [ -76.180858, 36.762836 ], [ -76.179061, 36.762583 ], [ -76.17753, 36.762356 ], [ -76.169802, 36.761092 ], [ -76.163449, 36.760164 ], [ -76.164079, 36.760068 ], [ -76.164367, 36.760056 ], [ -76.164504, 36.759968 ], [ -76.164513, 36.759824 ], [ -76.164925, 36.759788 ], [ -76.168731, 36.758651 ], [ -76.170182, 36.758005 ], [ -76.172797, 36.757617 ], [ -76.174374, 36.758389 ], [ -76.176488, 36.756803 ], [ -76.177562, 36.756227 ], [ -76.178015, 36.755911 ], [ -76.178808, 36.755777 ], [ -76.178909, 36.755697 ], [ -76.179063, 36.75571 ], [ -76.17985, 36.7557 ], [ -76.18075, 36.755335 ], [ -76.182265, 36.755188 ], [ -76.184492, 36.755015 ], [ -76.184473, 36.754621 ], [ -76.184531, 36.752603 ], [ -76.187263, 36.752522 ], [ -76.189307, 36.752506 ], [ -76.190418, 36.752452 ], [ -76.191179, 36.752363 ], [ -76.191698, 36.752257 ], [ -76.192056, 36.752163 ], [ -76.192611, 36.751975 ], [ -76.197366, 36.750212 ], [ -76.198665, 36.749717 ], [ -76.198896, 36.749618 ], [ -76.199115, 36.749503 ], [ -76.199307, 36.749361 ], [ -76.199388, 36.749279 ], [ -76.199462, 36.749193 ], [ -76.19955, 36.748994 ], [ -76.199733, 36.748809 ], [ -76.200502, 36.747893 ], [ -76.200655, 36.747691 ], [ -76.20102, 36.747131 ], [ -76.201077, 36.747067 ], [ -76.201202, 36.746971 ], [ -76.201358, 36.746904 ], [ -76.20179, 36.746837 ], [ -76.202666, 36.746783 ], [ -76.202926, 36.746744 ], [ -76.203361, 36.746708 ], [ -76.203692, 36.746703 ], [ -76.203852, 36.746719 ], [ -76.204144, 36.746777 ], [ -76.204296, 36.746845 ], [ -76.20477, 36.747185 ], [ -76.205002, 36.747305 ], [ -76.205185, 36.747357 ], [ -76.205602, 36.747443 ], [ -76.206048, 36.74758 ], [ -76.206372, 36.747627 ], [ -76.208735, 36.747722 ], [ -76.209242, 36.74778 ], [ -76.210015, 36.748286 ], [ -76.21038, 36.747953 ], [ -76.210664, 36.747721 ], [ -76.211103, 36.747414 ], [ -76.211573, 36.74713 ], [ -76.211332, 36.746851 ], [ -76.211115, 36.74656 ], [ -76.208356, 36.74716 ], [ -76.208298, 36.745804 ], [ -76.208799, 36.745831 ], [ -76.209297, 36.745835 ], [ -76.2098, 36.745821 ], [ -76.210299, 36.745784 ], [ -76.210792, 36.745727 ], [ -76.210751, 36.745529 ], [ -76.210717, 36.745158 ], [ -76.210713, 36.744401 ], [ -76.210695, 36.742823 ], [ -76.211749, 36.742849 ], [ -76.211781, 36.742479 ], [ -76.21184, 36.742108 ], [ -76.211926, 36.741745 ], [ -76.212048, 36.741349 ], [ -76.212381, 36.740591 ], [ -76.212604, 36.740192 ], [ -76.209053, 36.739241 ], [ -76.206909, 36.738668 ], [ -76.206774, 36.738631 ], [ -76.205734, 36.738346 ], [ -76.205505, 36.738283 ], [ -76.20282, 36.737508 ], [ -76.20191, 36.737242 ], [ -76.199988, 36.736692 ], [ -76.199788, 36.736964 ], [ -76.199627, 36.73709 ], [ -76.199413, 36.737193 ], [ -76.198438, 36.73748 ], [ -76.197337, 36.737764 ], [ -76.197086, 36.737823 ], [ -76.196613, 36.737876 ], [ -76.195409, 36.737961 ], [ -76.194689, 36.73807 ], [ -76.19415, 36.738179 ], [ -76.19322, 36.738442 ], [ -76.191625, 36.738912 ], [ -76.189548, 36.739631 ], [ -76.189191, 36.739696 ], [ -76.188939, 36.739689 ], [ -76.187975, 36.739521 ], [ -76.185193, 36.738942 ], [ -76.185361, 36.736131 ], [ -76.185393, 36.735973 ], [ -76.185468, 36.735744 ], [ -76.185663, 36.735401 ], [ -76.18588, 36.7351 ], [ -76.186958, 36.733681 ], [ -76.18713, 36.733402 ], [ -76.187221, 36.733214 ], [ -76.187384, 36.732793 ], [ -76.187459, 36.732448 ], [ -76.187468, 36.732269 ], [ -76.187424, 36.731598 ], [ -76.186409, 36.723897 ], [ -76.186388, 36.723685 ], [ -76.186358, 36.723433 ], [ -76.185823, 36.719163 ], [ -76.185494, 36.716305 ], [ -76.185321, 36.714589 ], [ -76.185338, 36.713219 ], [ -76.185398, 36.712141 ], [ -76.18544, 36.710225 ], [ -76.185558, 36.706021 ], [ -76.18553, 36.704464 ], [ -76.185447, 36.702497 ], [ -76.18545, 36.70195 ], [ -76.185366, 36.700434 ], [ -76.185361, 36.700389 ], [ -76.185277, 36.700011 ], [ -76.185205, 36.699784 ], [ -76.184812, 36.698688 ], [ -76.184772, 36.698644 ], [ -76.184539, 36.698006 ], [ -76.183513, 36.695177 ], [ -76.183424, 36.69488 ], [ -76.183371, 36.694592 ], [ -76.183379, 36.69431 ], [ -76.183475, 36.693956 ], [ -76.183646, 36.693629 ], [ -76.184796, 36.691813 ], [ -76.185065, 36.691368 ], [ -76.185161, 36.691151 ], [ -76.185209, 36.691029 ], [ -76.185379, 36.690387 ], [ -76.186249, 36.687016 ], [ -76.187141, 36.683591 ], [ -76.187312, 36.682891 ], [ -76.187376, 36.682804 ], [ -76.187518, 36.682291 ], [ -76.187598, 36.682122 ], [ -76.187618, 36.68204 ], [ -76.187948, 36.681388 ], [ -76.188252, 36.680923 ], [ -76.189887, 36.678772 ], [ -76.190788, 36.677285 ], [ -76.191598, 36.675438 ], [ -76.191896, 36.674725 ], [ -76.195404, 36.666908 ], [ -76.197256, 36.662854 ], [ -76.197493, 36.662455 ], [ -76.198037, 36.661721 ], [ -76.198362, 36.661245 ], [ -76.198452, 36.661084 ], [ -76.199077, 36.659678 ], [ -76.200128, 36.65743 ], [ -76.200289, 36.657049 ], [ -76.200431, 36.656656 ], [ -76.200545, 36.656247 ], [ -76.200572, 36.656136 ], [ -76.200628, 36.655888 ], [ -76.200689, 36.655447 ], [ -76.200976, 36.652711 ], [ -76.200992, 36.652531 ], [ -76.201332, 36.647143 ], [ -76.201351, 36.646963 ], [ -76.201414, 36.646678 ], [ -76.201532, 36.646391 ], [ -76.20203, 36.645351 ], [ -76.204145, 36.641046 ], [ -76.204373, 36.640584 ], [ -76.2044, 36.640498 ], [ -76.204501, 36.640319 ], [ -76.206263, 36.636718 ], [ -76.206893, 36.635129 ], [ -76.207417, 36.633704 ], [ -76.207953, 36.632329 ], [ -76.208083, 36.631976 ], [ -76.209622, 36.632026 ], [ -76.213747, 36.632139 ], [ -76.214499, 36.632174 ], [ -76.214965, 36.632212 ], [ -76.215824, 36.632314 ], [ -76.216025, 36.632337 ], [ -76.218301, 36.632591 ], [ -76.219104, 36.632659 ], [ -76.21983, 36.632636 ], [ -76.222506, 36.632419 ], [ -76.223073, 36.632384 ], [ -76.223475, 36.632389 ], [ -76.224373, 36.632468 ], [ -76.225159, 36.6325 ], [ -76.228814, 36.632476 ], [ -76.229757, 36.632509 ], [ -76.230792, 36.632564 ], [ -76.231244, 36.632606 ], [ -76.231746, 36.63268 ], [ -76.236008, 36.633454 ], [ -76.236432, 36.633522 ], [ -76.236708, 36.633546 ], [ -76.237059, 36.633547 ], [ -76.237929, 36.633517 ], [ -76.239119, 36.633519 ], [ -76.242374, 36.633645 ], [ -76.2428, 36.633638 ], [ -76.243115, 36.633603 ], [ -76.243434, 36.63353 ], [ -76.245211, 36.633031 ], [ -76.245686, 36.632884 ], [ -76.245941, 36.632789 ], [ -76.248247, 36.631819 ], [ -76.249575, 36.631395 ], [ -76.249979, 36.631239 ], [ -76.250363, 36.631039 ], [ -76.252326, 36.62989 ], [ -76.252739, 36.629662 ], [ -76.252922, 36.629584 ], [ -76.253117, 36.629525 ], [ -76.253392, 36.62948 ], [ -76.25707, 36.62924 ], [ -76.257797, 36.629201 ], [ -76.258216, 36.629219 ], [ -76.258476, 36.629273 ], [ -76.259934, 36.629663 ], [ -76.260124, 36.629695 ], [ -76.260359, 36.629697 ], [ -76.260609, 36.629651 ], [ -76.260871, 36.629572 ], [ -76.263277, 36.628762 ], [ -76.264214, 36.628443 ], [ -76.264348, 36.628417 ], [ -76.264559, 36.628408 ], [ -76.26986, 36.628631 ], [ -76.27074, 36.628721 ], [ -76.270977, 36.628775 ], [ -76.271159, 36.628845 ], [ -76.2714, 36.629005 ], [ -76.271592, 36.629187 ], [ -76.272461, 36.630136 ], [ -76.273832, 36.631726 ], [ -76.273957, 36.631909 ], [ -76.27423, 36.631895 ], [ -76.274781, 36.631923 ], [ -76.274904, 36.631908 ], [ -76.275014, 36.631869 ], [ -76.275074, 36.631828 ], [ -76.275184, 36.631675 ], [ -76.275231, 36.631477 ], [ -76.275235, 36.630498 ], [ -76.275297, 36.630245 ], [ -76.275348, 36.630148 ], [ -76.275541, 36.629934 ], [ -76.275754, 36.629776 ], [ -76.275965, 36.629679 ], [ -76.276154, 36.629634 ], [ -76.276412, 36.629643 ], [ -76.277939, 36.629886 ], [ -76.278925, 36.629997 ], [ -76.279166, 36.630003 ], [ -76.279457, 36.629966 ], [ -76.279612, 36.629922 ], [ -76.27987, 36.629813 ], [ -76.280356, 36.629542 ], [ -76.280835, 36.629226 ], [ -76.281057, 36.629113 ], [ -76.281281, 36.62903 ], [ -76.28161, 36.628938 ], [ -76.281792, 36.628905 ], [ -76.282941, 36.628784 ], [ -76.284041, 36.628698 ], [ -76.286663, 36.628566 ], [ -76.288162, 36.628475 ], [ -76.288524, 36.628438 ], [ -76.288614, 36.628412 ], [ -76.288789, 36.628349 ], [ -76.291651, 36.62677 ], [ -76.291964, 36.626647 ], [ -76.292301, 36.626565 ], [ -76.292438, 36.626545 ], [ -76.292786, 36.626532 ], [ -76.293274, 36.626601 ], [ -76.295311, 36.627028 ], [ -76.295515, 36.627046 ], [ -76.29572, 36.62703 ], [ -76.295854, 36.626995 ], [ -76.296037, 36.626912 ], [ -76.296434, 36.626601 ], [ -76.296667, 36.626472 ], [ -76.296866, 36.626418 ], [ -76.297071, 36.626393 ], [ -76.297402, 36.626378 ], [ -76.297671, 36.626382 ], [ -76.298215, 36.626428 ], [ -76.299271, 36.626595 ], [ -76.300031, 36.626679 ], [ -76.300587, 36.626688 ], [ -76.300778, 36.626675 ], [ -76.301623, 36.626562 ], [ -76.301968, 36.626545 ], [ -76.302319, 36.626561 ], [ -76.302658, 36.626619 ], [ -76.303661, 36.626916 ], [ -76.303946, 36.626963 ], [ -76.306293, 36.627023 ], [ -76.306706, 36.626993 ], [ -76.306915, 36.626964 ], [ -76.307186, 36.626905 ], [ -76.308394, 36.626526 ], [ -76.308476, 36.626503 ], [ -76.309494, 36.626194 ], [ -76.309764, 36.626061 ], [ -76.310019, 36.625841 ], [ -76.310412, 36.62542 ], [ -76.310646, 36.625228 ], [ -76.310823, 36.625116 ], [ -76.311072, 36.624996 ], [ -76.311471, 36.624865 ], [ -76.311752, 36.624815 ], [ -76.315116, 36.62437 ], [ -76.315828, 36.624263 ], [ -76.3166, 36.624189 ], [ -76.316877, 36.624175 ], [ -76.317009, 36.624187 ], [ -76.317205, 36.624268 ], [ -76.32167, 36.626873 ], [ -76.324399, 36.628565 ], [ -76.327624, 36.628445 ], [ -76.327963, 36.628403 ], [ -76.328935, 36.628237 ], [ -76.330047, 36.628087 ], [ -76.331636, 36.627716 ], [ -76.334096, 36.627035 ], [ -76.334305, 36.627007 ], [ -76.334397, 36.627013 ], [ -76.334512, 36.627037 ], [ -76.334633, 36.627089 ], [ -76.335327, 36.627499 ] ] ] ] } }
]
}
