{
"type": "FeatureCollection",
"name": "id_1",
"crs": { "type": "name", "properties": { "name": "urn:ogc:def:crs:OGC:1.3:CRS84" } },
"xy_coordinate_resolution": 1e-15,
"features": [
{ "type": "Feature", "properties": { "id": 1.0, "NAME": "1.0", "TotalPop": 767871.0, "PopDevPct": -0.0, "DemPct": 0.225, "RepPct": 0.758, "WhitePct": 0.896, "MinorityPc": 0.104, "BlackPct": 0.027, "HispanicPc": 0.038, "PacificPct": 0.001, "AsianPct": 0.011, "NativePct": 0.025, "TotalVAP": 616550.0, "Margin": -0.275, "color": "#e10000", "opacity": "0.5" }, "geometry": { "type": "MultiPolygon", "coordinates": [ [ [ [ -83.467097, 36.174688 ], [ -83.472397, 36.171688 ], [ -83.483497, 36.167088 ], [ -83.485097, 36.166788 ], [ -83.488797, 36.166888 ], [ -83.490697, 36.166588 ], [ -83.492897, 36.166088 ], [ -83.497473, 36.167491 ], [ -83.497998, 36.167588 ], [ -83.499898, 36.167488 ], [ -83.504385, 36.168556 ], [ -83.505612, 36.169103 ], [ -83.50762, 36.170731 ], [ -83.51085, 36.173766 ], [ -83.512605, 36.175797 ], [ -83.515524, 36.178053 ], [ -83.516486, 36.178194 ], [ -83.518896, 36.178186 ], [ -83.519936, 36.177349 ], [ -83.521299, 36.175487 ], [ -83.522276, 36.172439 ], [ -83.523125, 36.167849 ], [ -83.523755, 36.166288 ], [ -83.524235, 36.165052 ], [ -83.526218, 36.163176 ], [ -83.528262, 36.162559 ], [ -83.530558, 36.163326 ], [ -83.533435, 36.165632 ], [ -83.535116, 36.168024 ], [ -83.535799, 36.170687 ], [ -83.535699, 36.174987 ], [ -83.535999, 36.179287 ], [ -83.536999, 36.180787 ], [ -83.539199, 36.181787 ], [ -83.543143, 36.181813 ], [ -83.544799, 36.181487 ], [ -83.547299, 36.180287 ], [ -83.5493, 36.179587 ], [ -83.5517, 36.179287 ], [ -83.5532, 36.179387 ], [ -83.5562, 36.179386 ], [ -83.5573, 36.179286 ], [ -83.5586, 36.179786 ], [ -83.5591, 36.180486 ], [ -83.5593, 36.182386 ], [ -83.5592, 36.183886 ], [ -83.5592, 36.186286 ], [ -83.5595, 36.187986 ], [ -83.5604, 36.189486 ], [ -83.5609, 36.190186 ], [ -83.562164, 36.191607 ], [ -83.563013, 36.191976 ], [ -83.564033, 36.191896 ], [ -83.5651, 36.191686 ], [ -83.5662, 36.191186 ], [ -83.5673, 36.190086 ], [ -83.5677, 36.188986 ], [ -83.5678, 36.187886 ], [ -83.5677, 36.186886 ], [ -83.5673, 36.184886 ], [ -83.567, 36.183786 ], [ -83.5666, 36.182786 ], [ -83.5655, 36.180786 ], [ -83.5649, 36.179986 ], [ -83.5637, 36.178086 ], [ -83.563, 36.176886 ], [ -83.5624, 36.175386 ], [ -83.5619, 36.173486 ], [ -83.5618, 36.172486 ], [ -83.5619, 36.171486 ], [ -83.5622, 36.170386 ], [ -83.5627, 36.168986 ], [ -83.5633, 36.168186 ], [ -83.564399, 36.166486 ], [ -83.5667, 36.165886 ], [ -83.5672, 36.165886 ], [ -83.569, 36.165586 ], [ -83.571019, 36.165968 ], [ -83.572143, 36.166053 ], [ -83.573609, 36.166445 ], [ -83.574697, 36.16705 ], [ -83.576769, 36.167854 ], [ -83.577961, 36.168257 ], [ -83.579294, 36.168482 ], [ -83.580451, 36.168358 ], [ -83.581419, 36.168104 ], [ -83.58224, 36.167591 ], [ -83.582623, 36.167051 ], [ -83.582978, 36.16622 ], [ -83.582945, 36.165411 ], [ -83.582487, 36.164115 ], [ -83.581606, 36.162169 ], [ -83.580883, 36.160386 ], [ -83.58058, 36.158476 ], [ -83.58047, 36.157295 ], [ -83.580557, 36.156382 ], [ -83.580903, 36.155494 ], [ -83.581895, 36.154698 ], [ -83.582944, 36.154259 ], [ -83.58421, 36.154135 ], [ -83.585973, 36.154185 ], [ -83.587484, 36.154443 ], [ -83.588666, 36.154942 ], [ -83.589335, 36.1559 ], [ -83.589855, 36.156865 ], [ -83.589833, 36.158369 ], [ -83.589353, 36.159943 ], [ -83.588819, 36.161906 ], [ -83.58856, 36.163239 ], [ -83.589007, 36.164592 ], [ -83.589567, 36.16563 ], [ -83.59019, 36.166199 ], [ -83.590865, 36.166517 ], [ -83.59194, 36.166636 ], [ -83.593826, 36.166192 ], [ -83.596175, 36.165136 ], [ -83.597766, 36.164182 ], [ -83.598631, 36.16311 ], [ -83.599807, 36.160423 ], [ -83.60034, 36.158517 ], [ -83.6006, 36.156386 ], [ -83.601383, 36.153626 ], [ -83.6018, 36.150886 ], [ -83.6013, 36.148886 ], [ -83.600272, 36.147085 ], [ -83.599989, 36.146557 ], [ -83.599597, 36.142867 ], [ -83.600513, 36.140199 ], [ -83.60191, 36.138902 ], [ -83.604223, 36.138299 ], [ -83.607939, 36.139943 ], [ -83.609064, 36.140768 ], [ -83.6102, 36.141286 ], [ -83.6109, 36.141386 ], [ -83.6119, 36.141186 ], [ -83.612594, 36.140596 ], [ -83.612796, 36.139906 ], [ -83.611916, 36.138222 ], [ -83.611034, 36.136934 ], [ -83.609266, 36.135236 ], [ -83.607659, 36.134121 ], [ -83.607088, 36.133302 ], [ -83.606754, 36.13258 ], [ -83.606652, 36.131553 ], [ -83.607259, 36.130407 ], [ -83.608555, 36.130139 ], [ -83.609809, 36.130177 ], [ -83.610743, 36.130602 ], [ -83.611809, 36.13182 ], [ -83.613192, 36.133193 ], [ -83.614029, 36.134427 ], [ -83.614717, 36.135594 ], [ -83.615886, 36.139029 ], [ -83.616265, 36.140284 ], [ -83.616975, 36.142027 ], [ -83.617618, 36.143 ], [ -83.618869, 36.143523 ], [ -83.619863, 36.143729 ], [ -83.6208, 36.143596 ], [ -83.62163, 36.143171 ], [ -83.622761, 36.142327 ], [ -83.624262, 36.140746 ], [ -83.6249, 36.139885 ], [ -83.6262, 36.138985 ], [ -83.6277, 36.138485 ], [ -83.6285, 36.138485 ], [ -83.6294, 36.138985 ], [ -83.6303, 36.140285 ], [ -83.630801, 36.141285 ], [ -83.631501, 36.143185 ], [ -83.632001, 36.143885 ], [ -83.632801, 36.144485 ], [ -83.633401, 36.144785 ], [ -83.634101, 36.144985 ], [ -83.635501, 36.145085 ], [ -83.636001, 36.144985 ], [ -83.637201, 36.144385 ], [ -83.637701, 36.143685 ], [ -83.637901, 36.143185 ], [ -83.638301, 36.141485 ], [ -83.638501, 36.139685 ], [ -83.638701, 36.138785 ], [ -83.639001, 36.136585 ], [ -83.639301, 36.135285 ], [ -83.639696, 36.132485 ], [ -83.6395, 36.130785 ], [ -83.6391, 36.128985 ], [ -83.638938, 36.128592 ], [ -83.6384, 36.127885 ], [ -83.6379, 36.127385 ], [ -83.6364, 36.126585 ], [ -83.6344, 36.125885 ], [ -83.6338, 36.125785 ], [ -83.6316, 36.125585 ], [ -83.6309, 36.125585 ], [ -83.630202, 36.125455 ], [ -83.629399, 36.125086 ], [ -83.628109, 36.123602 ], [ -83.627722, 36.122976 ], [ -83.627776, 36.119798 ], [ -83.627717, 36.118014 ], [ -83.628005, 36.11446 ], [ -83.628063, 36.113443 ], [ -83.628174, 36.111541 ], [ -83.628415, 36.109689 ], [ -83.628707, 36.109246 ], [ -83.628706, 36.109159 ], [ -83.628725, 36.108874 ], [ -83.628672, 36.108412 ], [ -83.628628, 36.108022 ], [ -83.628617, 36.10788 ], [ -83.628595, 36.1073 ], [ -83.628585, 36.107025 ], [ -83.628605, 36.106633 ], [ -83.628681, 36.105994 ], [ -83.628693, 36.105909 ], [ -83.628717, 36.105746 ], [ -83.628774, 36.1055 ], [ -83.628802, 36.105216 ], [ -83.628798, 36.105082 ], [ -83.62892, 36.104532 ], [ -83.63001, 36.101279 ], [ -83.631073, 36.100236 ], [ -83.632115, 36.099781 ], [ -83.636011, 36.098808 ], [ -83.638319, 36.097996 ], [ -83.641323, 36.09707 ], [ -83.643584, 36.096992 ], [ -83.645359, 36.097211 ], [ -83.649915, 36.099004 ], [ -83.65158, 36.099978 ], [ -83.652916, 36.101584 ], [ -83.653924, 36.103163 ], [ -83.654348, 36.10458 ], [ -83.654559, 36.105672 ], [ -83.654252, 36.106757 ], [ -83.65344, 36.107739 ], [ -83.652426, 36.108299 ], [ -83.651112, 36.108769 ], [ -83.649921, 36.109347 ], [ -83.648792, 36.110252 ], [ -83.648104, 36.111526 ], [ -83.647813, 36.112846 ], [ -83.647904, 36.11392 ], [ -83.64879, 36.115715 ], [ -83.650251, 36.11817 ], [ -83.652121, 36.122291 ], [ -83.651522, 36.125151 ], [ -83.652811, 36.125557 ], [ -83.655422, 36.125271 ], [ -83.659496, 36.126208 ], [ -83.659762, 36.12578 ], [ -83.659948, 36.121847 ], [ -83.660364, 36.121011 ], [ -83.665035, 36.121338 ], [ -83.666417, 36.122074 ], [ -83.666774, 36.126657 ], [ -83.667179, 36.12666 ], [ -83.671846, 36.126184 ], [ -83.673681, 36.125495 ], [ -83.674688, 36.124463 ], [ -83.675614, 36.12094 ], [ -83.675702, 36.11972 ], [ -83.675567, 36.117112 ], [ -83.674625, 36.116648 ], [ -83.673994, 36.115403 ], [ -83.672188, 36.110526 ], [ -83.668, 36.10755 ], [ -83.669834, 36.107821 ], [ -83.669015, 36.106035 ], [ -83.668576, 36.103403 ], [ -83.668914, 36.101586 ], [ -83.668095, 36.100152 ], [ -83.663894, 36.096126 ], [ -83.663535, 36.096472 ], [ -83.661174, 36.093736 ], [ -83.659591, 36.09144 ], [ -83.658725, 36.088826 ], [ -83.658902, 36.085415 ], [ -83.659748, 36.083855 ], [ -83.662435, 36.081582 ], [ -83.666623, 36.080111 ], [ -83.669282, 36.079111 ], [ -83.669921, 36.07656 ], [ -83.671113, 36.075796 ], [ -83.671324, 36.073558 ], [ -83.671316, 36.073503 ], [ -83.670165, 36.069718 ], [ -83.66988, 36.068872 ], [ -83.669609, 36.068071 ], [ -83.669342, 36.067255 ], [ -83.667995, 36.067506 ], [ -83.660267, 36.068458 ], [ -83.66036, 36.069761 ], [ -83.658782, 36.070011 ], [ -83.656719, 36.071171 ], [ -83.652234, 36.072866 ], [ -83.652025, 36.073136 ], [ -83.638493, 36.076934 ], [ -83.63841, 36.076759 ], [ -83.633339, 36.078172 ], [ -83.627867, 36.079904 ], [ -83.627664, 36.076245 ], [ -83.633009, 36.073967 ], [ -83.632924, 36.073813 ], [ -83.632775, 36.072523 ], [ -83.631968, 36.071046 ], [ -83.632768, 36.068913 ], [ -83.632128, 36.068071 ], [ -83.632131, 36.066749 ], [ -83.633898, 36.064014 ], [ -83.634225, 36.062233 ], [ -83.637285, 36.062428 ], [ -83.638186, 36.061015 ], [ -83.637704, 36.059613 ], [ -83.637279, 36.055559 ], [ -83.63907, 36.055377 ], [ -83.639511, 36.053102 ], [ -83.642377, 36.051323 ], [ -83.644696, 36.049212 ], [ -83.646268, 36.048414 ], [ -83.649633, 36.047844 ], [ -83.649928, 36.047491 ], [ -83.652103, 36.045631 ], [ -83.654326, 36.044326 ], [ -83.655597, 36.043119 ], [ -83.656897, 36.042337 ], [ -83.656791, 36.041081 ], [ -83.656181, 36.034559 ], [ -83.65668, 36.034579 ], [ -83.658633, 36.036432 ], [ -83.661196, 36.035387 ], [ -83.664097, 36.034887 ], [ -83.664997, 36.036486 ], [ -83.673297, 36.038486 ], [ -83.673398, 36.036386 ], [ -83.674284, 36.035645 ], [ -83.674453, 36.033971 ], [ -83.674541, 36.0331 ], [ -83.674898, 36.029586 ], [ -83.675698, 36.028386 ], [ -83.677496, 36.028068 ], [ -83.677274, 36.025592 ], [ -83.673398, 36.025486 ], [ -83.669979, 36.018314 ], [ -83.669554, 36.014191 ], [ -83.668966, 36.008734 ], [ -83.665836, 36.002316 ], [ -83.665534, 36.001698 ], [ -83.665474, 36.001564 ], [ -83.663176, 35.995193 ], [ -83.662206, 35.992307 ], [ -83.661938, 35.991507 ], [ -83.658261, 35.990669 ], [ -83.655857, 35.990558 ], [ -83.656053, 35.989938 ], [ -83.654169, 35.989814 ], [ -83.651287, 35.989625 ], [ -83.651071, 35.988301 ], [ -83.651061, 35.988291 ], [ -83.65093, 35.987403 ], [ -83.650917, 35.987063 ], [ -83.650947, 35.986481 ], [ -83.650957, 35.986368 ], [ -83.651544, 35.986131 ], [ -83.651601, 35.986108 ], [ -83.657032, 35.986717 ], [ -83.659711, 35.985887 ], [ -83.657978, 35.9805 ], [ -83.655755, 35.974894 ], [ -83.654605, 35.971937 ], [ -83.657002, 35.970241 ], [ -83.662371, 35.966444 ], [ -83.663769, 35.965065 ], [ -83.663852, 35.96445 ], [ -83.667341, 35.961643 ], [ -83.667671, 35.961303 ], [ -83.668002, 35.960517 ], [ -83.668746, 35.959748 ], [ -83.671788, 35.957485 ], [ -83.67232, 35.957118 ], [ -83.672793, 35.956409 ], [ -83.673988, 35.955498 ], [ -83.674772, 35.954723 ], [ -83.675502, 35.954152 ], [ -83.676778, 35.953317 ], [ -83.677771, 35.952889 ], [ -83.680129, 35.952158 ], [ -83.682203, 35.951703 ], [ -83.684121, 35.951175 ], [ -83.68556, 35.950637 ], [ -83.686586, 35.949967 ], [ -83.687073, 35.949335 ], [ -83.687302, 35.948786 ], [ -83.687383, 35.947946 ], [ -83.687363, 35.946452 ], [ -83.687174, 35.945837 ], [ -83.686687, 35.944963 ], [ -83.685579, 35.943535 ], [ -83.684863, 35.942898 ], [ -83.683904, 35.941426 ], [ -83.683087, 35.939784 ], [ -83.682911, 35.938565 ], [ -83.68306, 35.937598 ], [ -83.683627, 35.936846 ], [ -83.684532, 35.936637 ], [ -83.685248, 35.936829 ], [ -83.68614, 35.937197 ], [ -83.686997, 35.93773 ], [ -83.688078, 35.938647 ], [ -83.68876, 35.93946 ], [ -83.690172, 35.940849 ], [ -83.691118, 35.94192 ], [ -83.693364, 35.9447 ], [ -83.694578, 35.943887 ], [ -83.695761, 35.943097 ], [ -83.696586, 35.9422 ], [ -83.697792, 35.939763 ], [ -83.69874, 35.939306 ], [ -83.700499, 35.939262 ], [ -83.702113, 35.938731 ], [ -83.705769, 35.936542 ], [ -83.708078, 35.934119 ], [ -83.712497, 35.932096 ], [ -83.714871, 35.930456 ], [ -83.715954, 35.930138 ], [ -83.718711, 35.9281 ], [ -83.721355, 35.927184 ], [ -83.728563, 35.922734 ], [ -83.732792, 35.919572 ], [ -83.738506, 35.916966 ], [ -83.740297, 35.919566 ], [ -83.74072, 35.920988 ], [ -83.743876, 35.920582 ], [ -83.746601, 35.919512 ], [ -83.751514, 35.918294 ], [ -83.75257, 35.918278 ], [ -83.75449, 35.916614 ], [ -83.75801, 35.914758 ], [ -83.760394, 35.914486 ], [ -83.764266, 35.91327 ], [ -83.767594, 35.911462 ], [ -83.767082, 35.909654 ], [ -83.768058, 35.908262 ], [ -83.770522, 35.906997 ], [ -83.771418, 35.907029 ], [ -83.774202, 35.905285 ], [ -83.773962, 35.903909 ], [ -83.775578, 35.902325 ], [ -83.777306, 35.901461 ], [ -83.777354, 35.900309 ], [ -83.77897, 35.898533 ], [ -83.778858, 35.896613 ], [ -83.780378, 35.895189 ], [ -83.782186, 35.894917 ], [ -83.783722, 35.892613 ], [ -83.791627, 35.889317 ], [ -83.794275, 35.887125 ], [ -83.793568, 35.885858 ], [ -83.793485, 35.885717 ], [ -83.793452, 35.885674 ], [ -83.793404, 35.885597 ], [ -83.79328, 35.885457 ], [ -83.792318, 35.884545 ], [ -83.791899, 35.884273 ], [ -83.791596, 35.884107 ], [ -83.78872, 35.884119 ], [ -83.788115, 35.882904 ], [ -83.788026, 35.882758 ], [ -83.78634, 35.880088 ], [ -83.784512, 35.879578 ], [ -83.784186, 35.879205 ], [ -83.784379, 35.876163 ], [ -83.784391, 35.875273 ], [ -83.784569, 35.87323 ], [ -83.784661, 35.870889 ], [ -83.784323, 35.870089 ], [ -83.784302, 35.868486 ], [ -83.782879, 35.865735 ], [ -83.782374, 35.864852 ], [ -83.781882, 35.863948 ], [ -83.781383, 35.863007 ], [ -83.780888, 35.862078 ], [ -83.780389, 35.861143 ], [ -83.77988, 35.860184 ], [ -83.779405, 35.859291 ], [ -83.781644, 35.860217 ], [ -83.780726, 35.858533 ], [ -83.784286, 35.856686 ], [ -83.783842, 35.856084 ], [ -83.783247, 35.855282 ], [ -83.782892, 35.8548 ], [ -83.78021, 35.855975 ], [ -83.778602, 35.853778 ], [ -83.7781, 35.852785 ], [ -83.777646, 35.851898 ], [ -83.774569, 35.853314 ], [ -83.774387, 35.853331 ], [ -83.773604, 35.852931 ], [ -83.77056, 35.849338 ], [ -83.769008, 35.847506 ], [ -83.772214, 35.845733 ], [ -83.771012, 35.843462 ], [ -83.769984, 35.841519 ], [ -83.764022, 35.830257 ], [ -83.761376, 35.825255 ], [ -83.757287, 35.817528 ], [ -83.755968, 35.818571 ], [ -83.75406, 35.815475 ], [ -83.75159, 35.811472 ], [ -83.751315, 35.811028 ], [ -83.749895, 35.808725 ], [ -83.748124, 35.808621 ], [ -83.746998, 35.809392 ], [ -83.743998, 35.807848 ], [ -83.742978, 35.809031 ], [ -83.742528, 35.810773 ], [ -83.740509, 35.810483 ], [ -83.740289, 35.811249 ], [ -83.73877, 35.811534 ], [ -83.739503, 35.808292 ], [ -83.739518, 35.806815 ], [ -83.742206, 35.805064 ], [ -83.746127, 35.802134 ], [ -83.746258, 35.802029 ], [ -83.746762, 35.801281 ], [ -83.747317, 35.798398 ], [ -83.74337, 35.790539 ], [ -83.740369, 35.784828 ], [ -83.739099, 35.782329 ], [ -83.734186, 35.772657 ], [ -83.731754, 35.76787 ], [ -83.731987, 35.766361 ], [ -83.73105, 35.764372 ], [ -83.729723, 35.763754 ], [ -83.728684, 35.762418 ], [ -83.726148, 35.763369 ], [ -83.726042, 35.762796 ], [ -83.727931, 35.760978 ], [ -83.728399, 35.759575 ], [ -83.73003, 35.758564 ], [ -83.729604, 35.75652 ], [ -83.729968, 35.754302 ], [ -83.728769, 35.753684 ], [ -83.728222, 35.752584 ], [ -83.726288, 35.752602 ], [ -83.724349, 35.753151 ], [ -83.724177, 35.751875 ], [ -83.724588, 35.749808 ], [ -83.721813, 35.748114 ], [ -83.718914, 35.747726 ], [ -83.717945, 35.741162 ], [ -83.716671, 35.730682 ], [ -83.716462, 35.729035 ], [ -83.715626, 35.72829 ], [ -83.714283, 35.727445 ], [ -83.712961, 35.726819 ], [ -83.709887, 35.727091 ], [ -83.708951, 35.727238 ], [ -83.708251, 35.72724 ], [ -83.707807, 35.726685 ], [ -83.707775, 35.725895 ], [ -83.708395, 35.725112 ], [ -83.709033, 35.724144 ], [ -83.708795, 35.723387 ], [ -83.708138, 35.720664 ], [ -83.707398, 35.720214 ], [ -83.705772, 35.719984 ], [ -83.705178, 35.719389 ], [ -83.704262, 35.719649 ], [ -83.702971, 35.719482 ], [ -83.701985, 35.719444 ], [ -83.701344, 35.719276 ], [ -83.701431, 35.718091 ], [ -83.701979, 35.716478 ], [ -83.701985, 35.716017 ], [ -83.703213, 35.713042 ], [ -83.70525, 35.71158 ], [ -83.702152, 35.709217 ], [ -83.700407, 35.709059 ], [ -83.698652, 35.708112 ], [ -83.69672, 35.708132 ], [ -83.695369, 35.707506 ], [ -83.693922, 35.708274 ], [ -83.691351, 35.708319 ], [ -83.690092, 35.709111 ], [ -83.687532, 35.710051 ], [ -83.682831, 35.709725 ], [ -83.682161, 35.709772 ], [ -83.680502, 35.707865 ], [ -83.679947, 35.706512 ], [ -83.682106, 35.702511 ], [ -83.682507, 35.700689 ], [ -83.681704, 35.698463 ], [ -83.680846, 35.697726 ], [ -83.681278, 35.696807 ], [ -83.679833, 35.693393 ], [ -83.67987, 35.691605 ], [ -83.679732, 35.691156 ], [ -83.679138, 35.688353 ], [ -83.674272, 35.685497 ], [ -83.672381, 35.685548 ], [ -83.667733, 35.686564 ], [ -83.66545, 35.68772 ], [ -83.662814, 35.690618 ], [ -83.662779, 35.679598 ], [ -83.662767, 35.674779 ], [ -83.662769, 35.674507 ], [ -83.662805, 35.669558 ], [ -83.662814, 35.663347 ], [ -83.662817, 35.6283 ], [ -83.662818, 35.62509 ], [ -83.663291, 35.61681 ], [ -83.663223, 35.605865 ], [ -83.662999, 35.569468 ], [ -83.660827, 35.568344 ], [ -83.657526, 35.569228 ], [ -83.656014, 35.570013 ], [ -83.65381, 35.569465 ], [ -83.653204, 35.568414 ], [ -83.648637, 35.567573 ], [ -83.64618, 35.566709 ], [ -83.64536, 35.566023 ], [ -83.639962, 35.566203 ], [ -83.639569, 35.566641 ], [ -83.636096, 35.567712 ], [ -83.634899, 35.568535 ], [ -83.634105, 35.570397 ], [ -83.633526, 35.570693 ], [ -83.629468, 35.568165 ], [ -83.626374, 35.569361 ], [ -83.624888, 35.57069 ], [ -83.623472, 35.571086 ], [ -83.621409, 35.572648 ], [ -83.618719, 35.572232 ], [ -83.617899, 35.573018 ], [ -83.616097, 35.573482 ], [ -83.614929, 35.574695 ], [ -83.613497, 35.575129 ], [ -83.611098, 35.576954 ], [ -83.608498, 35.580009 ], [ -83.601774, 35.578919 ], [ -83.599816, 35.577195 ], [ -83.597925, 35.574801 ], [ -83.596393, 35.575087 ], [ -83.594597, 35.573473 ], [ -83.591778, 35.571633 ], [ -83.591253, 35.569058 ], [ -83.589821, 35.568575 ], [ -83.587561, 35.567026 ], [ -83.586613, 35.564236 ], [ -83.585987, 35.563445 ], [ -83.584374, 35.562698 ], [ -83.581153, 35.562814 ], [ -83.579143, 35.56382 ], [ -83.577954, 35.563562 ], [ -83.57478, 35.563969 ], [ -83.573255, 35.565189 ], [ -83.571561, 35.565343 ], [ -83.56953, 35.564316 ], [ -83.568064, 35.564064 ], [ -83.566216, 35.564443 ], [ -83.564979, 35.566091 ], [ -83.562008, 35.565163 ], [ -83.559292, 35.564613 ], [ -83.55626, 35.564998 ], [ -83.552206, 35.56418 ], [ -83.551171, 35.563493 ], [ -83.547836, 35.564196 ], [ -83.544973, 35.565256 ], [ -83.54231, 35.565234 ], [ -83.540717, 35.565865 ], [ -83.536004, 35.564722 ], [ -83.530304, 35.564512 ], [ -83.528731, 35.564979 ], [ -83.52629, 35.564808 ], [ -83.521974, 35.565593 ], [ -83.519958, 35.564988 ], [ -83.518096, 35.56307 ], [ -83.516234, 35.562416 ], [ -83.513229, 35.56308 ], [ -83.510567, 35.562711 ], [ -83.507878, 35.561974 ], [ -83.504262, 35.562055 ], [ -83.498544, 35.562888 ], [ -83.495071, 35.565857 ], [ -83.493317, 35.56683 ], [ -83.49013, 35.56704 ], [ -83.485834, 35.56819 ], [ -83.482644, 35.572548 ], [ -83.481805, 35.574828 ], [ -83.47974, 35.57826 ], [ -83.478631, 35.57919 ], [ -83.47916, 35.583031 ], [ -83.478588, 35.583542 ], [ -83.473963, 35.5854 ], [ -83.47237, 35.587158 ], [ -83.472499, 35.589153 ], [ -83.471296, 35.590268 ], [ -83.466373, 35.591687 ], [ -83.462692, 35.59257 ], [ -83.462073, 35.593924 ], [ -83.461452, 35.595286 ], [ -83.45914, 35.595844 ], [ -83.456589, 35.597194 ], [ -83.455305, 35.598847 ], [ -83.455011, 35.602022 ], [ -83.452905, 35.60272 ], [ -83.451254, 35.60394 ], [ -83.450767, 35.60633 ], [ -83.447034, 35.608632 ], [ -83.446415, 35.609368 ], [ -83.445676, 35.611747 ], [ -83.441263, 35.611753 ], [ -83.439803, 35.61122 ], [ -83.435142, 35.610687 ], [ -83.432303, 35.60999 ], [ -83.430108, 35.610164 ], [ -83.428003, 35.610708 ], [ -83.425925, 35.611083 ], [ -83.422038, 35.611049 ], [ -83.420726, 35.611786 ], [ -83.420268, 35.613417 ], [ -83.416917, 35.614307 ], [ -83.415182, 35.614455 ], [ -83.412046, 35.616267 ], [ -83.411609, 35.617014 ], [ -83.409006, 35.618249 ], [ -83.406522, 35.61999 ], [ -83.403461, 35.621341 ], [ -83.399276, 35.621862 ], [ -83.396282, 35.622806 ], [ -83.39295, 35.624859 ], [ -83.390667, 35.628151 ], [ -83.388713, 35.632392 ], [ -83.388726, 35.633622 ], [ -83.382286, 35.634515 ], [ -83.377926, 35.634645 ], [ -83.376612, 35.636847 ], [ -83.371828, 35.639163 ], [ -83.371269, 35.638378 ], [ -83.368295, 35.637769 ], [ -83.367709, 35.637957 ], [ -83.366163, 35.640924 ], [ -83.363776, 35.642919 ], [ -83.362605, 35.643238 ], [ -83.360628, 35.645706 ], [ -83.358246, 35.647075 ], [ -83.358241, 35.648843 ], [ -83.356102, 35.650419 ], [ -83.355753, 35.652168 ], [ -83.356036, 35.654151 ], [ -83.354522, 35.65541 ], [ -83.352841, 35.658717 ], [ -83.350985, 35.660449 ], [ -83.346259, 35.661445 ], [ -83.345007, 35.661209 ], [ -83.342766, 35.662929 ], [ -83.341932, 35.664061 ], [ -83.340782, 35.664578 ], [ -83.339374, 35.663589 ], [ -83.338365, 35.66376 ], [ -83.335437, 35.665508 ], [ -83.334656, 35.665662 ], [ -83.332138, 35.664547 ], [ -83.330468, 35.664542 ], [ -83.329566, 35.663729 ], [ -83.327701, 35.663763 ], [ -83.324678, 35.663081 ], [ -83.321616, 35.663054 ], [ -83.319818, 35.660946 ], [ -83.315341, 35.657018 ], [ -83.313853, 35.656266 ], [ -83.312379, 35.654706 ], [ -83.310945, 35.654491 ], [ -83.309713, 35.654958 ], [ -83.309034, 35.656029 ], [ -83.306506, 35.65548 ], [ -83.303555, 35.655865 ], [ -83.302256, 35.656584 ], [ -83.298567, 35.657134 ], [ -83.296211, 35.65888 ], [ -83.293497, 35.662056 ], [ -83.293672, 35.664917 ], [ -83.291928, 35.666011 ], [ -83.291133, 35.669307 ], [ -83.290951, 35.672602 ], [ -83.288843, 35.674481 ], [ -83.284252, 35.674436 ], [ -83.282797, 35.675205 ], [ -83.281342, 35.677699 ], [ -83.277848, 35.678522 ], [ -83.274467, 35.679076 ], [ -83.273039, 35.680531 ], [ -83.272076, 35.682327 ], [ -83.271166, 35.683168 ], [ -83.271044, 35.686316 ], [ -83.27068, 35.686827 ], [ -83.266908, 35.688649 ], [ -83.263305, 35.688516 ], [ -83.261076, 35.689773 ], [ -83.259291, 35.690371 ], [ -83.258152, 35.692106 ], [ -83.257734, 35.69382 ], [ -83.255961, 35.69499 ], [ -83.254439, 35.695308 ], [ -83.254822, 35.697659 ], [ -83.255744, 35.698994 ], [ -83.255265, 35.700428 ], [ -83.256414, 35.703862 ], [ -83.257417, 35.705225 ], [ -83.255409, 35.706218 ], [ -83.251635, 35.708875 ], [ -83.251655, 35.709545 ], [ -83.25349, 35.712153 ], [ -83.253585, 35.714213 ], [ -83.255343, 35.715084 ], [ -83.254142, 35.717534 ], [ -83.250375, 35.720421 ], [ -83.243384, 35.722437 ], [ -83.242751, 35.723058 ], [ -83.240827, 35.726856 ], [ -83.232775, 35.725958 ], [ -83.228201, 35.725811 ], [ -83.223182, 35.725901 ], [ -83.221518, 35.726226 ], [ -83.220056, 35.725957 ], [ -83.217644, 35.725865 ], [ -83.215534, 35.724481 ], [ -83.214196, 35.724113 ], [ -83.211182, 35.724531 ], [ -83.207544, 35.726141 ], [ -83.204264, 35.726016 ], [ -83.200834, 35.725055 ], [ -83.1976, 35.725286 ], [ -83.195572, 35.726962 ], [ -83.193733, 35.727929 ], [ -83.191786, 35.728429 ], [ -83.18895, 35.729655 ], [ -83.187131, 35.729715 ], [ -83.185137, 35.730753 ], [ -83.183439, 35.734654 ], [ -83.181363, 35.736824 ], [ -83.18075, 35.739038 ], [ -83.178095, 35.742438 ], [ -83.177812, 35.744345 ], [ -83.174962, 35.745136 ], [ -83.170285, 35.74603 ], [ -83.168323, 35.750758 ], [ -83.166691, 35.751879 ], [ -83.164743, 35.754362 ], [ -83.16539, 35.757032 ], [ -83.165059, 35.759504 ], [ -83.164089, 35.760333 ], [ -83.162625, 35.762547 ], [ -83.159936, 35.764409 ], [ -83.158277, 35.765035 ], [ -83.154422, 35.76431 ], [ -83.151483, 35.764627 ], [ -83.149029, 35.763956 ], [ -83.147405, 35.764439 ], [ -83.14644, 35.765384 ], [ -83.143778, 35.765284 ], [ -83.141897, 35.765641 ], [ -83.136248, 35.765222 ], [ -83.13339, 35.767077 ], [ -83.13014, 35.767406 ], [ -83.127673, 35.768058 ], [ -83.124872, 35.767167 ], [ -83.121917, 35.766969 ], [ -83.120608, 35.766431 ], [ -83.118921, 35.76934 ], [ -83.116917, 35.770087 ], [ -83.115191, 35.770054 ], [ -83.112394, 35.770913 ], [ -83.111121, 35.770653 ], [ -83.10959, 35.771376 ], [ -83.109186, 35.77215 ], [ -83.107837, 35.77209 ], [ -83.106402, 35.773151 ], [ -83.104703, 35.773533 ], [ -83.104711, 35.774322 ], [ -83.102123, 35.775114 ], [ -83.099895, 35.774967 ], [ -83.099429, 35.775097 ], [ -83.098057, 35.775698 ], [ -83.09793, 35.775756 ], [ -83.096754, 35.776351 ], [ -83.095569, 35.777722 ], [ -83.09458, 35.7796 ], [ -83.093488, 35.779689 ], [ -83.089302, 35.781491 ], [ -83.087597, 35.783679 ], [ -83.085945, 35.784129 ], [ -83.08544, 35.785674 ], [ -83.083027, 35.787048 ], [ -83.081064, 35.787087 ], [ -83.078745, 35.789587 ], [ -83.076136, 35.789576 ], [ -83.073918, 35.790055 ], [ -83.072048, 35.78864 ], [ -83.06915, 35.788078 ], [ -83.066524, 35.787119 ], [ -83.064058, 35.786931 ], [ -83.061373, 35.787189 ], [ -83.059864, 35.787907 ], [ -83.052821, 35.789705 ], [ -83.051018, 35.788638 ], [ -83.048692, 35.787929 ], [ -83.046088, 35.785971 ], [ -83.043091, 35.785496 ], [ -83.040007, 35.786637 ], [ -83.037593, 35.786779 ], [ -83.036487, 35.787488 ], [ -83.033858, 35.786971 ], [ -83.031377, 35.785267 ], [ -83.0299, 35.78558 ], [ -83.027291, 35.784843 ], [ -83.025065, 35.783628 ], [ -83.023886, 35.78342 ], [ -83.020678, 35.780578 ], [ -83.019457, 35.780523 ], [ -83.01616, 35.782043 ], [ -83.01376, 35.781076 ], [ -83.011247, 35.778899 ], [ -83.005988, 35.778496 ], [ -83.00493, 35.777457 ], [ -83.003535, 35.776962 ], [ -83.003165, 35.775863 ], [ -83.001763, 35.774994 ], [ -83.001164, 35.773719 ], [ -82.999591, 35.773798 ], [ -82.997844, 35.773203 ], [ -82.995786, 35.773098 ], [ -82.992348, 35.773814 ], [ -82.989519, 35.775973 ], [ -82.987504, 35.776295 ], [ -82.986963, 35.776964 ], [ -82.984057, 35.778029 ], [ -82.981197, 35.780236 ], [ -82.980204, 35.781814 ], [ -82.977699, 35.783276 ], [ -82.976811, 35.784646 ], [ -82.974722, 35.786102 ], [ -82.974268, 35.787 ], [ -82.971842, 35.788193 ], [ -82.969585, 35.789691 ], [ -82.966742, 35.78986 ], [ -82.964466, 35.790424 ], [ -82.963025, 35.789994 ], [ -82.961754, 35.790959 ], [ -82.961921, 35.79224 ], [ -82.962713, 35.793363 ], [ -82.962847, 35.795469 ], [ -82.961827, 35.796871 ], [ -82.962038, 35.799382 ], [ -82.961556, 35.800824 ], [ -82.959224, 35.802719 ], [ -82.957968, 35.805567 ], [ -82.956279, 35.807758 ], [ -82.95599, 35.809284 ], [ -82.953755, 35.812612 ], [ -82.953911, 35.813807 ], [ -82.952964, 35.814634 ], [ -82.951764, 35.816608 ], [ -82.949698, 35.816335 ], [ -82.948138, 35.817969 ], [ -82.948595, 35.819339 ], [ -82.946902, 35.821984 ], [ -82.946966, 35.822935 ], [ -82.94563, 35.824615 ], [ -82.943824, 35.825586 ], [ -82.938809, 35.825901 ], [ -82.937814, 35.825316 ], [ -82.936162, 35.82541 ], [ -82.934712, 35.828986 ], [ -82.93347, 35.830307 ], [ -82.934029, 35.83235 ], [ -82.932908, 35.833468 ], [ -82.933132, 35.83517 ], [ -82.93407, 35.836662 ], [ -82.931941, 35.837526 ], [ -82.927251, 35.838607 ], [ -82.920211, 35.839385 ], [ -82.919448, 35.84073 ], [ -82.91657, 35.841486 ], [ -82.917335, 35.84437 ], [ -82.918356, 35.845377 ], [ -82.919923, 35.848295 ], [ -82.919909, 35.849528 ], [ -82.920973, 35.851282 ], [ -82.919919, 35.852045 ], [ -82.919888, 35.854119 ], [ -82.920271, 35.85615 ], [ -82.91977, 35.857604 ], [ -82.918224, 35.859493 ], [ -82.920231, 35.861098 ], [ -82.921432, 35.863105 ], [ -82.921054, 35.865372 ], [ -82.920831, 35.868178 ], [ -82.918139, 35.868798 ], [ -82.914949, 35.868694 ], [ -82.912967, 35.868288 ], [ -82.910774, 35.868573 ], [ -82.906411, 35.87025 ], [ -82.905285, 35.87122 ], [ -82.901221, 35.87268 ], [ -82.899899, 35.873988 ], [ -82.899438, 35.876183 ], [ -82.896776, 35.878257 ], [ -82.896081, 35.879544 ], [ -82.896403, 35.880499 ], [ -82.898583, 35.881264 ], [ -82.903627, 35.880458 ], [ -82.905331, 35.882697 ], [ -82.906825, 35.883908 ], [ -82.906474, 35.885776 ], [ -82.902658, 35.888946 ], [ -82.902191, 35.89117 ], [ -82.901057, 35.892483 ], [ -82.902764, 35.893995 ], [ -82.902784, 35.894912 ], [ -82.904681, 35.897017 ], [ -82.905017, 35.899555 ], [ -82.905846, 35.902195 ], [ -82.906293, 35.903034 ], [ -82.907974, 35.903952 ], [ -82.908283, 35.905011 ], [ -82.90698, 35.907577 ], [ -82.908411, 35.909259 ], [ -82.908032, 35.911314 ], [ -82.909383, 35.910896 ], [ -82.910389, 35.91254 ], [ -82.913003, 35.913639 ], [ -82.914366, 35.915232 ], [ -82.911678, 35.916666 ], [ -82.912289, 35.917877 ], [ -82.911778, 35.91999 ], [ -82.91307, 35.920388 ], [ -82.913549, 35.921671 ], [ -82.913581, 35.924341 ], [ -82.916168, 35.924144 ], [ -82.919491, 35.926095 ], [ -82.920491, 35.927341 ], [ -82.919835, 35.928886 ], [ -82.91639, 35.929023 ], [ -82.91385, 35.929654 ], [ -82.912046, 35.92956 ], [ -82.911675, 35.928572 ], [ -82.910332, 35.927401 ], [ -82.907797, 35.92706 ], [ -82.906602, 35.926412 ], [ -82.904292, 35.926153 ], [ -82.90182, 35.92696 ], [ -82.901522, 35.927877 ], [ -82.900245, 35.9283 ], [ -82.900292, 35.929327 ], [ -82.899049, 35.929613 ], [ -82.899609, 35.931316 ], [ -82.899296, 35.932426 ], [ -82.900425, 35.933206 ], [ -82.900344, 35.934294 ], [ -82.901513, 35.935031 ], [ -82.901309, 35.936414 ], [ -82.901784, 35.937852 ], [ -82.899282, 35.94302 ], [ -82.898855, 35.943917 ], [ -82.898499, 35.944609 ], [ -82.898317, 35.944967 ], [ -82.895669, 35.944628 ], [ -82.892662, 35.945003 ], [ -82.890325, 35.946614 ], [ -82.889094, 35.948246 ], [ -82.887705, 35.948714 ], [ -82.885053, 35.948804 ], [ -82.883534, 35.949519 ], [ -82.879498, 35.950247 ], [ -82.878467, 35.95012 ], [ -82.876448, 35.951484 ], [ -82.874837, 35.952031 ], [ -82.874493, 35.952768 ], [ -82.870449, 35.951701 ], [ -82.869512, 35.950504 ], [ -82.867518, 35.950441 ], [ -82.866453, 35.949527 ], [ -82.864554, 35.949055 ], [ -82.860312, 35.947452 ], [ -82.85892, 35.947906 ], [ -82.856251, 35.948032 ], [ -82.853017, 35.94882 ], [ -82.85203, 35.949329 ], [ -82.850277, 35.94853 ], [ -82.849187, 35.946928 ], [ -82.847049, 35.945915 ], [ -82.846037, 35.946169 ], [ -82.844613, 35.944312 ], [ -82.844454, 35.94196 ], [ -82.841479, 35.941901 ], [ -82.839338, 35.939464 ], [ -82.838831, 35.937447 ], [ -82.83789, 35.93703 ], [ -82.835709, 35.936952 ], [ -82.833472, 35.935598 ], [ -82.832406, 35.932813 ], [ -82.830959, 35.932589 ], [ -82.829386, 35.932924 ], [ -82.828235, 35.932541 ], [ -82.827412, 35.930942 ], [ -82.825895, 35.92967 ], [ -82.82652, 35.927739 ], [ -82.823551, 35.924859 ], [ -82.822797, 35.922862 ], [ -82.821948, 35.92183 ], [ -82.820318, 35.922031 ], [ -82.819058, 35.922916 ], [ -82.815818, 35.924025 ], [ -82.815181, 35.925484 ], [ -82.812646, 35.925483 ], [ -82.810327, 35.926985 ], [ -82.808857, 35.926849 ], [ -82.805085, 35.927137 ], [ -82.802675, 35.929571 ], [ -82.803543, 35.930993 ], [ -82.804755, 35.933986 ], [ -82.80591, 35.935688 ], [ -82.806305, 35.937377 ], [ -82.803936, 35.938772 ], [ -82.803989, 35.939947 ], [ -82.802067, 35.941328 ], [ -82.799727, 35.944661 ], [ -82.796858, 35.94639 ], [ -82.794828, 35.94673 ], [ -82.793714, 35.948261 ], [ -82.792147, 35.949583 ], [ -82.791288, 35.951034 ], [ -82.789795, 35.951778 ], [ -82.788689, 35.951481 ], [ -82.78735, 35.952496 ], [ -82.786977, 35.955924 ], [ -82.78612, 35.956834 ], [ -82.785267, 35.959331 ], [ -82.785258, 35.961953 ], [ -82.784359, 35.963452 ], [ -82.782588, 35.965148 ], [ -82.77872, 35.966399 ], [ -82.77739, 35.967738 ], [ -82.776888, 35.96965 ], [ -82.776006, 35.97135 ], [ -82.775038, 35.971971 ], [ -82.776505, 35.974058 ], [ -82.778221, 35.974664 ], [ -82.780916, 35.974126 ], [ -82.782621, 35.974858 ], [ -82.78569, 35.977841 ], [ -82.784499, 35.982374 ], [ -82.785202, 35.984228 ], [ -82.785041, 35.987096 ], [ -82.785167, 35.988685 ], [ -82.782622, 35.989815 ], [ -82.780904, 35.990898 ], [ -82.780554, 35.99179 ], [ -82.779315, 35.992205 ], [ -82.778766, 35.994716 ], [ -82.778066, 35.995862 ], [ -82.778143, 35.997083 ], [ -82.777376, 35.998638 ], [ -82.77615, 35.998678 ], [ -82.77567, 36.001068 ], [ -82.774895, 36.000795 ], [ -82.772749, 36.0006 ], [ -82.771052, 36.0015 ], [ -82.766426, 36.002669 ], [ -82.76257, 36.004844 ], [ -82.759987, 36.005073 ], [ -82.758662, 36.004111 ], [ -82.754442, 36.00439 ], [ -82.75248, 36.006219 ], [ -82.750221, 36.005981 ], [ -82.750882, 36.00869 ], [ -82.749148, 36.009726 ], [ -82.74691, 36.009552 ], [ -82.745206, 36.009783 ], [ -82.743394, 36.010828 ], [ -82.742543, 36.012361 ], [ -82.740852, 36.012005 ], [ -82.739562, 36.013165 ], [ -82.739576, 36.014709 ], [ -82.7375, 36.015331 ], [ -82.734213, 36.01531 ], [ -82.731962, 36.017515 ], [ -82.730461, 36.017598 ], [ -82.728406, 36.01833 ], [ -82.725707, 36.018089 ], [ -82.72334, 36.019194 ], [ -82.719879, 36.021575 ], [ -82.716322, 36.022509 ], [ -82.715341, 36.023554 ], [ -82.715721, 36.025625 ], [ -82.715289, 36.028537 ], [ -82.712415, 36.029071 ], [ -82.710244, 36.029885 ], [ -82.70864, 36.029721 ], [ -82.704826, 36.031743 ], [ -82.701796, 36.03265 ], [ -82.701228, 36.034359 ], [ -82.697954, 36.034409 ], [ -82.697224, 36.035783 ], [ -82.689586, 36.038157 ], [ -82.687557, 36.039723 ], [ -82.685606, 36.042114 ], [ -82.684879, 36.04485 ], [ -82.684073, 36.045795 ], [ -82.681455, 36.046311 ], [ -82.679392, 36.048251 ], [ -82.678532, 36.048603 ], [ -82.674851, 36.048833 ], [ -82.673106, 36.050097 ], [ -82.672653, 36.051344 ], [ -82.671225, 36.052009 ], [ -82.670406, 36.053009 ], [ -82.666684, 36.052926 ], [ -82.664654, 36.054129 ], [ -82.66033, 36.055991 ], [ -82.659268, 36.057117 ], [ -82.656554, 36.056381 ], [ -82.654944, 36.056281 ], [ -82.651533, 36.057368 ], [ -82.647154, 36.059883 ], [ -82.646524, 36.060768 ], [ -82.643904, 36.06263 ], [ -82.640994, 36.063662 ], [ -82.63723, 36.06582 ], [ -82.632608, 36.065911 ], [ -82.632332, 36.064307 ], [ -82.626433, 36.060744 ], [ -82.625168, 36.060386 ], [ -82.623184, 36.058749 ], [ -82.622614, 36.057705 ], [ -82.619968, 36.057333 ], [ -82.617954, 36.05591 ], [ -82.617042, 36.053768 ], [ -82.61786, 36.052037 ], [ -82.617986, 36.049087 ], [ -82.618546, 36.047147 ], [ -82.616192, 36.046845 ], [ -82.615115, 36.046313 ], [ -82.613478, 36.046594 ], [ -82.611075, 36.044986 ], [ -82.609582, 36.044895 ], [ -82.608163, 36.044013 ], [ -82.607325, 36.042569 ], [ -82.605524, 36.040723 ], [ -82.60298, 36.039677 ], [ -82.601674, 36.038225 ], [ -82.601659, 36.036054 ], [ -82.596771, 36.03677 ], [ -82.593209, 36.036207 ], [ -82.591447, 36.035568 ], [ -82.590725, 36.033305 ], [ -82.590995, 36.031574 ], [ -82.594898, 36.029643 ], [ -82.598299, 36.027445 ], [ -82.599982, 36.025598 ], [ -82.602923, 36.023371 ], [ -82.603741, 36.021514 ], [ -82.602812, 36.017931 ], [ -82.607552, 36.015951 ], [ -82.608187, 36.015055 ], [ -82.608537, 36.012742 ], [ -82.609414, 36.010867 ], [ -82.608452, 36.010645 ], [ -82.606876, 36.01043 ], [ -82.607292, 36.009907 ], [ -82.607792, 36.009709 ], [ -82.608062, 36.009384 ], [ -82.608587, 36.008286 ], [ -82.608843, 36.008035 ], [ -82.609435, 36.007775 ], [ -82.609887, 36.007392 ], [ -82.610549, 36.007268 ], [ -82.61107, 36.006702 ], [ -82.611857, 36.006293 ], [ -82.612328, 36.005324 ], [ -82.612917, 36.004765 ], [ -82.613825, 36.004917 ], [ -82.614125, 36.004354 ], [ -82.614418, 36.003033 ], [ -82.614928, 36.002046 ], [ -82.615177, 36.000826 ], [ -82.615059, 36.000103 ], [ -82.614729, 35.999073 ], [ -82.613707, 35.997183 ], [ -82.613554, 35.996727 ], [ -82.612998, 35.995631 ], [ -82.612871, 35.99507 ], [ -82.612897, 35.993606 ], [ -82.612627, 35.993458 ], [ -82.611471, 35.993203 ], [ -82.609645, 35.992917 ], [ -82.60853, 35.992637 ], [ -82.607128, 35.99236 ], [ -82.606694, 35.991875 ], [ -82.606517, 35.991326 ], [ -82.605808, 35.990168 ], [ -82.605536, 35.989514 ], [ -82.604631, 35.988034 ], [ -82.604413, 35.987463 ], [ -82.604667, 35.986672 ], [ -82.605083, 35.986127 ], [ -82.605961, 35.985474 ], [ -82.60639, 35.98501 ], [ -82.607002, 35.983959 ], [ -82.607836, 35.981348 ], [ -82.607994, 35.980124 ], [ -82.608301, 35.979279 ], [ -82.60902, 35.978514 ], [ -82.609256, 35.97803 ], [ -82.609286, 35.977186 ], [ -82.609412, 35.976769 ], [ -82.610447, 35.97527 ], [ -82.610939, 35.97438 ], [ -82.611325, 35.973098 ], [ -82.611261, 35.972507 ], [ -82.611522, 35.971245 ], [ -82.611457, 35.970006 ], [ -82.610779, 35.968252 ], [ -82.610703, 35.967203 ], [ -82.610117, 35.966995 ], [ -82.609145, 35.966947 ], [ -82.608667, 35.96683 ], [ -82.608038, 35.96602 ], [ -82.607518, 35.965948 ], [ -82.606513, 35.966394 ], [ -82.605846, 35.966511 ], [ -82.604831, 35.966514 ], [ -82.603593, 35.966123 ], [ -82.601989, 35.965239 ], [ -82.600709, 35.964705 ], [ -82.600106, 35.964594 ], [ -82.599254, 35.96476 ], [ -82.598237, 35.96507 ], [ -82.596696, 35.965094 ], [ -82.595344, 35.965393 ], [ -82.594306, 35.965757 ], [ -82.592376, 35.966262 ], [ -82.59182, 35.966291 ], [ -82.590042, 35.965954 ], [ -82.589509, 35.965727 ], [ -82.588642, 35.965561 ], [ -82.587134, 35.965621 ], [ -82.586162, 35.965591 ], [ -82.583834, 35.965268 ], [ -82.58241, 35.965229 ], [ -82.581549, 35.965302 ], [ -82.580462, 35.965248 ], [ -82.579068, 35.964685 ], [ -82.577958, 35.964448 ], [ -82.577798, 35.964334 ], [ -82.577327, 35.963479 ], [ -82.577096, 35.962602 ], [ -82.576817, 35.960965 ], [ -82.576813, 35.959908 ], [ -82.576685, 35.959286 ], [ -82.576384, 35.958843 ], [ -82.57549, 35.958505 ], [ -82.573009, 35.957917 ], [ -82.571774, 35.957887 ], [ -82.570218, 35.957568 ], [ -82.569554, 35.957231 ], [ -82.569067, 35.956837 ], [ -82.568201, 35.955833 ], [ -82.567524, 35.955557 ], [ -82.565519, 35.955199 ], [ -82.565059, 35.955281 ], [ -82.564481, 35.955609 ], [ -82.563641, 35.955573 ], [ -82.562073, 35.954894 ], [ -82.561274, 35.9548 ], [ -82.560478, 35.954835 ], [ -82.560349, 35.954796 ], [ -82.56021, 35.954753 ], [ -82.558587, 35.95389 ], [ -82.556493, 35.955703 ], [ -82.554771, 35.958127 ], [ -82.553686, 35.959042 ], [ -82.552871, 35.960517 ], [ -82.550333, 35.962446 ], [ -82.549975, 35.96384 ], [ -82.544716, 35.965433 ], [ -82.543113, 35.967361 ], [ -82.539726, 35.969085 ], [ -82.536728, 35.969329 ], [ -82.534047, 35.97029 ], [ -82.530963, 35.972136 ], [ -82.527063, 35.972254 ], [ -82.525105, 35.971046 ], [ -82.522904, 35.971976 ], [ -82.522121, 35.974012 ], [ -82.517233, 35.975769 ], [ -82.515717, 35.9759 ], [ -82.513187, 35.9753 ], [ -82.512849, 35.975301 ], [ -82.512642, 35.975336 ], [ -82.512512, 35.975395 ], [ -82.512348, 35.975524 ], [ -82.512251, 35.975604 ], [ -82.512176, 35.975681 ], [ -82.512109, 35.975768 ], [ -82.512055, 35.975856 ], [ -82.511999, 35.976044 ], [ -82.511897, 35.976191 ], [ -82.511763, 35.976371 ], [ -82.511624, 35.976566 ], [ -82.509268, 35.977467 ], [ -82.505184, 35.977547 ], [ -82.504018, 35.979149 ], [ -82.503809, 35.981185 ], [ -82.503235, 35.982202 ], [ -82.500795, 35.982103 ], [ -82.497846, 35.984354 ], [ -82.496367, 35.985047 ], [ -82.492369, 35.988208 ], [ -82.49103, 35.989048 ], [ -82.490221, 35.989714 ], [ -82.489268, 35.990663 ], [ -82.488652, 35.991042 ], [ -82.486626, 35.991915 ], [ -82.48417, 35.993301 ], [ -82.483782, 35.993865 ], [ -82.483809, 35.994943 ], [ -82.483703, 35.99555 ], [ -82.48319, 35.996432 ], [ -82.482284, 35.997396 ], [ -82.481591, 35.998029 ], [ -82.480922, 35.998375 ], [ -82.48014, 35.998582 ], [ -82.479298, 35.998616 ], [ -82.476929, 35.998335 ], [ -82.476026, 35.998183 ], [ -82.475748, 35.998403 ], [ -82.474575, 35.999683 ], [ -82.47408, 36.000091 ], [ -82.472861, 36.000912 ], [ -82.471915, 36.001429 ], [ -82.470793, 36.0026 ], [ -82.470245, 36.002979 ], [ -82.469448, 36.003276 ], [ -82.468568, 36.003491 ], [ -82.467703, 36.004365 ], [ -82.466824, 36.004986 ], [ -82.463951, 36.006536 ], [ -82.462595, 36.007151 ], [ -82.460975, 36.007697 ], [ -82.460583, 36.007724 ], [ -82.459161, 36.009832 ], [ -82.458048, 36.011555 ], [ -82.452641, 36.019464 ], [ -82.45024, 36.02307 ], [ -82.447635, 36.02702 ], [ -82.443415, 36.033218 ], [ -82.440984, 36.036789 ], [ -82.439803, 36.038553 ], [ -82.436759, 36.043133 ], [ -82.432737, 36.049061 ], [ -82.422234, 36.064632 ], [ -82.416999, 36.072446 ], [ -82.416911, 36.072577 ], [ -82.416738, 36.072827 ], [ -82.416601, 36.073029 ], [ -82.410197, 36.082552 ], [ -82.406785, 36.084815 ], [ -82.40566, 36.086447 ], [ -82.403345, 36.088057 ], [ -82.40239, 36.089238 ], [ -82.400074, 36.090089 ], [ -82.398118, 36.09032 ], [ -82.397372, 36.091726 ], [ -82.395299, 36.093105 ], [ -82.394332, 36.093247 ], [ -82.391277, 36.09523 ], [ -82.389218, 36.097097 ], [ -82.38422, 36.098777 ], [ -82.383109, 36.09937 ], [ -82.380475, 36.099347 ], [ -82.379791, 36.100094 ], [ -82.378726, 36.103253 ], [ -82.376559, 36.104335 ], [ -82.375955, 36.105323 ], [ -82.374014, 36.106194 ], [ -82.372103, 36.106091 ], [ -82.369031, 36.107335 ], [ -82.366729, 36.10765 ], [ -82.366624, 36.107671 ], [ -82.366597, 36.107676 ], [ -82.366256, 36.107628 ], [ -82.366073, 36.107603 ], [ -82.365717, 36.107526 ], [ -82.365361, 36.107449 ], [ -82.365123, 36.107419 ], [ -82.364928, 36.107421 ], [ -82.364836, 36.107429 ], [ -82.363563, 36.109395 ], [ -82.362007, 36.10969 ], [ -82.361013, 36.110632 ], [ -82.360209, 36.111662 ], [ -82.356411, 36.114067 ], [ -82.355684, 36.115139 ], [ -82.353626, 36.115745 ], [ -82.352761, 36.116452 ], [ -82.350203, 36.117036 ], [ -82.34837, 36.115489 ], [ -82.346875, 36.115119 ], [ -82.343779, 36.115533 ], [ -82.338679, 36.114775 ], [ -82.336487, 36.114623 ], [ -82.333456, 36.116077 ], [ -82.33154, 36.117502 ], [ -82.329291, 36.117447 ], [ -82.327533, 36.117925 ], [ -82.32577, 36.119005 ], [ -82.323392, 36.120181 ], [ -82.320684, 36.119677 ], [ -82.316208, 36.121934 ], [ -82.314482, 36.123896 ], [ -82.309574, 36.126091 ], [ -82.308259, 36.126959 ], [ -82.307304, 36.128404 ], [ -82.302481, 36.131465 ], [ -82.298179, 36.13302 ], [ -82.296614, 36.133778 ], [ -82.294609, 36.133932 ], [ -82.291222, 36.135255 ], [ -82.288572, 36.135727 ], [ -82.287083, 36.134705 ], [ -82.2835, 36.13166 ], [ -82.281637, 36.130605 ], [ -82.280635, 36.129478 ], [ -82.278793, 36.128681 ], [ -82.273448, 36.129317 ], [ -82.271572, 36.128657 ], [ -82.269737, 36.127415 ], [ -82.267847, 36.127513 ], [ -82.266161, 36.126957 ], [ -82.263925, 36.127297 ], [ -82.263267, 36.129891 ], [ -82.261192, 36.131802 ], [ -82.260304, 36.133533 ], [ -82.256435, 36.134977 ], [ -82.254328, 36.136058 ], [ -82.251268, 36.132155 ], [ -82.249365, 36.132444 ], [ -82.245388, 36.131199 ], [ -82.243472, 36.133008 ], [ -82.243358, 36.134382 ], [ -82.242701, 36.134915 ], [ -82.241992, 36.137031 ], [ -82.24061, 36.137257 ], [ -82.235646, 36.14076 ], [ -82.235328, 36.14175 ], [ -82.233542, 36.142208 ], [ -82.23318, 36.143079 ], [ -82.231292, 36.144351 ], [ -82.229537, 36.144588 ], [ -82.228102, 36.147259 ], [ -82.2263, 36.148342 ], [ -82.224106, 36.151261 ], [ -82.22339, 36.153806 ], [ -82.222218, 36.155213 ], [ -82.222064, 36.15696 ], [ -82.219982, 36.156714 ], [ -82.217977, 36.157198 ], [ -82.215782, 36.158474 ], [ -82.213898, 36.159041 ], [ -82.211892, 36.158997 ], [ -82.209696, 36.15825 ], [ -82.207988, 36.157229 ], [ -82.204581, 36.157355 ], [ -82.201733, 36.156384 ], [ -82.200554, 36.155049 ], [ -82.199442, 36.152735 ], [ -82.196684, 36.15156 ], [ -82.195667, 36.150191 ], [ -82.192557, 36.148994 ], [ -82.191012, 36.149912 ], [ -82.187956, 36.151028 ], [ -82.186237, 36.147533 ], [ -82.184988, 36.145286 ], [ -82.183518, 36.143829 ], [ -82.181566, 36.143791 ], [ -82.179066, 36.143291 ], [ -82.177217, 36.142373 ], [ -82.17513, 36.14384 ], [ -82.174452, 36.145242 ], [ -82.172934, 36.1465 ], [ -82.16834, 36.146664 ], [ -82.166206, 36.144983 ], [ -82.164702, 36.145939 ], [ -82.161015, 36.146839 ], [ -82.159283, 36.145893 ], [ -82.157255, 36.147531 ], [ -82.155744, 36.148273 ], [ -82.153121, 36.14819 ], [ -82.14852, 36.1497 ], [ -82.147959, 36.147645 ], [ -82.146408, 36.145815 ], [ -82.144362, 36.143951 ], [ -82.144675, 36.142588 ], [ -82.144452, 36.140406 ], [ -82.141268, 36.138971 ], [ -82.14101, 36.136667 ], [ -82.138305, 36.130985 ], [ -82.136987, 36.129039 ], [ -82.136826, 36.123057 ], [ -82.137856, 36.11951 ], [ -82.135995, 36.116534 ], [ -82.134918, 36.114265 ], [ -82.132602, 36.11115 ], [ -82.130943, 36.107369 ], [ -82.13062, 36.104959 ], [ -82.128399, 36.104013 ], [ -82.126965, 36.10441 ], [ -82.124321, 36.104309 ], [ -82.119633, 36.104707 ], [ -82.116352, 36.104301 ], [ -82.112473, 36.105585 ], [ -82.110468, 36.106704 ], [ -82.108516, 36.107497 ], [ -82.105418, 36.107837 ], [ -82.103013, 36.106535 ], [ -82.10031, 36.105671 ], [ -82.097628, 36.105658 ], [ -82.094246, 36.10605 ], [ -82.088035, 36.106165 ], [ -82.086532, 36.106002 ], [ -82.081079, 36.10317 ], [ -82.080688, 36.105601 ], [ -82.080028, 36.106433 ], [ -82.075196, 36.108308 ], [ -82.071675, 36.109141 ], [ -82.069591, 36.110808 ], [ -82.066977, 36.112252 ], [ -82.062051, 36.112923 ], [ -82.061163, 36.114002 ], [ -82.059907, 36.116758 ], [ -82.057222, 36.119811 ], [ -82.056577, 36.120949 ], [ -82.056714, 36.123224 ], [ -82.056113, 36.124956 ], [ -82.054012, 36.126674 ], [ -82.051559, 36.125938 ], [ -82.044755, 36.125556 ], [ -82.041564, 36.123996 ], [ -82.039135, 36.121684 ], [ -82.037315, 36.121022 ], [ -82.033839, 36.120475 ], [ -82.030067, 36.123393 ], [ -82.028745, 36.125129 ], [ -82.026995, 36.128446 ], [ -82.026901, 36.130154 ], [ -82.016903, 36.144661 ], [ -82.002953, 36.164766 ], [ -81.999308, 36.170162 ], [ -81.992525, 36.180047 ], [ -81.989599, 36.184387 ], [ -81.986255, 36.189313 ], [ -81.976863, 36.20325 ], [ -81.975957, 36.204591 ], [ -81.970704, 36.21231 ], [ -81.965997, 36.219283 ], [ -81.962216, 36.224949 ], [ -81.957947, 36.230861 ], [ -81.956368, 36.233033 ], [ -81.949159, 36.242886 ], [ -81.941035, 36.253386 ], [ -81.939008, 36.256033 ], [ -81.933065, 36.264873 ], [ -81.920779, 36.283175 ], [ -81.908167, 36.301966 ], [ -81.906765, 36.302246 ], [ -81.90642, 36.303047 ], [ -81.903819, 36.303853 ], [ -81.902783, 36.305166 ], [ -81.900384, 36.306004 ], [ -81.89967, 36.306736 ], [ -81.896823, 36.307456 ], [ -81.895046, 36.307149 ], [ -81.891902, 36.308361 ], [ -81.88746, 36.309164 ], [ -81.885729, 36.310216 ], [ -81.884203, 36.312015 ], [ -81.882065, 36.313079 ], [ -81.879676, 36.313707 ], [ -81.878307, 36.314944 ], [ -81.876855, 36.315641 ], [ -81.875272, 36.318263 ], [ -81.870569, 36.322733 ], [ -81.868693, 36.324112 ], [ -81.866549, 36.326346 ], [ -81.865509, 36.329193 ], [ -81.862982, 36.330212 ], [ -81.862575, 36.33042 ], [ -81.860808, 36.332119 ], [ -81.859044, 36.332909 ], [ -81.854888, 36.337209 ], [ -81.853553, 36.336437 ], [ -81.851911, 36.337012 ], [ -81.851268, 36.337774 ], [ -81.849147, 36.338975 ], [ -81.848159, 36.338909 ], [ -81.846796, 36.339994 ], [ -81.844955, 36.340838 ], [ -81.841191, 36.343353 ], [ -81.834854, 36.346055 ], [ -81.833311, 36.347181 ], [ -81.831481, 36.347262 ], [ -81.825923, 36.348903 ], [ -81.824232, 36.348617 ], [ -81.820489, 36.349254 ], [ -81.818439, 36.35046 ], [ -81.814621, 36.351352 ], [ -81.811891, 36.35151 ], [ -81.809779, 36.352221 ], [ -81.808812, 36.353677 ], [ -81.804295, 36.355549 ], [ -81.803171, 36.35543 ], [ -81.801657, 36.356558 ], [ -81.800823, 36.358051 ], [ -81.797474, 36.358465 ], [ -81.796327, 36.359575 ], [ -81.795096, 36.361797 ], [ -81.793085, 36.362408 ], [ -81.793654, 36.361024 ], [ -81.793588, 36.358958 ], [ -81.791793, 36.356061 ], [ -81.790938, 36.355886 ], [ -81.790644, 36.353827 ], [ -81.791019, 36.352026 ], [ -81.790137, 36.348848 ], [ -81.789545, 36.348214 ], [ -81.788171, 36.348253 ], [ -81.78596, 36.347476 ], [ -81.783403, 36.347753 ], [ -81.782567, 36.347524 ], [ -81.780275, 36.347881 ], [ -81.778975, 36.348574 ], [ -81.776236, 36.346553 ], [ -81.774468, 36.344153 ], [ -81.773259, 36.343352 ], [ -81.771672, 36.343511 ], [ -81.770467, 36.34255 ], [ -81.769313, 36.342503 ], [ -81.768927, 36.340975 ], [ -81.765596, 36.339302 ], [ -81.764954, 36.338722 ], [ -81.763164, 36.339754 ], [ -81.761132, 36.340254 ], [ -81.757713, 36.339666 ], [ -81.755576, 36.338331 ], [ -81.75447, 36.336999 ], [ -81.752117, 36.337085 ], [ -81.750454, 36.337812 ], [ -81.74785, 36.337392 ], [ -81.744275, 36.337854 ], [ -81.740372, 36.339482 ], [ -81.73937, 36.339923 ], [ -81.738302, 36.34126 ], [ -81.736205, 36.342905 ], [ -81.731205, 36.341342 ], [ -81.727974, 36.341431 ], [ -81.724985, 36.340177 ], [ -81.723363, 36.338911 ], [ -81.720723, 36.338455 ], [ -81.71861, 36.336154 ], [ -81.713609, 36.336087 ], [ -81.709792, 36.335272 ], [ -81.707475, 36.335225 ], [ -81.707166, 36.336854 ], [ -81.705878, 36.338901 ], [ -81.705313, 36.341773 ], [ -81.706368, 36.344048 ], [ -81.708035, 36.346203 ], [ -81.708105, 36.346251 ], [ -81.708242, 36.346333 ], [ -81.70846, 36.346425 ], [ -81.708837, 36.346478 ], [ -81.709215, 36.346531 ], [ -81.709567, 36.346556 ], [ -81.709918, 36.346581 ], [ -81.710015, 36.346588 ], [ -81.712399, 36.346716 ], [ -81.712617, 36.34672 ], [ -81.715096, 36.346984 ], [ -81.717754, 36.34804 ], [ -81.719081, 36.349005 ], [ -81.722133, 36.352086 ], [ -81.723018, 36.354493 ], [ -81.723767, 36.355428 ], [ -81.724373, 36.357695 ], [ -81.722508, 36.358783 ], [ -81.722883, 36.361237 ], [ -81.724021, 36.362994 ], [ -81.725141, 36.363602 ], [ -81.727116, 36.365586 ], [ -81.726773, 36.366504 ], [ -81.726066, 36.368785 ], [ -81.727179, 36.370174 ], [ -81.728998, 36.371416 ], [ -81.729203, 36.373663 ], [ -81.730827, 36.37368 ], [ -81.731953, 36.376706 ], [ -81.733042, 36.378568 ], [ -81.734681, 36.379848 ], [ -81.733438, 36.382283 ], [ -81.730972, 36.382938 ], [ -81.729539, 36.385357 ], [ -81.730594, 36.387406 ], [ -81.73014, 36.389648 ], [ -81.72889, 36.390825 ], [ -81.729659, 36.39305 ], [ -81.731958, 36.394929 ], [ -81.73452, 36.394329 ], [ -81.738477, 36.394827 ], [ -81.739368, 36.395591 ], [ -81.738955, 36.398619 ], [ -81.738256, 36.400576 ], [ -81.738474, 36.401297 ], [ -81.741031, 36.402102 ], [ -81.741447, 36.403641 ], [ -81.740415, 36.405081 ], [ -81.740885, 36.406966 ], [ -81.740022, 36.408302 ], [ -81.741928, 36.411148 ], [ -81.741596, 36.412587 ], [ -81.73766, 36.413518 ], [ -81.735905, 36.412364 ], [ -81.734457, 36.412557 ], [ -81.734335, 36.413557 ], [ -81.733337, 36.414833 ], [ -81.731636, 36.414817 ], [ -81.729719, 36.415653 ], [ -81.729177, 36.417373 ], [ -81.727796, 36.417951 ], [ -81.727152, 36.419869 ], [ -81.726002, 36.419743 ], [ -81.724303, 36.420353 ], [ -81.723549, 36.422337 ], [ -81.722495, 36.421958 ], [ -81.720876, 36.42247 ], [ -81.720153, 36.42393 ], [ -81.71928, 36.425378 ], [ -81.718003, 36.428829 ], [ -81.718099, 36.430571 ], [ -81.721317, 36.4339 ], [ -81.719937, 36.434758 ], [ -81.718216, 36.435044 ], [ -81.715204, 36.436704 ], [ -81.714796, 36.437414 ], [ -81.715708, 36.438463 ], [ -81.714519, 36.440985 ], [ -81.714839, 36.441964 ], [ -81.717329, 36.443787 ], [ -81.717751, 36.44515 ], [ -81.715983, 36.4457 ], [ -81.713787, 36.447173 ], [ -81.714362, 36.450843 ], [ -81.715392, 36.451257 ], [ -81.715062, 36.453358 ], [ -81.71515, 36.45474 ], [ -81.716688, 36.45614 ], [ -81.71543, 36.457636 ], [ -81.712308, 36.458807 ], [ -81.711321, 36.458752 ], [ -81.709464, 36.459588 ], [ -81.708377, 36.462088 ], [ -81.705465, 36.462716 ], [ -81.701267, 36.464161 ], [ -81.699001, 36.464068 ], [ -81.69688, 36.46603 ], [ -81.695177, 36.467625 ], [ -81.696131, 36.46936 ], [ -81.694608, 36.473372 ], [ -81.69486, 36.474487 ], [ -81.69635, 36.475537 ], [ -81.696521, 36.478345 ], [ -81.695922, 36.48029 ], [ -81.697352, 36.483516 ], [ -81.697308, 36.484886 ], [ -81.697725, 36.486473 ], [ -81.697783, 36.489503 ], [ -81.695949, 36.491619 ], [ -81.696137, 36.492034 ], [ -81.697095, 36.494088 ], [ -81.697229, 36.496039 ], [ -81.697728, 36.496984 ], [ -81.700111, 36.498203 ], [ -81.700206, 36.499682 ], [ -81.699394, 36.500936 ], [ -81.698737, 36.501452 ], [ -81.69758, 36.501952 ], [ -81.697417, 36.502502 ], [ -81.697764, 36.503211 ], [ -81.697901, 36.503815 ], [ -81.697742, 36.503977 ], [ -81.696992, 36.504788 ], [ -81.697132, 36.506035 ], [ -81.698405, 36.506524 ], [ -81.698077, 36.50721 ], [ -81.698336, 36.509681 ], [ -81.69927, 36.511129 ], [ -81.699496, 36.512481 ], [ -81.70034, 36.513448 ], [ -81.700224, 36.514641 ], [ -81.701546, 36.516454 ], [ -81.701539, 36.518043 ], [ -81.70297, 36.521141 ], [ -81.708097, 36.524148 ], [ -81.70731, 36.52823 ], [ -81.708442, 36.532203 ], [ -81.707878, 36.536006 ], [ -81.705046, 36.536481 ], [ -81.701027, 36.536452 ], [ -81.699795, 36.536727 ], [ -81.699999, 36.539711 ], [ -81.699026, 36.541865 ], [ -81.69731, 36.544701 ], [ -81.696233, 36.545615 ], [ -81.694233, 36.547596 ], [ -81.694198, 36.547614 ], [ -81.694048, 36.547713 ], [ -81.693898, 36.547856 ], [ -81.69379, 36.547977 ], [ -81.69377, 36.548054 ], [ -81.693783, 36.548175 ], [ -81.69383, 36.548306 ], [ -81.694069, 36.549197 ], [ -81.693429, 36.550867 ], [ -81.690207, 36.551878 ], [ -81.690998, 36.554395 ], [ -81.690937, 36.555995 ], [ -81.690303, 36.557396 ], [ -81.690535, 36.558572 ], [ -81.689548, 36.561441 ], [ -81.691183, 36.563622 ], [ -81.691067, 36.56488 ], [ -81.691878, 36.565941 ], [ -81.691416, 36.567551 ], [ -81.690128, 36.568722 ], [ -81.686258, 36.56798 ], [ -81.684371, 36.568486 ], [ -81.680072, 36.568672 ], [ -81.677306, 36.570496 ], [ -81.677013, 36.572365 ], [ -81.677613, 36.573233 ], [ -81.677306, 36.574349 ], [ -81.678771, 36.5773 ], [ -81.679186, 36.578773 ], [ -81.677109, 36.58091 ], [ -81.678386, 36.582102 ], [ -81.680011, 36.585818 ], [ -81.67749, 36.588137 ], [ -81.672442, 36.592018 ], [ -81.6469, 36.611918 ], [ -81.688189, 36.612164 ], [ -81.692986, 36.612091 ], [ -81.703916, 36.612254 ], [ -81.715644, 36.612317 ], [ -81.736895, 36.612379 ], [ -81.754568, 36.612687 ], [ -81.770529, 36.612922 ], [ -81.803951, 36.613669 ], [ -81.80441, 36.613681 ], [ -81.826742, 36.614215 ], [ -81.826642, 36.614415 ], [ -81.844842, 36.614715 ], [ -81.844842, 36.614815 ], [ -81.864969, 36.615116 ], [ -81.874843, 36.615264 ], [ -81.891389, 36.615609 ], [ -81.91004, 36.615971 ], [ -81.913205, 36.616047 ], [ -81.920098, 36.616168 ], [ -81.922644, 36.616213 ], [ -81.925754, 36.610265 ], [ -81.926371, 36.609084 ], [ -81.929496, 36.603108 ], [ -81.93072, 36.60079 ], [ -81.934144, 36.594213 ], [ -81.962465, 36.594321 ], [ -81.964934, 36.594328 ], [ -81.968287, 36.594338 ], [ -81.96996, 36.594343 ], [ -81.978658, 36.594381 ], [ -81.983791, 36.594399 ], [ -81.999018, 36.594459 ], [ -82.005657, 36.594416 ], [ -82.014228, 36.594491 ], [ -82.015642, 36.594461 ], [ -82.016321, 36.59418 ], [ -82.019365, 36.594456 ], [ -82.029095, 36.594443 ], [ -82.032058, 36.594432 ], [ -82.040257, 36.594413 ], [ -82.046794, 36.594403 ], [ -82.053649, 36.594435 ], [ -82.06454, 36.594589 ], [ -82.083407, 36.594678 ], [ -82.087375, 36.594685 ], [ -82.097648, 36.594739 ], [ -82.102171, 36.594762 ], [ -82.107743, 36.594711 ], [ -82.110791, 36.594647 ], [ -82.11238, 36.594621 ], [ -82.112767, 36.594615 ], [ -82.113398, 36.594605 ], [ -82.117837, 36.594563 ], [ -82.12458, 36.594513 ], [ -82.125665, 36.594682 ], [ -82.127731, 36.594775 ], [ -82.130707, 36.594782 ], [ -82.132726, 36.594762 ], [ -82.138535, 36.594744 ], [ -82.139917, 36.594742 ], [ -82.143045, 36.594733 ], [ -82.14985, 36.594746 ], [ -82.151211, 36.59469 ], [ -82.153634, 36.594742 ], [ -82.157427, 36.594681 ], [ -82.15845, 36.594662 ], [ -82.159462, 36.594647 ], [ -82.159667, 36.594643 ], [ -82.160237, 36.594633 ], [ -82.160282, 36.594632 ], [ -82.160488, 36.594629 ], [ -82.160653, 36.594626 ], [ -82.161148, 36.594619 ], [ -82.161314, 36.594618 ], [ -82.162116, 36.594608 ], [ -82.167133, 36.594585 ], [ -82.169912, 36.594596 ], [ -82.171213, 36.594601 ], [ -82.173854, 36.594612 ], [ -82.177404, 36.594828 ], [ -82.17915, 36.594879 ], [ -82.180083, 36.594905 ], [ -82.18082, 36.594927 ], [ -82.180957, 36.594932 ], [ -82.181875, 36.594968 ], [ -82.182284, 36.594978 ], [ -82.183348, 36.595005 ], [ -82.185139, 36.595062 ], [ -82.186424, 36.595089 ], [ -82.1877, 36.595109 ], [ -82.188674, 36.595143 ], [ -82.188819, 36.595147 ], [ -82.18974, 36.595173 ], [ -82.19158, 36.595221 ], [ -82.194676, 36.595311 ], [ -82.197118, 36.595378 ], [ -82.198115, 36.595402 ], [ -82.199124, 36.595431 ], [ -82.199715, 36.595452 ], [ -82.200745, 36.59548 ], [ -82.201814, 36.595508 ], [ -82.206723, 36.595634 ], [ -82.20785, 36.595663 ], [ -82.208996, 36.595695 ], [ -82.210431, 36.595762 ], [ -82.210716, 36.595776 ], [ -82.214276, 36.595846 ], [ -82.217537, 36.595828 ], [ -82.218359, 36.595828 ], [ -82.221797, 36.595809 ], [ -82.22405, 36.595727 ], [ -82.225875, 36.595744 ], [ -82.229342, 36.595682 ], [ -82.229767, 36.595681 ], [ -82.234437, 36.595673 ], [ -82.235065, 36.595671 ], [ -82.242063, 36.595659 ], [ -82.243382, 36.595651 ], [ -82.24409, 36.595646 ], [ -82.253669, 36.595575 ], [ -82.262139, 36.595645 ], [ -82.26582, 36.59564 ], [ -82.272647, 36.595648 ], [ -82.286003, 36.595687 ], [ -82.292807, 36.595697 ], [ -82.293814, 36.595699 ], [ -82.309721, 36.595611 ], [ -82.311111, 36.595609 ], [ -82.326477, 36.595475 ], [ -82.35625, 36.595171 ], [ -82.368468, 36.595015 ], [ -82.386909, 36.595016 ], [ -82.40038, 36.595003 ], [ -82.406018, 36.595012 ], [ -82.416443, 36.595015 ], [ -82.421989, 36.595011 ], [ -82.44187, 36.594892 ], [ -82.442856, 36.594878 ], [ -82.450763, 36.594764 ], [ -82.457822, 36.594635 ], [ -82.46564, 36.594482 ], [ -82.471864, 36.594841 ], [ -82.478673, 36.595588 ], [ -82.486994, 36.595822 ], [ -82.489568, 36.595701 ], [ -82.491658, 36.595631 ], [ -82.493818, 36.595585 ], [ -82.502429, 36.595459 ], [ -82.517271, 36.595391 ], [ -82.520722, 36.595316 ], [ -82.53483, 36.595165 ], [ -82.545583, 36.594999 ], [ -82.549173, 36.594948 ], [ -82.554001, 36.594779 ], [ -82.560432, 36.594791 ], [ -82.561265, 36.594657 ], [ -82.562182, 36.594798 ], [ -82.56428, 36.594755 ], [ -82.56769, 36.594688 ], [ -82.571746, 36.5946 ], [ -82.572134, 36.594599 ], [ -82.57386, 36.594571 ], [ -82.578147, 36.5945 ], [ -82.585952, 36.594376 ], [ -82.587832, 36.594375 ], [ -82.593406, 36.594267 ], [ -82.60906, 36.594099 ], [ -82.609176, 36.594099 ], [ -82.609476, 36.59401 ], [ -82.609489, 36.594011 ], [ -82.609507, 36.594013 ], [ -82.609543, 36.594017 ], [ -82.609599, 36.594023 ], [ -82.618636, 36.59398 ], [ -82.622603, 36.593797 ], [ -82.630501, 36.593798 ], [ -82.6327, 36.593799 ], [ -82.650857, 36.593799 ], [ -82.66206, 36.593758 ], [ -82.663491, 36.593644 ], [ -82.671021, 36.593718 ], [ -82.688143, 36.593731 ], [ -82.699545, 36.593697 ], [ -82.739682, 36.593598 ], [ -82.764519, 36.593748 ], [ -82.7796, 36.593743 ], [ -82.780539, 36.593739 ], [ -82.784857, 36.593751 ], [ -82.796805, 36.593746 ], [ -82.810051, 36.593714 ], [ -82.811862, 36.593704 ], [ -82.830433, 36.593761 ], [ -82.85227, 36.593698 ], [ -82.852315, 36.593698 ], [ -82.874899, 36.593497 ], [ -82.888924, 36.593468 ], [ -82.889199, 36.593469 ], [ -82.890113, 36.593475 ], [ -82.909617, 36.59361 ], [ -82.91369, 36.59363 ], [ -82.929602, 36.593679 ], [ -82.92977, 36.59367 ], [ -82.961741, 36.593778 ], [ -82.98499, 36.593729 ], [ -82.991959, 36.593715 ], [ -82.992282, 36.593715 ], [ -83.005327, 36.593851 ], [ -83.013169, 36.593868 ], [ -83.066846, 36.593971 ], [ -83.070916, 36.59398 ], [ -83.075828, 36.593988 ], [ -83.101524, 36.594039 ], [ -83.124893, 36.594089 ], [ -83.13949, 36.594032 ], [ -83.144667, 36.594012 ], [ -83.174533, 36.593895 ], [ -83.211582, 36.593912 ], [ -83.21481, 36.593915 ], [ -83.22299, 36.59392 ], [ -83.225444, 36.593918 ], [ -83.241366, 36.593926 ], [ -83.248933, 36.593827 ], [ -83.252629, 36.593925 ], [ -83.261099, 36.593887 ], [ -83.2763, 36.598187 ], [ -83.282305, 36.598141 ], [ -83.307953, 36.597955 ], [ -83.311186, 36.597931 ], [ -83.324965, 36.59783 ], [ -83.346457, 36.597644 ], [ -83.346786, 36.597641 ], [ -83.346916, 36.59764 ], [ -83.356528, 36.597553 ], [ -83.37565, 36.597386 ], [ -83.383873, 36.597386 ], [ -83.405614, 36.597385 ], [ -83.426611, 36.597364 ], [ -83.455508, 36.597313 ], [ -83.472108, 36.597284 ], [ -83.465866, 36.593473 ], [ -83.464243, 36.592482 ], [ -83.459679, 36.589695 ], [ -83.456761, 36.587912 ], [ -83.444106, 36.580185 ], [ -83.432782, 36.573194 ], [ -83.429184, 36.569358 ], [ -83.427833, 36.567886 ], [ -83.414868, 36.553994 ], [ -83.410972, 36.549573 ], [ -83.410409, 36.548926 ], [ -83.409828, 36.548259 ], [ -83.398403, 36.535002 ], [ -83.392631, 36.522843 ], [ -83.39219, 36.521908 ], [ -83.388473, 36.513977 ], [ -83.388418, 36.513859 ], [ -83.386158, 36.509033 ], [ -83.38598, 36.508652 ], [ -83.383702, 36.500085 ], [ -83.381511, 36.494088 ], [ -83.380823, 36.493279 ], [ -83.379196, 36.490022 ], [ -83.378406, 36.487685 ], [ -83.378042, 36.487039 ], [ -83.377228, 36.484329 ], [ -83.37598, 36.481912 ], [ -83.374901, 36.476255 ], [ -83.373272, 36.47102 ], [ -83.370312, 36.46197 ], [ -83.369401, 36.459186 ], [ -83.369831, 36.450758 ], [ -83.369901, 36.449375 ], [ -83.370078, 36.446326 ], [ -83.371586, 36.433905 ], [ -83.373012, 36.431025 ], [ -83.373094, 36.43086 ], [ -83.374104, 36.43129 ], [ -83.375544, 36.431443 ], [ -83.376038, 36.431185 ], [ -83.377027, 36.430722 ], [ -83.377692, 36.430067 ], [ -83.37775, 36.427913 ], [ -83.37742, 36.424521 ], [ -83.377518, 36.42354 ], [ -83.377917, 36.422008 ], [ -83.378819, 36.420978 ], [ -83.380108, 36.420415 ], [ -83.386123, 36.420089 ], [ -83.387284, 36.419724 ], [ -83.387607, 36.419403 ], [ -83.387813, 36.418695 ], [ -83.387389, 36.417686 ], [ -83.38659, 36.416714 ], [ -83.386085, 36.415976 ], [ -83.385742, 36.414832 ], [ -83.38586, 36.414089 ], [ -83.386059, 36.413734 ], [ -83.3868, 36.413186 ], [ -83.387368, 36.412656 ], [ -83.390239, 36.411693 ], [ -83.390042, 36.410823 ], [ -83.389443, 36.408162 ], [ -83.387283, 36.409073 ], [ -83.385991, 36.409006 ], [ -83.383367, 36.409647 ], [ -83.381784, 36.408904 ], [ -83.380076, 36.4113 ], [ -83.378243, 36.411468 ], [ -83.3727, 36.413287 ], [ -83.372, 36.412987 ], [ -83.367099, 36.414887 ], [ -83.365099, 36.415087 ], [ -83.362199, 36.416587 ], [ -83.359899, 36.417387 ], [ -83.358699, 36.417087 ], [ -83.355799, 36.418587 ], [ -83.354999, 36.419387 ], [ -83.353099, 36.419087 ], [ -83.352099, 36.419787 ], [ -83.348522, 36.416115 ], [ -83.340998, 36.408388 ], [ -83.339198, 36.408488 ], [ -83.336756, 36.409849 ], [ -83.334998, 36.407587 ], [ -83.332698, 36.408287 ], [ -83.331698, 36.407886 ], [ -83.329498, 36.408086 ], [ -83.328197, 36.409685 ], [ -83.325157, 36.407941 ], [ -83.323014, 36.404263 ], [ -83.321132, 36.404954 ], [ -83.318526, 36.405327 ], [ -83.317781, 36.403833 ], [ -83.317531, 36.403327 ], [ -83.315379, 36.398956 ], [ -83.3153, 36.398794 ], [ -83.308597, 36.399589 ], [ -83.308297, 36.399189 ], [ -83.308597, 36.396789 ], [ -83.307497, 36.392789 ], [ -83.304197, 36.388189 ], [ -83.300497, 36.389289 ], [ -83.298996, 36.390289 ], [ -83.298096, 36.390189 ], [ -83.296496, 36.391089 ], [ -83.293896, 36.391889 ], [ -83.292996, 36.392489 ], [ -83.286596, 36.393989 ], [ -83.284796, 36.393989 ], [ -83.280595, 36.394689 ], [ -83.277596, 36.390489 ], [ -83.277596, 36.388389 ], [ -83.275996, 36.386389 ], [ -83.274396, 36.386089 ], [ -83.273895, 36.384689 ], [ -83.279096, 36.383089 ], [ -83.282496, 36.382389 ], [ -83.285496, 36.380489 ], [ -83.288896, 36.378889 ], [ -83.287436, 36.375283 ], [ -83.28578, 36.373685 ], [ -83.283095, 36.37149 ], [ -83.273295, 36.37019 ], [ -83.272281, 36.365617 ], [ -83.271217, 36.363001 ], [ -83.267895, 36.354815 ], [ -83.267194, 36.35309 ], [ -83.264894, 36.35119 ], [ -83.264799, 36.349772 ], [ -83.264612, 36.346975 ], [ -83.264499, 36.345249 ], [ -83.264498, 36.344993 ], [ -83.264506, 36.344752 ], [ -83.265128, 36.336936 ], [ -83.265379, 36.33484 ], [ -83.26558, 36.333347 ], [ -83.265635, 36.327837 ], [ -83.269066, 36.325646 ], [ -83.273694, 36.322691 ], [ -83.27369, 36.319086 ], [ -83.273318, 36.318522 ], [ -83.272144, 36.316677 ], [ -83.271731, 36.316099 ], [ -83.269889, 36.313826 ], [ -83.269773, 36.313666 ], [ -83.269427, 36.313187 ], [ -83.269312, 36.313028 ], [ -83.26576, 36.308113 ], [ -83.265662, 36.307978 ], [ -83.265371, 36.307574 ], [ -83.265274, 36.30744 ], [ -83.263642, 36.305101 ], [ -83.263132, 36.304125 ], [ -83.262717, 36.30333 ], [ -83.260178, 36.298472 ], [ -83.259147, 36.296498 ], [ -83.258609, 36.295468 ], [ -83.255885, 36.290252 ], [ -83.255292, 36.289092 ], [ -83.259989, 36.288989 ], [ -83.263286, 36.288487 ], [ -83.265983, 36.286687 ], [ -83.267281, 36.285087 ], [ -83.26718, 36.283789 ], [ -83.26628, 36.28259 ], [ -83.265476, 36.276995 ], [ -83.266274, 36.274996 ], [ -83.267073, 36.274296 ], [ -83.269371, 36.273895 ], [ -83.27237, 36.273993 ], [ -83.273369, 36.274392 ], [ -83.276568, 36.276688 ], [ -83.278566, 36.276088 ], [ -83.278964, 36.27309 ], [ -83.278662, 36.268995 ], [ -83.27816, 36.265596 ], [ -83.27826, 36.264497 ], [ -83.279358, 36.263197 ], [ -83.282055, 36.262097 ], [ -83.284111, 36.261996 ], [ -83.285554, 36.261995 ], [ -83.287892, 36.262293 ], [ -83.288456, 36.262293 ], [ -83.290157, 36.262692 ], [ -83.291459, 36.263792 ], [ -83.29196, 36.265093 ], [ -83.29216, 36.266192 ], [ -83.292161, 36.266692 ], [ -83.291461, 36.268494 ], [ -83.291262, 36.269494 ], [ -83.290862, 36.270595 ], [ -83.290663, 36.271996 ], [ -83.291165, 36.274697 ], [ -83.291566, 36.275798 ], [ -83.292067, 36.276498 ], [ -83.292968, 36.277398 ], [ -83.293969, 36.277798 ], [ -83.29447, 36.278097 ], [ -83.29557, 36.277897 ], [ -83.296771, 36.277396 ], [ -83.298271, 36.276394 ], [ -83.298971, 36.276094 ], [ -83.299871, 36.275193 ], [ -83.300671, 36.274092 ], [ -83.301471, 36.273291 ], [ -83.302171, 36.27219 ], [ -83.30237, 36.271589 ], [ -83.30297, 36.270188 ], [ -83.30397, 36.268887 ], [ -83.30507, 36.268186 ], [ -83.30567, 36.268085 ], [ -83.306571, 36.268085 ], [ -83.307571, 36.268284 ], [ -83.308072, 36.268484 ], [ -83.308873, 36.269184 ], [ -83.309273, 36.269284 ], [ -83.310274, 36.270084 ], [ -83.310374, 36.270284 ], [ -83.309974, 36.271184 ], [ -83.310175, 36.272385 ], [ -83.310476, 36.273385 ], [ -83.310776, 36.273885 ], [ -83.311177, 36.274886 ], [ -83.311878, 36.276086 ], [ -83.312279, 36.276486 ], [ -83.31358, 36.276485 ], [ -83.31398, 36.276385 ], [ -83.315181, 36.276784 ], [ -83.316182, 36.277684 ], [ -83.316682, 36.278384 ], [ -83.317483, 36.278784 ], [ -83.317784, 36.279584 ], [ -83.318084, 36.279884 ], [ -83.319187, 36.281685 ], [ -83.319988, 36.283685 ], [ -83.319989, 36.284586 ], [ -83.319689, 36.285287 ], [ -83.319089, 36.285987 ], [ -83.31819, 36.287289 ], [ -83.31799, 36.287789 ], [ -83.318391, 36.290289 ], [ -83.318592, 36.290889 ], [ -83.319493, 36.29229 ], [ -83.320624, 36.293319 ], [ -83.321695, 36.29459 ], [ -83.322295, 36.29499 ], [ -83.323895, 36.29569 ], [ -83.325595, 36.29629 ], [ -83.327095, 36.29669 ], [ -83.328295, 36.29669 ], [ -83.328977, 36.296149 ], [ -83.330195, 36.29569 ], [ -83.331195, 36.29469 ], [ -83.331795, 36.29389 ], [ -83.332495, 36.29249 ], [ -83.332795, 36.29079 ], [ -83.332795, 36.28889 ], [ -83.332995, 36.28709 ], [ -83.332995, 36.28649 ], [ -83.333395, 36.28479 ], [ -83.333495, 36.28409 ], [ -83.333795, 36.28359 ], [ -83.334695, 36.28279 ], [ -83.336895, 36.28209 ], [ -83.338295, 36.28139 ], [ -83.339595, 36.28049 ], [ -83.340195, 36.27989 ], [ -83.340995, 36.27949 ], [ -83.342895, 36.27919 ], [ -83.344195, 36.27919 ], [ -83.344795, 36.27939 ], [ -83.346296, 36.28009 ], [ -83.347196, 36.28059 ], [ -83.348896, 36.28119 ], [ -83.349596, 36.28129 ], [ -83.352096, 36.28189 ], [ -83.352496, 36.28209 ], [ -83.353796, 36.28239 ], [ -83.355196, 36.28259 ], [ -83.356796, 36.28249 ], [ -83.358296, 36.28219 ], [ -83.359796, 36.28149 ], [ -83.360896, 36.28059 ], [ -83.361696, 36.28009 ], [ -83.362996, 36.27899 ], [ -83.363496, 36.27819 ], [ -83.364396, 36.27599 ], [ -83.364196, 36.27449 ], [ -83.363796, 36.27329 ], [ -83.363396, 36.27259 ], [ -83.362296, 36.27169 ], [ -83.361896, 36.27039 ], [ -83.361796, 36.26899 ], [ -83.362196, 36.26769 ], [ -83.364996, 36.26609 ], [ -83.365596, 36.26579 ], [ -83.366296, 36.26579 ], [ -83.367196, 36.26559 ], [ -83.369396, 36.26539 ], [ -83.370596, 36.26539 ], [ -83.371896, 36.26559 ], [ -83.373196, 36.26559 ], [ -83.373596, 36.26569 ], [ -83.374896, 36.26569 ], [ -83.375596, 36.26569 ], [ -83.377496, 36.26529 ], [ -83.379096, 36.26529 ], [ -83.381502, 36.265431 ], [ -83.382697, 36.26549 ], [ -83.384197, 36.265689 ], [ -83.384751, 36.265588 ], [ -83.385997, 36.265389 ], [ -83.386797, 36.265089 ], [ -83.387697, 36.264589 ], [ -83.389831, 36.262743 ], [ -83.392597, 36.259789 ], [ -83.393097, 36.258089 ], [ -83.394497, 36.255489 ], [ -83.397097, 36.253189 ], [ -83.405897, 36.250089 ], [ -83.407397, 36.249589 ], [ -83.409497, 36.248789 ], [ -83.411297, 36.247289 ], [ -83.416297, 36.241289 ], [ -83.419897, 36.236289 ], [ -83.421497, 36.232689 ], [ -83.421697, 36.230989 ], [ -83.420897, 36.228689 ], [ -83.416697, 36.223089 ], [ -83.415896, 36.220689 ], [ -83.416096, 36.219389 ], [ -83.422297, 36.214589 ], [ -83.424397, 36.212789 ], [ -83.426597, 36.211489 ], [ -83.432297, 36.209889 ], [ -83.433432, 36.209889 ], [ -83.434197, 36.209889 ], [ -83.437561, 36.211483 ], [ -83.438797, 36.212289 ], [ -83.439097, 36.213889 ], [ -83.437997, 36.218489 ], [ -83.439097, 36.221089 ], [ -83.440497, 36.222189 ], [ -83.442498, 36.222789 ], [ -83.447398, 36.219889 ], [ -83.449498, 36.217989 ], [ -83.450398, 36.216089 ], [ -83.450798, 36.213289 ], [ -83.450597, 36.208889 ], [ -83.451016, 36.20607 ], [ -83.451197, 36.203189 ], [ -83.450297, 36.200589 ], [ -83.447297, 36.196289 ], [ -83.446897, 36.194889 ], [ -83.447197, 36.192589 ], [ -83.449097, 36.190289 ], [ -83.451597, 36.189289 ], [ -83.453597, 36.188889 ], [ -83.460297, 36.188089 ], [ -83.461697, 36.188089 ], [ -83.465897, 36.188888 ], [ -83.468297, 36.187288 ], [ -83.468697, 36.185388 ], [ -83.466903, 36.181941 ], [ -83.465697, 36.178488 ], [ -83.466197, 36.176488 ], [ -83.467097, 36.174688 ] ] ] ] } }
]
}
