{
"type": "FeatureCollection",
"name": "id_2",
"crs": { "type": "name", "properties": { "name": "urn:ogc:def:crs:OGC:1.3:CRS84" } },
"xy_coordinate_resolution": 1e-15,
"features": [
{ "type": "Feature", "properties": { "id": 2.0, "NAME": "2.0", "TotalPop": 767871.0, "PopDevPct": -0.0, "DemPct": 0.346, "RepPct": 0.634, "WhitePct": 0.843, "MinorityPc": 0.157, "BlackPct": 0.063, "HispanicPc": 0.043, "PacificPct": 0.001, "AsianPct": 0.022, "NativePct": 0.025, "TotalVAP": 609512.0, "Margin": -0.154, "color": "#0000f8", "opacity": "0.5" }, "geometry": { "type": "MultiPolygon", "coordinates": [ [ [ [ -84.326906, 35.664959 ], [ -84.326477, 35.665005 ], [ -84.326443, 35.672204 ], [ -84.317628, 35.672107 ], [ -84.317506, 35.667609 ], [ -84.31759, 35.65996 ], [ -84.316159, 35.660506 ], [ -84.312084, 35.659293 ], [ -84.310238, 35.659311 ], [ -84.308698, 35.657795 ], [ -84.299549, 35.657673 ], [ -84.299561, 35.654928 ], [ -84.291904, 35.654908 ], [ -84.290765, 35.654925 ], [ -84.290837, 35.651717 ], [ -84.290867, 35.650327 ], [ -84.295197, 35.650229 ], [ -84.297522, 35.643152 ], [ -84.290887, 35.643017 ], [ -84.290805, 35.641872 ], [ -84.282392, 35.641482 ], [ -84.282185, 35.641346 ], [ -84.281776, 35.640829 ], [ -84.281835, 35.635572 ], [ -84.273423, 35.635517 ], [ -84.26835, 35.635456 ], [ -84.263541, 35.635685 ], [ -84.261336, 35.635288 ], [ -84.259646, 35.63421 ], [ -84.257967, 35.63314 ], [ -84.256912, 35.632281 ], [ -84.256907, 35.632272 ], [ -84.256889, 35.632237 ], [ -84.256792, 35.632174 ], [ -84.256503, 35.631985 ], [ -84.256407, 35.631922 ], [ -84.256352, 35.632059 ], [ -84.256186, 35.63247 ], [ -84.256132, 35.632608 ], [ -84.256111, 35.63266 ], [ -84.256048, 35.632818 ], [ -84.256028, 35.632871 ], [ -84.255248, 35.634037 ], [ -84.254065, 35.635807 ], [ -84.252109, 35.636512 ], [ -84.25079, 35.636989 ], [ -84.250771, 35.636941 ], [ -84.250715, 35.6368 ], [ -84.250697, 35.636753 ], [ -84.250078, 35.635106 ], [ -84.249345, 35.633714 ], [ -84.2476, 35.633782 ], [ -84.248799, 35.632358 ], [ -84.252018, 35.630184 ], [ -84.253929, 35.6262 ], [ -84.254502, 35.623626 ], [ -84.254248, 35.619734 ], [ -84.253071, 35.617852 ], [ -84.249917, 35.617196 ], [ -84.245144, 35.617612 ], [ -84.242468, 35.618376 ], [ -84.234906, 35.621612 ], [ -84.230594, 35.622296 ], [ -84.228423, 35.622074 ], [ -84.22646, 35.620875 ], [ -84.22437, 35.61883 ], [ -84.221451, 35.615322 ], [ -84.220301, 35.615438 ], [ -84.218682, 35.615606 ], [ -84.213413, 35.616151 ], [ -84.20066, 35.617457 ], [ -84.199796, 35.617546 ], [ -84.196447, 35.617885 ], [ -84.195961, 35.617935 ], [ -84.194806, 35.618052 ], [ -84.194337, 35.618093 ], [ -84.19263, 35.618241 ], [ -84.191782, 35.616736 ], [ -84.191763, 35.616721 ], [ -84.191502, 35.616329 ], [ -84.191074, 35.61555 ], [ -84.190967, 35.615356 ], [ -84.190884, 35.615205 ], [ -84.190718, 35.614902 ], [ -84.188627, 35.611105 ], [ -84.188417, 35.610727 ], [ -84.188319, 35.610549 ], [ -84.188207, 35.610347 ], [ -84.187863, 35.609727 ], [ -84.187326, 35.608762 ], [ -84.186759, 35.607753 ], [ -84.186617, 35.607502 ], [ -84.186198, 35.60675 ], [ -84.185074, 35.604715 ], [ -84.184923, 35.604444 ], [ -84.184896, 35.604396 ], [ -84.184878, 35.604362 ], [ -84.184835, 35.604282 ], [ -84.184822, 35.604259 ], [ -84.184799, 35.604216 ], [ -84.184789, 35.604197 ], [ -84.184759, 35.604143 ], [ -84.184749, 35.604125 ], [ -84.183983, 35.602724 ], [ -84.18395, 35.60267 ], [ -84.183909, 35.602599 ], [ -84.183866, 35.602527 ], [ -84.183854, 35.602509 ], [ -84.183822, 35.602456 ], [ -84.181868, 35.598892 ], [ -84.176857, 35.596403 ], [ -84.170773, 35.593427 ], [ -84.1595, 35.592312 ], [ -84.1514, 35.59151 ], [ -84.14891, 35.591265 ], [ -84.14871, 35.58379 ], [ -84.140016, 35.58363 ], [ -84.13983, 35.582839 ], [ -84.140114, 35.581908 ], [ -84.140295, 35.580828 ], [ -84.138265, 35.580079 ], [ -84.132845, 35.580192 ], [ -84.13288, 35.579025 ], [ -84.130953, 35.576313 ], [ -84.127508, 35.578321 ], [ -84.125486, 35.580616 ], [ -84.125247, 35.58235 ], [ -84.12094, 35.582331 ], [ -84.119713, 35.58132 ], [ -84.118944, 35.583275 ], [ -84.11787, 35.583953 ], [ -84.112319, 35.587456 ], [ -84.109841, 35.584384 ], [ -84.110062, 35.58297 ], [ -84.109418, 35.579698 ], [ -84.112321, 35.577735 ], [ -84.111764, 35.576758 ], [ -84.110436, 35.577554 ], [ -84.107197, 35.573803 ], [ -84.105386, 35.573806 ], [ -84.10444, 35.575142 ], [ -84.096169, 35.575487 ], [ -84.096184, 35.571409 ], [ -84.096192, 35.568851 ], [ -84.096196, 35.567997 ], [ -84.092165, 35.564107 ], [ -84.091438, 35.563397 ], [ -84.087768, 35.559875 ], [ -84.089614, 35.559788 ], [ -84.094249, 35.55402 ], [ -84.094807, 35.55332 ], [ -84.091744, 35.550176 ], [ -84.090036, 35.546834 ], [ -84.088794, 35.543709 ], [ -84.085507, 35.541372 ], [ -84.081561, 35.541231 ], [ -84.076603, 35.543932 ], [ -84.072249, 35.545227 ], [ -84.070361, 35.546023 ], [ -84.06809, 35.546393 ], [ -84.062744, 35.545764 ], [ -84.05865, 35.545599 ], [ -84.054117, 35.546338 ], [ -84.050488, 35.546055 ], [ -84.04876, 35.545522 ], [ -84.046965, 35.544487 ], [ -84.045317, 35.543024 ], [ -84.042972, 35.542175 ], [ -84.040424, 35.542247 ], [ -84.038753, 35.542679 ], [ -84.032446, 35.545793 ], [ -84.030008, 35.546622 ], [ -84.025698, 35.546786 ], [ -84.022331, 35.546206 ], [ -84.019123, 35.546077 ], [ -84.014371, 35.54626 ], [ -84.012768, 35.546635 ], [ -84.011029, 35.547913 ], [ -84.010136, 35.551593 ], [ -84.008842, 35.553338 ], [ -84.007962, 35.553818 ], [ -84.0055, 35.554758 ], [ -83.999904, 35.554707 ], [ -83.998728, 35.554185 ], [ -83.995926, 35.55294 ], [ -83.993815, 35.550001 ], [ -83.994209, 35.54775 ], [ -83.996856, 35.542721 ], [ -83.99712, 35.541075 ], [ -83.994422, 35.535307 ], [ -83.992966, 35.532843 ], [ -83.992453, 35.530721 ], [ -83.993389, 35.527891 ], [ -83.994468, 35.52678 ], [ -83.995012, 35.526264 ], [ -84.000523, 35.52479 ], [ -84.004627, 35.523146 ], [ -84.007983, 35.52046 ], [ -84.010275, 35.517495 ], [ -84.01091, 35.516114 ], [ -84.010992, 35.513807 ], [ -84.009842, 35.510955 ], [ -84.007611, 35.508582 ], [ -84.001698, 35.50437 ], [ -83.996425, 35.501674 ], [ -83.991944, 35.499433 ], [ -83.990125, 35.497413 ], [ -83.989195, 35.494619 ], [ -83.989422, 35.489876 ], [ -83.987343, 35.487483 ], [ -83.984351, 35.486686 ], [ -83.982019, 35.486994 ], [ -83.980654, 35.487908 ], [ -83.978938, 35.493346 ], [ -83.978321, 35.496665 ], [ -83.976479, 35.500084 ], [ -83.975006, 35.501015 ], [ -83.972028, 35.500728 ], [ -83.96894, 35.498982 ], [ -83.961789, 35.491702 ], [ -83.959791, 35.490341 ], [ -83.957674, 35.489674 ], [ -83.95413, 35.489435 ], [ -83.951927, 35.489792 ], [ -83.950025, 35.490942 ], [ -83.944234, 35.490737 ], [ -83.942476, 35.490371 ], [ -83.939643, 35.488937 ], [ -83.93854, 35.487773 ], [ -83.93939, 35.485319 ], [ -83.941893, 35.482416 ], [ -83.943794, 35.480741 ], [ -83.945582, 35.479888 ], [ -83.950689, 35.477948 ], [ -83.955469, 35.475576 ], [ -83.958644, 35.474304 ], [ -83.963434, 35.473004 ], [ -83.965151, 35.471117 ], [ -83.965509, 35.469692 ], [ -83.965488, 35.466891 ], [ -83.964855, 35.46582 ], [ -83.963213, 35.46452 ], [ -83.961102, 35.463754 ], [ -83.96108, 35.464138 ], [ -83.957932, 35.464267 ], [ -83.955772, 35.463645 ], [ -83.954572, 35.462854 ], [ -83.952964, 35.460543 ], [ -83.949242, 35.461099 ], [ -83.947573, 35.462214 ], [ -83.947167, 35.463039 ], [ -83.94498, 35.46422 ], [ -83.942738, 35.464524 ], [ -83.94301, 35.465451 ], [ -83.94197, 35.467312 ], [ -83.938654, 35.469462 ], [ -83.936978, 35.471442 ], [ -83.934904, 35.472156 ], [ -83.929223, 35.47321 ], [ -83.927996, 35.473002 ], [ -83.925504, 35.473546 ], [ -83.924141, 35.474311 ], [ -83.921716, 35.474254 ], [ -83.920844, 35.473849 ], [ -83.919022, 35.473292 ], [ -83.91856, 35.473628 ], [ -83.915835, 35.473889 ], [ -83.913809, 35.475459 ], [ -83.911875, 35.476068 ], [ -83.908976, 35.480464 ], [ -83.909143, 35.482512 ], [ -83.908788, 35.483753 ], [ -83.907219, 35.4855 ], [ -83.905781, 35.488689 ], [ -83.901249, 35.491347 ], [ -83.900365, 35.493031 ], [ -83.900291, 35.494288 ], [ -83.901335, 35.495106 ], [ -83.901466, 35.496552 ], [ -83.898523, 35.499164 ], [ -83.897216, 35.499708 ], [ -83.896894, 35.500963 ], [ -83.894709, 35.502032 ], [ -83.892801, 35.50224 ], [ -83.889861, 35.504737 ], [ -83.887756, 35.508609 ], [ -83.884029, 35.512556 ], [ -83.883169, 35.51403 ], [ -83.883228, 35.515615 ], [ -83.880312, 35.518782 ], [ -83.879202, 35.519303 ], [ -83.876648, 35.519277 ], [ -83.872894, 35.52089 ], [ -83.868755, 35.520002 ], [ -83.863637, 35.520861 ], [ -83.861856, 35.520577 ], [ -83.858706, 35.521457 ], [ -83.857181, 35.521573 ], [ -83.854076, 35.520618 ], [ -83.849326, 35.518621 ], [ -83.846008, 35.520127 ], [ -83.845008, 35.520946 ], [ -83.842374, 35.521507 ], [ -83.840124, 35.521518 ], [ -83.835482, 35.523623 ], [ -83.832143, 35.524574 ], [ -83.827938, 35.524536 ], [ -83.825566, 35.524311 ], [ -83.823363, 35.525454 ], [ -83.820192, 35.5258 ], [ -83.819278, 35.527327 ], [ -83.816504, 35.528898 ], [ -83.812581, 35.531925 ], [ -83.809893, 35.532996 ], [ -83.808704, 35.53477 ], [ -83.808038, 35.537093 ], [ -83.806311, 35.538087 ], [ -83.802609, 35.541564 ], [ -83.798598, 35.541756 ], [ -83.796581, 35.543304 ], [ -83.794646, 35.545649 ], [ -83.791756, 35.546088 ], [ -83.790246, 35.546963 ], [ -83.786964, 35.547796 ], [ -83.785667, 35.548471 ], [ -83.784444, 35.549794 ], [ -83.782743, 35.55041 ], [ -83.780444, 35.550524 ], [ -83.779423, 35.55137 ], [ -83.778219, 35.553215 ], [ -83.777036, 35.553995 ], [ -83.775093, 35.556361 ], [ -83.772733, 35.557366 ], [ -83.772288, 35.560612 ], [ -83.771889, 35.56139 ], [ -83.770587, 35.561743 ], [ -83.767589, 35.561879 ], [ -83.765398, 35.561637 ], [ -83.764188, 35.562696 ], [ -83.759551, 35.562573 ], [ -83.755113, 35.564587 ], [ -83.75092, 35.562493 ], [ -83.747561, 35.560401 ], [ -83.746162, 35.560424 ], [ -83.74406, 35.56193 ], [ -83.743025, 35.563111 ], [ -83.741103, 35.562893 ], [ -83.738866, 35.564657 ], [ -83.736412, 35.56546 ], [ -83.734476, 35.565027 ], [ -83.73264, 35.563649 ], [ -83.73018, 35.56415 ], [ -83.728445, 35.56387 ], [ -83.727329, 35.562789 ], [ -83.722536, 35.562357 ], [ -83.721112, 35.563379 ], [ -83.717956, 35.564062 ], [ -83.715358, 35.563897 ], [ -83.714007, 35.564183 ], [ -83.712591, 35.566305 ], [ -83.71023, 35.566601 ], [ -83.708079, 35.568041 ], [ -83.706607, 35.568612 ], [ -83.704328, 35.568673 ], [ -83.701323, 35.56747 ], [ -83.697088, 35.569564 ], [ -83.696087, 35.570295 ], [ -83.695045, 35.57024 ], [ -83.692262, 35.568713 ], [ -83.689687, 35.568972 ], [ -83.687697, 35.568197 ], [ -83.684416, 35.568933 ], [ -83.682763, 35.568752 ], [ -83.679825, 35.57034 ], [ -83.678238, 35.569768 ], [ -83.676699, 35.570219 ], [ -83.674554, 35.570104 ], [ -83.673169, 35.569395 ], [ -83.667617, 35.56929 ], [ -83.664874, 35.5698 ], [ -83.662999, 35.569468 ], [ -83.663223, 35.605865 ], [ -83.663291, 35.61681 ], [ -83.662818, 35.62509 ], [ -83.662817, 35.6283 ], [ -83.662814, 35.663347 ], [ -83.662805, 35.669558 ], [ -83.662769, 35.674507 ], [ -83.662767, 35.674779 ], [ -83.662779, 35.679598 ], [ -83.662814, 35.690618 ], [ -83.66545, 35.68772 ], [ -83.667733, 35.686564 ], [ -83.672381, 35.685548 ], [ -83.674272, 35.685497 ], [ -83.679138, 35.688353 ], [ -83.679732, 35.691156 ], [ -83.67987, 35.691605 ], [ -83.679833, 35.693393 ], [ -83.681278, 35.696807 ], [ -83.680846, 35.697726 ], [ -83.681704, 35.698463 ], [ -83.682507, 35.700689 ], [ -83.682106, 35.702511 ], [ -83.679947, 35.706512 ], [ -83.680502, 35.707865 ], [ -83.682161, 35.709772 ], [ -83.682831, 35.709725 ], [ -83.687532, 35.710051 ], [ -83.690092, 35.709111 ], [ -83.691351, 35.708319 ], [ -83.693922, 35.708274 ], [ -83.695369, 35.707506 ], [ -83.69672, 35.708132 ], [ -83.698652, 35.708112 ], [ -83.700407, 35.709059 ], [ -83.702152, 35.709217 ], [ -83.70525, 35.71158 ], [ -83.703213, 35.713042 ], [ -83.701985, 35.716017 ], [ -83.701979, 35.716478 ], [ -83.701431, 35.718091 ], [ -83.701344, 35.719276 ], [ -83.701985, 35.719444 ], [ -83.702971, 35.719482 ], [ -83.704262, 35.719649 ], [ -83.705178, 35.719389 ], [ -83.705772, 35.719984 ], [ -83.707398, 35.720214 ], [ -83.708138, 35.720664 ], [ -83.708795, 35.723387 ], [ -83.709033, 35.724144 ], [ -83.708395, 35.725112 ], [ -83.707775, 35.725895 ], [ -83.707807, 35.726685 ], [ -83.708251, 35.72724 ], [ -83.708951, 35.727238 ], [ -83.709887, 35.727091 ], [ -83.712961, 35.726819 ], [ -83.714283, 35.727445 ], [ -83.715626, 35.72829 ], [ -83.716462, 35.729035 ], [ -83.716671, 35.730682 ], [ -83.717945, 35.741162 ], [ -83.718914, 35.747726 ], [ -83.721813, 35.748114 ], [ -83.724588, 35.749808 ], [ -83.724177, 35.751875 ], [ -83.724349, 35.753151 ], [ -83.726288, 35.752602 ], [ -83.728222, 35.752584 ], [ -83.728769, 35.753684 ], [ -83.729968, 35.754302 ], [ -83.729604, 35.75652 ], [ -83.73003, 35.758564 ], [ -83.728399, 35.759575 ], [ -83.727931, 35.760978 ], [ -83.726042, 35.762796 ], [ -83.726148, 35.763369 ], [ -83.728684, 35.762418 ], [ -83.729723, 35.763754 ], [ -83.73105, 35.764372 ], [ -83.731987, 35.766361 ], [ -83.731754, 35.76787 ], [ -83.734186, 35.772657 ], [ -83.739099, 35.782329 ], [ -83.740369, 35.784828 ], [ -83.74337, 35.790539 ], [ -83.747317, 35.798398 ], [ -83.746762, 35.801281 ], [ -83.746258, 35.802029 ], [ -83.746127, 35.802134 ], [ -83.742206, 35.805064 ], [ -83.739518, 35.806815 ], [ -83.739503, 35.808292 ], [ -83.73877, 35.811534 ], [ -83.740289, 35.811249 ], [ -83.740509, 35.810483 ], [ -83.742528, 35.810773 ], [ -83.742978, 35.809031 ], [ -83.743998, 35.807848 ], [ -83.746998, 35.809392 ], [ -83.748124, 35.808621 ], [ -83.749895, 35.808725 ], [ -83.751315, 35.811028 ], [ -83.75159, 35.811472 ], [ -83.75406, 35.815475 ], [ -83.755968, 35.818571 ], [ -83.757287, 35.817528 ], [ -83.761376, 35.825255 ], [ -83.764022, 35.830257 ], [ -83.769984, 35.841519 ], [ -83.771012, 35.843462 ], [ -83.772214, 35.845733 ], [ -83.769008, 35.847506 ], [ -83.77056, 35.849338 ], [ -83.773604, 35.852931 ], [ -83.774387, 35.853331 ], [ -83.774569, 35.853314 ], [ -83.777646, 35.851898 ], [ -83.7781, 35.852785 ], [ -83.778602, 35.853778 ], [ -83.78021, 35.855975 ], [ -83.782892, 35.8548 ], [ -83.783247, 35.855282 ], [ -83.783842, 35.856084 ], [ -83.784286, 35.856686 ], [ -83.780726, 35.858533 ], [ -83.781644, 35.860217 ], [ -83.779405, 35.859291 ], [ -83.77988, 35.860184 ], [ -83.780389, 35.861143 ], [ -83.780888, 35.862078 ], [ -83.781383, 35.863007 ], [ -83.781882, 35.863948 ], [ -83.782374, 35.864852 ], [ -83.782879, 35.865735 ], [ -83.784302, 35.868486 ], [ -83.784323, 35.870089 ], [ -83.784661, 35.870889 ], [ -83.784569, 35.87323 ], [ -83.784391, 35.875273 ], [ -83.784379, 35.876163 ], [ -83.784186, 35.879205 ], [ -83.784512, 35.879578 ], [ -83.78634, 35.880088 ], [ -83.788026, 35.882758 ], [ -83.788115, 35.882904 ], [ -83.78872, 35.884119 ], [ -83.791596, 35.884107 ], [ -83.791899, 35.884273 ], [ -83.792318, 35.884545 ], [ -83.79328, 35.885457 ], [ -83.793404, 35.885597 ], [ -83.793452, 35.885674 ], [ -83.793485, 35.885717 ], [ -83.793568, 35.885858 ], [ -83.794275, 35.887125 ], [ -83.791627, 35.889317 ], [ -83.783722, 35.892613 ], [ -83.782186, 35.894917 ], [ -83.780378, 35.895189 ], [ -83.778858, 35.896613 ], [ -83.77897, 35.898533 ], [ -83.777354, 35.900309 ], [ -83.777306, 35.901461 ], [ -83.775578, 35.902325 ], [ -83.773962, 35.903909 ], [ -83.774202, 35.905285 ], [ -83.771418, 35.907029 ], [ -83.770522, 35.906997 ], [ -83.768058, 35.908262 ], [ -83.767082, 35.909654 ], [ -83.767594, 35.911462 ], [ -83.764266, 35.91327 ], [ -83.760394, 35.914486 ], [ -83.75801, 35.914758 ], [ -83.75449, 35.916614 ], [ -83.75257, 35.918278 ], [ -83.751514, 35.918294 ], [ -83.746601, 35.919512 ], [ -83.743876, 35.920582 ], [ -83.74072, 35.920988 ], [ -83.740297, 35.919566 ], [ -83.738506, 35.916966 ], [ -83.732792, 35.919572 ], [ -83.728563, 35.922734 ], [ -83.721355, 35.927184 ], [ -83.718711, 35.9281 ], [ -83.715954, 35.930138 ], [ -83.714871, 35.930456 ], [ -83.712497, 35.932096 ], [ -83.708078, 35.934119 ], [ -83.705769, 35.936542 ], [ -83.702113, 35.938731 ], [ -83.700499, 35.939262 ], [ -83.69874, 35.939306 ], [ -83.697792, 35.939763 ], [ -83.696586, 35.9422 ], [ -83.695761, 35.943097 ], [ -83.694578, 35.943887 ], [ -83.693364, 35.9447 ], [ -83.691118, 35.94192 ], [ -83.690172, 35.940849 ], [ -83.68876, 35.93946 ], [ -83.688078, 35.938647 ], [ -83.686997, 35.93773 ], [ -83.68614, 35.937197 ], [ -83.685248, 35.936829 ], [ -83.684532, 35.936637 ], [ -83.683627, 35.936846 ], [ -83.68306, 35.937598 ], [ -83.682911, 35.938565 ], [ -83.683087, 35.939784 ], [ -83.683904, 35.941426 ], [ -83.684863, 35.942898 ], [ -83.685579, 35.943535 ], [ -83.686687, 35.944963 ], [ -83.687174, 35.945837 ], [ -83.687363, 35.946452 ], [ -83.687383, 35.947946 ], [ -83.687302, 35.948786 ], [ -83.687073, 35.949335 ], [ -83.686586, 35.949967 ], [ -83.68556, 35.950637 ], [ -83.684121, 35.951175 ], [ -83.682203, 35.951703 ], [ -83.680129, 35.952158 ], [ -83.677771, 35.952889 ], [ -83.676778, 35.953317 ], [ -83.675502, 35.954152 ], [ -83.674772, 35.954723 ], [ -83.673988, 35.955498 ], [ -83.672793, 35.956409 ], [ -83.67232, 35.957118 ], [ -83.671788, 35.957485 ], [ -83.668746, 35.959748 ], [ -83.668002, 35.960517 ], [ -83.667671, 35.961303 ], [ -83.667341, 35.961643 ], [ -83.663852, 35.96445 ], [ -83.663769, 35.965065 ], [ -83.662371, 35.966444 ], [ -83.657002, 35.970241 ], [ -83.654605, 35.971937 ], [ -83.655755, 35.974894 ], [ -83.657978, 35.9805 ], [ -83.659711, 35.985887 ], [ -83.657032, 35.986717 ], [ -83.651601, 35.986108 ], [ -83.651544, 35.986131 ], [ -83.650957, 35.986368 ], [ -83.650947, 35.986481 ], [ -83.650917, 35.987063 ], [ -83.65093, 35.987403 ], [ -83.651061, 35.988291 ], [ -83.651071, 35.988301 ], [ -83.651287, 35.989625 ], [ -83.654169, 35.989814 ], [ -83.656053, 35.989938 ], [ -83.655857, 35.990558 ], [ -83.658261, 35.990669 ], [ -83.661938, 35.991507 ], [ -83.662206, 35.992307 ], [ -83.663176, 35.995193 ], [ -83.665474, 36.001564 ], [ -83.665534, 36.001698 ], [ -83.665836, 36.002316 ], [ -83.668966, 36.008734 ], [ -83.669554, 36.014191 ], [ -83.669979, 36.018314 ], [ -83.673398, 36.025486 ], [ -83.677274, 36.025592 ], [ -83.677496, 36.028068 ], [ -83.675698, 36.028386 ], [ -83.674898, 36.029586 ], [ -83.674541, 36.0331 ], [ -83.674453, 36.033971 ], [ -83.674284, 36.035645 ], [ -83.673398, 36.036386 ], [ -83.673297, 36.038486 ], [ -83.664997, 36.036486 ], [ -83.664097, 36.034887 ], [ -83.661196, 36.035387 ], [ -83.658633, 36.036432 ], [ -83.65668, 36.034579 ], [ -83.656181, 36.034559 ], [ -83.656791, 36.041081 ], [ -83.656897, 36.042337 ], [ -83.655597, 36.043119 ], [ -83.654326, 36.044326 ], [ -83.652103, 36.045631 ], [ -83.649928, 36.047491 ], [ -83.649633, 36.047844 ], [ -83.646268, 36.048414 ], [ -83.644696, 36.049212 ], [ -83.642377, 36.051323 ], [ -83.639511, 36.053102 ], [ -83.63907, 36.055377 ], [ -83.637279, 36.055559 ], [ -83.637704, 36.059613 ], [ -83.638186, 36.061015 ], [ -83.637285, 36.062428 ], [ -83.634225, 36.062233 ], [ -83.633898, 36.064014 ], [ -83.632131, 36.066749 ], [ -83.632128, 36.068071 ], [ -83.632768, 36.068913 ], [ -83.631968, 36.071046 ], [ -83.632775, 36.072523 ], [ -83.632924, 36.073813 ], [ -83.633009, 36.073967 ], [ -83.627664, 36.076245 ], [ -83.627867, 36.079904 ], [ -83.633339, 36.078172 ], [ -83.63841, 36.076759 ], [ -83.638493, 36.076934 ], [ -83.652025, 36.073136 ], [ -83.652234, 36.072866 ], [ -83.656719, 36.071171 ], [ -83.658782, 36.070011 ], [ -83.66036, 36.069761 ], [ -83.660267, 36.068458 ], [ -83.667995, 36.067506 ], [ -83.669342, 36.067255 ], [ -83.669609, 36.068071 ], [ -83.66988, 36.068872 ], [ -83.670165, 36.069718 ], [ -83.671316, 36.073503 ], [ -83.671324, 36.073558 ], [ -83.671113, 36.075796 ], [ -83.669921, 36.07656 ], [ -83.669282, 36.079111 ], [ -83.666623, 36.080111 ], [ -83.662435, 36.081582 ], [ -83.659748, 36.083855 ], [ -83.658902, 36.085415 ], [ -83.658725, 36.088826 ], [ -83.659591, 36.09144 ], [ -83.661174, 36.093736 ], [ -83.663535, 36.096472 ], [ -83.663894, 36.096126 ], [ -83.668095, 36.100152 ], [ -83.668914, 36.101586 ], [ -83.668576, 36.103403 ], [ -83.669015, 36.106035 ], [ -83.669834, 36.107821 ], [ -83.668, 36.10755 ], [ -83.672188, 36.110526 ], [ -83.673994, 36.115403 ], [ -83.674625, 36.116648 ], [ -83.675567, 36.117112 ], [ -83.675702, 36.11972 ], [ -83.675614, 36.12094 ], [ -83.674688, 36.124463 ], [ -83.673681, 36.125495 ], [ -83.671846, 36.126184 ], [ -83.667179, 36.12666 ], [ -83.666774, 36.126657 ], [ -83.666417, 36.122074 ], [ -83.665035, 36.121338 ], [ -83.660364, 36.121011 ], [ -83.659948, 36.121847 ], [ -83.659762, 36.12578 ], [ -83.659496, 36.126208 ], [ -83.655422, 36.125271 ], [ -83.652811, 36.125557 ], [ -83.651522, 36.125151 ], [ -83.652121, 36.122291 ], [ -83.650251, 36.11817 ], [ -83.64879, 36.115715 ], [ -83.647904, 36.11392 ], [ -83.647813, 36.112846 ], [ -83.648104, 36.111526 ], [ -83.648792, 36.110252 ], [ -83.649921, 36.109347 ], [ -83.651112, 36.108769 ], [ -83.652426, 36.108299 ], [ -83.65344, 36.107739 ], [ -83.654252, 36.106757 ], [ -83.654559, 36.105672 ], [ -83.654348, 36.10458 ], [ -83.653924, 36.103163 ], [ -83.652916, 36.101584 ], [ -83.65158, 36.099978 ], [ -83.649915, 36.099004 ], [ -83.645359, 36.097211 ], [ -83.643584, 36.096992 ], [ -83.641323, 36.09707 ], [ -83.638319, 36.097996 ], [ -83.636011, 36.098808 ], [ -83.632115, 36.099781 ], [ -83.631073, 36.100236 ], [ -83.63001, 36.101279 ], [ -83.62892, 36.104532 ], [ -83.628798, 36.105082 ], [ -83.628802, 36.105216 ], [ -83.628774, 36.1055 ], [ -83.628717, 36.105746 ], [ -83.628693, 36.105909 ], [ -83.628681, 36.105994 ], [ -83.628605, 36.106633 ], [ -83.628585, 36.107025 ], [ -83.628595, 36.1073 ], [ -83.628617, 36.10788 ], [ -83.628628, 36.108022 ], [ -83.628672, 36.108412 ], [ -83.628725, 36.108874 ], [ -83.628706, 36.109159 ], [ -83.628707, 36.109246 ], [ -83.628415, 36.109689 ], [ -83.628174, 36.111541 ], [ -83.628063, 36.113443 ], [ -83.628005, 36.11446 ], [ -83.627717, 36.118014 ], [ -83.627776, 36.119798 ], [ -83.627722, 36.122976 ], [ -83.628109, 36.123602 ], [ -83.629399, 36.125086 ], [ -83.630202, 36.125455 ], [ -83.6309, 36.125585 ], [ -83.6316, 36.125585 ], [ -83.6338, 36.125785 ], [ -83.6344, 36.125885 ], [ -83.6364, 36.126585 ], [ -83.6379, 36.127385 ], [ -83.6384, 36.127885 ], [ -83.638938, 36.128592 ], [ -83.6391, 36.128985 ], [ -83.6395, 36.130785 ], [ -83.639696, 36.132485 ], [ -83.639301, 36.135285 ], [ -83.639001, 36.136585 ], [ -83.638701, 36.138785 ], [ -83.638501, 36.139685 ], [ -83.638301, 36.141485 ], [ -83.637901, 36.143185 ], [ -83.637701, 36.143685 ], [ -83.637201, 36.144385 ], [ -83.636001, 36.144985 ], [ -83.635501, 36.145085 ], [ -83.634101, 36.144985 ], [ -83.633401, 36.144785 ], [ -83.632801, 36.144485 ], [ -83.632001, 36.143885 ], [ -83.631501, 36.143185 ], [ -83.630801, 36.141285 ], [ -83.6303, 36.140285 ], [ -83.6294, 36.138985 ], [ -83.6285, 36.138485 ], [ -83.6277, 36.138485 ], [ -83.6262, 36.138985 ], [ -83.6249, 36.139885 ], [ -83.624262, 36.140746 ], [ -83.622761, 36.142327 ], [ -83.62163, 36.143171 ], [ -83.6208, 36.143596 ], [ -83.619863, 36.143729 ], [ -83.618869, 36.143523 ], [ -83.617618, 36.143 ], [ -83.616975, 36.142027 ], [ -83.616265, 36.140284 ], [ -83.615886, 36.139029 ], [ -83.614717, 36.135594 ], [ -83.614029, 36.134427 ], [ -83.613192, 36.133193 ], [ -83.611809, 36.13182 ], [ -83.610743, 36.130602 ], [ -83.609809, 36.130177 ], [ -83.608555, 36.130139 ], [ -83.607259, 36.130407 ], [ -83.606652, 36.131553 ], [ -83.606754, 36.13258 ], [ -83.607088, 36.133302 ], [ -83.607659, 36.134121 ], [ -83.609266, 36.135236 ], [ -83.611034, 36.136934 ], [ -83.611916, 36.138222 ], [ -83.612796, 36.139906 ], [ -83.612594, 36.140596 ], [ -83.6119, 36.141186 ], [ -83.6109, 36.141386 ], [ -83.6102, 36.141286 ], [ -83.609064, 36.140768 ], [ -83.607939, 36.139943 ], [ -83.604223, 36.138299 ], [ -83.60191, 36.138902 ], [ -83.600513, 36.140199 ], [ -83.599597, 36.142867 ], [ -83.599989, 36.146557 ], [ -83.600272, 36.147085 ], [ -83.6013, 36.148886 ], [ -83.6018, 36.150886 ], [ -83.601383, 36.153626 ], [ -83.6006, 36.156386 ], [ -83.60034, 36.158517 ], [ -83.599807, 36.160423 ], [ -83.598631, 36.16311 ], [ -83.597766, 36.164182 ], [ -83.596175, 36.165136 ], [ -83.593826, 36.166192 ], [ -83.59194, 36.166636 ], [ -83.590865, 36.166517 ], [ -83.59019, 36.166199 ], [ -83.589567, 36.16563 ], [ -83.589007, 36.164592 ], [ -83.58856, 36.163239 ], [ -83.588819, 36.161906 ], [ -83.589353, 36.159943 ], [ -83.589833, 36.158369 ], [ -83.589855, 36.156865 ], [ -83.589335, 36.1559 ], [ -83.588666, 36.154942 ], [ -83.587484, 36.154443 ], [ -83.585973, 36.154185 ], [ -83.58421, 36.154135 ], [ -83.582944, 36.154259 ], [ -83.581895, 36.154698 ], [ -83.580903, 36.155494 ], [ -83.580557, 36.156382 ], [ -83.58047, 36.157295 ], [ -83.58058, 36.158476 ], [ -83.580883, 36.160386 ], [ -83.581606, 36.162169 ], [ -83.582487, 36.164115 ], [ -83.582945, 36.165411 ], [ -83.582978, 36.16622 ], [ -83.582623, 36.167051 ], [ -83.58224, 36.167591 ], [ -83.581419, 36.168104 ], [ -83.580451, 36.168358 ], [ -83.579294, 36.168482 ], [ -83.577961, 36.168257 ], [ -83.576769, 36.167854 ], [ -83.574697, 36.16705 ], [ -83.573609, 36.166445 ], [ -83.572143, 36.166053 ], [ -83.571019, 36.165968 ], [ -83.569, 36.165586 ], [ -83.5672, 36.165886 ], [ -83.5667, 36.165886 ], [ -83.564399, 36.166486 ], [ -83.5633, 36.168186 ], [ -83.5627, 36.168986 ], [ -83.5622, 36.170386 ], [ -83.5619, 36.171486 ], [ -83.5618, 36.172486 ], [ -83.5619, 36.173486 ], [ -83.5624, 36.175386 ], [ -83.563, 36.176886 ], [ -83.5637, 36.178086 ], [ -83.5649, 36.179986 ], [ -83.5655, 36.180786 ], [ -83.5666, 36.182786 ], [ -83.567, 36.183786 ], [ -83.5673, 36.184886 ], [ -83.5677, 36.186886 ], [ -83.5678, 36.187886 ], [ -83.5677, 36.188986 ], [ -83.5673, 36.190086 ], [ -83.5662, 36.191186 ], [ -83.5651, 36.191686 ], [ -83.564033, 36.191896 ], [ -83.563013, 36.191976 ], [ -83.562164, 36.191607 ], [ -83.5609, 36.190186 ], [ -83.5604, 36.189486 ], [ -83.5595, 36.187986 ], [ -83.5592, 36.186286 ], [ -83.5592, 36.183886 ], [ -83.5593, 36.182386 ], [ -83.5591, 36.180486 ], [ -83.5586, 36.179786 ], [ -83.5573, 36.179286 ], [ -83.5562, 36.179386 ], [ -83.5532, 36.179387 ], [ -83.5517, 36.179287 ], [ -83.5493, 36.179587 ], [ -83.547299, 36.180287 ], [ -83.544799, 36.181487 ], [ -83.543143, 36.181813 ], [ -83.539199, 36.181787 ], [ -83.536999, 36.180787 ], [ -83.535999, 36.179287 ], [ -83.535699, 36.174987 ], [ -83.535799, 36.170687 ], [ -83.535116, 36.168024 ], [ -83.533435, 36.165632 ], [ -83.530558, 36.163326 ], [ -83.528262, 36.162559 ], [ -83.526218, 36.163176 ], [ -83.524235, 36.165052 ], [ -83.523755, 36.166288 ], [ -83.523125, 36.167849 ], [ -83.522276, 36.172439 ], [ -83.521299, 36.175487 ], [ -83.519936, 36.177349 ], [ -83.518896, 36.178186 ], [ -83.516486, 36.178194 ], [ -83.515524, 36.178053 ], [ -83.512605, 36.175797 ], [ -83.51085, 36.173766 ], [ -83.50762, 36.170731 ], [ -83.505612, 36.169103 ], [ -83.504385, 36.168556 ], [ -83.499898, 36.167488 ], [ -83.497998, 36.167588 ], [ -83.497473, 36.167491 ], [ -83.492897, 36.166088 ], [ -83.490697, 36.166588 ], [ -83.488797, 36.166888 ], [ -83.485097, 36.166788 ], [ -83.483497, 36.167088 ], [ -83.472397, 36.171688 ], [ -83.467097, 36.174688 ], [ -83.466197, 36.176488 ], [ -83.465697, 36.178488 ], [ -83.466903, 36.181941 ], [ -83.468697, 36.185388 ], [ -83.468297, 36.187288 ], [ -83.465897, 36.188888 ], [ -83.461697, 36.188089 ], [ -83.460297, 36.188089 ], [ -83.453597, 36.188889 ], [ -83.451597, 36.189289 ], [ -83.449097, 36.190289 ], [ -83.447197, 36.192589 ], [ -83.446897, 36.194889 ], [ -83.447297, 36.196289 ], [ -83.450297, 36.200589 ], [ -83.451197, 36.203189 ], [ -83.451016, 36.20607 ], [ -83.450597, 36.208889 ], [ -83.450798, 36.213289 ], [ -83.450398, 36.216089 ], [ -83.449498, 36.217989 ], [ -83.447398, 36.219889 ], [ -83.442498, 36.222789 ], [ -83.440497, 36.222189 ], [ -83.439097, 36.221089 ], [ -83.437997, 36.218489 ], [ -83.439097, 36.213889 ], [ -83.438797, 36.212289 ], [ -83.437561, 36.211483 ], [ -83.434197, 36.209889 ], [ -83.433432, 36.209889 ], [ -83.432297, 36.209889 ], [ -83.426597, 36.211489 ], [ -83.424397, 36.212789 ], [ -83.422297, 36.214589 ], [ -83.416096, 36.219389 ], [ -83.415896, 36.220689 ], [ -83.416697, 36.223089 ], [ -83.420897, 36.228689 ], [ -83.421697, 36.230989 ], [ -83.421497, 36.232689 ], [ -83.419897, 36.236289 ], [ -83.416297, 36.241289 ], [ -83.411297, 36.247289 ], [ -83.409497, 36.248789 ], [ -83.407397, 36.249589 ], [ -83.405897, 36.250089 ], [ -83.397097, 36.253189 ], [ -83.394497, 36.255489 ], [ -83.393097, 36.258089 ], [ -83.392597, 36.259789 ], [ -83.389831, 36.262743 ], [ -83.387697, 36.264589 ], [ -83.386797, 36.265089 ], [ -83.385997, 36.265389 ], [ -83.384751, 36.265588 ], [ -83.384197, 36.265689 ], [ -83.382697, 36.26549 ], [ -83.381502, 36.265431 ], [ -83.379096, 36.26529 ], [ -83.377496, 36.26529 ], [ -83.375596, 36.26569 ], [ -83.374896, 36.26569 ], [ -83.373596, 36.26569 ], [ -83.373196, 36.26559 ], [ -83.371896, 36.26559 ], [ -83.370596, 36.26539 ], [ -83.369396, 36.26539 ], [ -83.367196, 36.26559 ], [ -83.366296, 36.26579 ], [ -83.365596, 36.26579 ], [ -83.364996, 36.26609 ], [ -83.362196, 36.26769 ], [ -83.361796, 36.26899 ], [ -83.361896, 36.27039 ], [ -83.362296, 36.27169 ], [ -83.363396, 36.27259 ], [ -83.363796, 36.27329 ], [ -83.364196, 36.27449 ], [ -83.364396, 36.27599 ], [ -83.363496, 36.27819 ], [ -83.362996, 36.27899 ], [ -83.361696, 36.28009 ], [ -83.360896, 36.28059 ], [ -83.359796, 36.28149 ], [ -83.358296, 36.28219 ], [ -83.356796, 36.28249 ], [ -83.355196, 36.28259 ], [ -83.353796, 36.28239 ], [ -83.352496, 36.28209 ], [ -83.352096, 36.28189 ], [ -83.349596, 36.28129 ], [ -83.348896, 36.28119 ], [ -83.347196, 36.28059 ], [ -83.346296, 36.28009 ], [ -83.344795, 36.27939 ], [ -83.344195, 36.27919 ], [ -83.342895, 36.27919 ], [ -83.340995, 36.27949 ], [ -83.340195, 36.27989 ], [ -83.339595, 36.28049 ], [ -83.338295, 36.28139 ], [ -83.336895, 36.28209 ], [ -83.334695, 36.28279 ], [ -83.333795, 36.28359 ], [ -83.333495, 36.28409 ], [ -83.333395, 36.28479 ], [ -83.332995, 36.28649 ], [ -83.332995, 36.28709 ], [ -83.332795, 36.28889 ], [ -83.332795, 36.29079 ], [ -83.332495, 36.29249 ], [ -83.331795, 36.29389 ], [ -83.331195, 36.29469 ], [ -83.330195, 36.29569 ], [ -83.328977, 36.296149 ], [ -83.328295, 36.29669 ], [ -83.327095, 36.29669 ], [ -83.325595, 36.29629 ], [ -83.323895, 36.29569 ], [ -83.322295, 36.29499 ], [ -83.321695, 36.29459 ], [ -83.320624, 36.293319 ], [ -83.319493, 36.29229 ], [ -83.318592, 36.290889 ], [ -83.318391, 36.290289 ], [ -83.31799, 36.287789 ], [ -83.31819, 36.287289 ], [ -83.319089, 36.285987 ], [ -83.319689, 36.285287 ], [ -83.319989, 36.284586 ], [ -83.319988, 36.283685 ], [ -83.319187, 36.281685 ], [ -83.318084, 36.279884 ], [ -83.317784, 36.279584 ], [ -83.317483, 36.278784 ], [ -83.316682, 36.278384 ], [ -83.316182, 36.277684 ], [ -83.315181, 36.276784 ], [ -83.31398, 36.276385 ], [ -83.31358, 36.276485 ], [ -83.312279, 36.276486 ], [ -83.311878, 36.276086 ], [ -83.311177, 36.274886 ], [ -83.310776, 36.273885 ], [ -83.310476, 36.273385 ], [ -83.310175, 36.272385 ], [ -83.309974, 36.271184 ], [ -83.310374, 36.270284 ], [ -83.310274, 36.270084 ], [ -83.309273, 36.269284 ], [ -83.308873, 36.269184 ], [ -83.308072, 36.268484 ], [ -83.307571, 36.268284 ], [ -83.306571, 36.268085 ], [ -83.30567, 36.268085 ], [ -83.30507, 36.268186 ], [ -83.30397, 36.268887 ], [ -83.30297, 36.270188 ], [ -83.30237, 36.271589 ], [ -83.302171, 36.27219 ], [ -83.301471, 36.273291 ], [ -83.300671, 36.274092 ], [ -83.299871, 36.275193 ], [ -83.298971, 36.276094 ], [ -83.298271, 36.276394 ], [ -83.296771, 36.277396 ], [ -83.29557, 36.277897 ], [ -83.29447, 36.278097 ], [ -83.293969, 36.277798 ], [ -83.292968, 36.277398 ], [ -83.292067, 36.276498 ], [ -83.291566, 36.275798 ], [ -83.291165, 36.274697 ], [ -83.290663, 36.271996 ], [ -83.290862, 36.270595 ], [ -83.291262, 36.269494 ], [ -83.291461, 36.268494 ], [ -83.292161, 36.266692 ], [ -83.29216, 36.266192 ], [ -83.29196, 36.265093 ], [ -83.291459, 36.263792 ], [ -83.290157, 36.262692 ], [ -83.288456, 36.262293 ], [ -83.287892, 36.262293 ], [ -83.285554, 36.261995 ], [ -83.284111, 36.261996 ], [ -83.282055, 36.262097 ], [ -83.279358, 36.263197 ], [ -83.27826, 36.264497 ], [ -83.27816, 36.265596 ], [ -83.278662, 36.268995 ], [ -83.278964, 36.27309 ], [ -83.278566, 36.276088 ], [ -83.276568, 36.276688 ], [ -83.273369, 36.274392 ], [ -83.27237, 36.273993 ], [ -83.269371, 36.273895 ], [ -83.267073, 36.274296 ], [ -83.266274, 36.274996 ], [ -83.265476, 36.276995 ], [ -83.26628, 36.28259 ], [ -83.26718, 36.283789 ], [ -83.267281, 36.285087 ], [ -83.265983, 36.286687 ], [ -83.263286, 36.288487 ], [ -83.259989, 36.288989 ], [ -83.255292, 36.289092 ], [ -83.255885, 36.290252 ], [ -83.258609, 36.295468 ], [ -83.259147, 36.296498 ], [ -83.260178, 36.298472 ], [ -83.262717, 36.30333 ], [ -83.263132, 36.304125 ], [ -83.263642, 36.305101 ], [ -83.265274, 36.30744 ], [ -83.265371, 36.307574 ], [ -83.265662, 36.307978 ], [ -83.26576, 36.308113 ], [ -83.269312, 36.313028 ], [ -83.269427, 36.313187 ], [ -83.269773, 36.313666 ], [ -83.269889, 36.313826 ], [ -83.271731, 36.316099 ], [ -83.272144, 36.316677 ], [ -83.273318, 36.318522 ], [ -83.27369, 36.319086 ], [ -83.273694, 36.322691 ], [ -83.269066, 36.325646 ], [ -83.265635, 36.327837 ], [ -83.26558, 36.333347 ], [ -83.265379, 36.33484 ], [ -83.265128, 36.336936 ], [ -83.264506, 36.344752 ], [ -83.264498, 36.344993 ], [ -83.264499, 36.345249 ], [ -83.264612, 36.346975 ], [ -83.264799, 36.349772 ], [ -83.264894, 36.35119 ], [ -83.267194, 36.35309 ], [ -83.267895, 36.354815 ], [ -83.271217, 36.363001 ], [ -83.272281, 36.365617 ], [ -83.273295, 36.37019 ], [ -83.283095, 36.37149 ], [ -83.28578, 36.373685 ], [ -83.287436, 36.375283 ], [ -83.288896, 36.378889 ], [ -83.285496, 36.380489 ], [ -83.282496, 36.382389 ], [ -83.279096, 36.383089 ], [ -83.273895, 36.384689 ], [ -83.274396, 36.386089 ], [ -83.275996, 36.386389 ], [ -83.277596, 36.388389 ], [ -83.277596, 36.390489 ], [ -83.280595, 36.394689 ], [ -83.284796, 36.393989 ], [ -83.286596, 36.393989 ], [ -83.292996, 36.392489 ], [ -83.293896, 36.391889 ], [ -83.296496, 36.391089 ], [ -83.298096, 36.390189 ], [ -83.298996, 36.390289 ], [ -83.300497, 36.389289 ], [ -83.304197, 36.388189 ], [ -83.307497, 36.392789 ], [ -83.308597, 36.396789 ], [ -83.308297, 36.399189 ], [ -83.308597, 36.399589 ], [ -83.3153, 36.398794 ], [ -83.315379, 36.398956 ], [ -83.317531, 36.403327 ], [ -83.317781, 36.403833 ], [ -83.318526, 36.405327 ], [ -83.321132, 36.404954 ], [ -83.323014, 36.404263 ], [ -83.325157, 36.407941 ], [ -83.328197, 36.409685 ], [ -83.329498, 36.408086 ], [ -83.331698, 36.407886 ], [ -83.332698, 36.408287 ], [ -83.334998, 36.407587 ], [ -83.336756, 36.409849 ], [ -83.339198, 36.408488 ], [ -83.340998, 36.408388 ], [ -83.348522, 36.416115 ], [ -83.352099, 36.419787 ], [ -83.353099, 36.419087 ], [ -83.354999, 36.419387 ], [ -83.355799, 36.418587 ], [ -83.358699, 36.417087 ], [ -83.359899, 36.417387 ], [ -83.362199, 36.416587 ], [ -83.365099, 36.415087 ], [ -83.367099, 36.414887 ], [ -83.372, 36.412987 ], [ -83.3727, 36.413287 ], [ -83.378243, 36.411468 ], [ -83.380076, 36.4113 ], [ -83.381784, 36.408904 ], [ -83.383367, 36.409647 ], [ -83.385991, 36.409006 ], [ -83.387283, 36.409073 ], [ -83.389443, 36.408162 ], [ -83.390042, 36.410823 ], [ -83.390239, 36.411693 ], [ -83.387368, 36.412656 ], [ -83.3868, 36.413186 ], [ -83.386059, 36.413734 ], [ -83.38586, 36.414089 ], [ -83.385742, 36.414832 ], [ -83.386085, 36.415976 ], [ -83.38659, 36.416714 ], [ -83.387389, 36.417686 ], [ -83.387813, 36.418695 ], [ -83.387607, 36.419403 ], [ -83.387284, 36.419724 ], [ -83.386123, 36.420089 ], [ -83.380108, 36.420415 ], [ -83.378819, 36.420978 ], [ -83.377917, 36.422008 ], [ -83.377518, 36.42354 ], [ -83.37742, 36.424521 ], [ -83.37775, 36.427913 ], [ -83.377692, 36.430067 ], [ -83.377027, 36.430722 ], [ -83.376038, 36.431185 ], [ -83.375544, 36.431443 ], [ -83.374104, 36.43129 ], [ -83.373094, 36.43086 ], [ -83.373012, 36.431025 ], [ -83.371586, 36.433905 ], [ -83.370078, 36.446326 ], [ -83.369901, 36.449375 ], [ -83.369831, 36.450758 ], [ -83.369401, 36.459186 ], [ -83.370312, 36.46197 ], [ -83.373272, 36.47102 ], [ -83.374901, 36.476255 ], [ -83.37598, 36.481912 ], [ -83.377228, 36.484329 ], [ -83.378042, 36.487039 ], [ -83.378406, 36.487685 ], [ -83.379196, 36.490022 ], [ -83.380823, 36.493279 ], [ -83.381511, 36.494088 ], [ -83.383702, 36.500085 ], [ -83.38598, 36.508652 ], [ -83.386158, 36.509033 ], [ -83.388418, 36.513859 ], [ -83.388473, 36.513977 ], [ -83.39219, 36.521908 ], [ -83.392631, 36.522843 ], [ -83.398403, 36.535002 ], [ -83.409828, 36.548259 ], [ -83.410409, 36.548926 ], [ -83.410972, 36.549573 ], [ -83.414868, 36.553994 ], [ -83.427833, 36.567886 ], [ -83.429184, 36.569358 ], [ -83.432782, 36.573194 ], [ -83.444106, 36.580185 ], [ -83.456761, 36.587912 ], [ -83.459679, 36.589695 ], [ -83.464243, 36.592482 ], [ -83.465866, 36.593473 ], [ -83.472108, 36.597284 ], [ -83.483176, 36.597264 ], [ -83.488813, 36.597253 ], [ -83.505619, 36.597249 ], [ -83.522593, 36.597295 ], [ -83.544642, 36.597353 ], [ -83.551688, 36.59737 ], [ -83.56182, 36.597431 ], [ -83.574311, 36.597552 ], [ -83.583143, 36.597631 ], [ -83.592189, 36.597725 ], [ -83.595217, 36.597757 ], [ -83.609246, 36.597895 ], [ -83.622051, 36.597982 ], [ -83.625543, 36.598395 ], [ -83.641775, 36.59969 ], [ -83.645586, 36.600002 ], [ -83.649722, 36.600119 ], [ -83.655402, 36.600281 ], [ -83.655641, 36.600287 ], [ -83.66037, 36.600402 ], [ -83.661674, 36.600413 ], [ -83.661843, 36.600414 ], [ -83.661989, 36.600417 ], [ -83.668302, 36.600746 ], [ -83.670128, 36.600764 ], [ -83.673063, 36.600796 ], [ -83.675395, 36.600784 ], [ -83.676083, 36.598167 ], [ -83.676218, 36.597933 ], [ -83.678439, 36.595916 ], [ -83.67966, 36.594172 ], [ -83.68266, 36.593109 ], [ -83.683081, 36.591974 ], [ -83.685074, 36.590099 ], [ -83.685196, 36.589528 ], [ -83.688047, 36.586674 ], [ -83.688998, 36.584581 ], [ -83.690789, 36.582596 ], [ -83.713755, 36.58288 ], [ -83.717362, 36.582925 ], [ -83.750123, 36.583329 ], [ -83.76487, 36.58351 ], [ -83.780033, 36.583769 ], [ -83.783461, 36.583836 ], [ -83.784369, 36.583855 ], [ -83.790709, 36.583977 ], [ -83.79741, 36.584119 ], [ -83.798145, 36.584136 ], [ -83.812413, 36.584474 ], [ -83.874034, 36.585934 ], [ -83.896531, 36.586631 ], [ -83.897581, 36.586664 ], [ -83.899377, 36.586721 ], [ -83.899676, 36.586731 ], [ -83.900174, 36.586744 ], [ -83.900275, 36.586747 ], [ -83.906705, 36.586946 ], [ -83.910903, 36.587075 ], [ -83.950337, 36.588304 ], [ -83.957125, 36.588517 ], [ -83.970498, 36.588934 ], [ -83.987615, 36.589471 ], [ -83.999943, 36.589857 ], [ -84.018068, 36.59006 ], [ -84.020983, 36.590088 ], [ -84.072731, 36.590654 ], [ -84.08601, 36.590932 ], [ -84.098836, 36.591238 ], [ -84.102161, 36.591316 ], [ -84.104019, 36.591316 ], [ -84.104641, 36.591317 ], [ -84.104911, 36.591316 ], [ -84.122043, 36.591338 ], [ -84.122669, 36.59134 ], [ -84.125493, 36.591352 ], [ -84.126122, 36.591355 ], [ -84.127448, 36.591361 ], [ -84.131547, 36.591377 ], [ -84.142923, 36.591456 ], [ -84.144706, 36.59147 ], [ -84.149109, 36.591501 ], [ -84.191244, 36.591801 ], [ -84.197615, 36.591845 ], [ -84.226832, 36.592041 ], [ -84.227292, 36.592045 ], [ -84.261337, 36.591784 ], [ -84.261533, 36.582138 ], [ -84.261538, 36.581825 ], [ -84.261733, 36.572281 ], [ -84.263033, 36.571181 ], [ -84.263333, 36.569381 ], [ -84.264533, 36.568981 ], [ -84.263733, 36.56668 ], [ -84.256265, 36.56568 ], [ -84.249231, 36.564684 ], [ -84.250531, 36.562684 ], [ -84.250532, 36.560284 ], [ -84.252232, 36.557483 ], [ -84.252232, 36.555783 ], [ -84.249932, 36.555183 ], [ -84.249632, 36.554483 ], [ -84.250732, 36.552483 ], [ -84.249331, 36.549981 ], [ -84.249931, 36.548081 ], [ -84.252732, 36.545481 ], [ -84.252832, 36.544281 ], [ -84.252132, 36.54248 ], [ -84.251432, 36.54198 ], [ -84.252432, 36.53958 ], [ -84.251632, 36.53808 ], [ -84.251132, 36.53418 ], [ -84.251932, 36.53128 ], [ -84.252826, 36.529885 ], [ -84.254532, 36.52898 ], [ -84.257632, 36.52818 ], [ -84.260332, 36.52688 ], [ -84.259432, 36.52408 ], [ -84.258125, 36.521985 ], [ -84.257917, 36.519988 ], [ -84.258413, 36.519086 ], [ -84.259, 36.515586 ], [ -84.259593, 36.513985 ], [ -84.261684, 36.511978 ], [ -84.263779, 36.510971 ], [ -84.265878, 36.511163 ], [ -84.266877, 36.511698 ], [ -84.267751, 36.51188 ], [ -84.271432, 36.51168 ], [ -84.274032, 36.50958 ], [ -84.278332, 36.50758 ], [ -84.279632, 36.50638 ], [ -84.280532, 36.50618 ], [ -84.283132, 36.50468 ], [ -84.285033, 36.50468 ], [ -84.286533, 36.50388 ], [ -84.290233, 36.50508 ], [ -84.291333, 36.50508 ], [ -84.295033, 36.50688 ], [ -84.297333, 36.50618 ], [ -84.300533, 36.50708 ], [ -84.303333, 36.50728 ], [ -84.306333, 36.50688 ], [ -84.309533, 36.50568 ], [ -84.313133, 36.50568 ], [ -84.314933, 36.50788 ], [ -84.318433, 36.50738 ], [ -84.323734, 36.50818 ], [ -84.325334, 36.50938 ], [ -84.328234, 36.50918 ], [ -84.330434, 36.50948 ], [ -84.331634, 36.50628 ], [ -84.329434, 36.50358 ], [ -84.332578, 36.502161 ], [ -84.334737, 36.501365 ], [ -84.335328, 36.500367 ], [ -84.336928, 36.499598 ], [ -84.339311, 36.499847 ], [ -84.339645, 36.498469 ], [ -84.337143, 36.496497 ], [ -84.336859, 36.495649 ], [ -84.334715, 36.493828 ], [ -84.334632, 36.493189 ], [ -84.337054, 36.491273 ], [ -84.338514, 36.488147 ], [ -84.338347, 36.487138 ], [ -84.336635, 36.486432 ], [ -84.335548, 36.485255 ], [ -84.336592, 36.48465 ], [ -84.337761, 36.481893 ], [ -84.338972, 36.480481 ], [ -84.338553, 36.477825 ], [ -84.337507, 36.475855 ], [ -84.338533, 36.473889 ], [ -84.340254, 36.472307 ], [ -84.341529, 36.471918 ], [ -84.341896, 36.469881 ], [ -84.340479, 36.466472 ], [ -84.341329, 36.465579 ], [ -84.344473, 36.466128 ], [ -84.346059, 36.465395 ], [ -84.347193, 36.466242 ], [ -84.348439, 36.466127 ], [ -84.349149, 36.466425 ], [ -84.350923, 36.465812 ], [ -84.352915, 36.464638 ], [ -84.353913, 36.463469 ], [ -84.353871, 36.462696 ], [ -84.355414, 36.459636 ], [ -84.355746, 36.456678 ], [ -84.353742, 36.456409 ], [ -84.351863, 36.454661 ], [ -84.349066, 36.453854 ], [ -84.346411, 36.450277 ], [ -84.345724, 36.448609 ], [ -84.344971, 36.445382 ], [ -84.343926, 36.444373 ], [ -84.343299, 36.442188 ], [ -84.343674, 36.440876 ], [ -84.346219, 36.438355 ], [ -84.345535, 36.42956 ], [ -84.345336, 36.426689 ], [ -84.344701, 36.415677 ], [ -84.33816, 36.41275 ], [ -84.336577, 36.411741 ], [ -84.331121, 36.406329 ], [ -84.327373, 36.403135 ], [ -84.327518, 36.400154 ], [ -84.32755, 36.395167 ], [ -84.326959, 36.39494 ], [ -84.326811, 36.396335 ], [ -84.32642, 36.399357 ], [ -84.324351, 36.395972 ], [ -84.323469, 36.395527 ], [ -84.322211, 36.392865 ], [ -84.318932, 36.393675 ], [ -84.316829, 36.394929 ], [ -84.314297, 36.395868 ], [ -84.31266, 36.396648 ], [ -84.310802, 36.398666 ], [ -84.309067, 36.402603 ], [ -84.306986, 36.405966 ], [ -84.304241, 36.412893 ], [ -84.302579, 36.414524 ], [ -84.301119, 36.41467 ], [ -84.299495, 36.414059 ], [ -84.297981, 36.412654 ], [ -84.294207, 36.408457 ], [ -84.290696, 36.406287 ], [ -84.28832, 36.404257 ], [ -84.285622, 36.402379 ], [ -84.283356, 36.399777 ], [ -84.281322, 36.396853 ], [ -84.27979, 36.395743 ], [ -84.278149, 36.395772 ], [ -84.276428, 36.396548 ], [ -84.274529, 36.397181 ], [ -84.272872, 36.397124 ], [ -84.268041, 36.396173 ], [ -84.265698, 36.39492 ], [ -84.262357, 36.391354 ], [ -84.258763, 36.389895 ], [ -84.258604, 36.390617 ], [ -84.256124, 36.391703 ], [ -84.25523, 36.391547 ], [ -84.254942, 36.391522 ], [ -84.253969, 36.391429 ], [ -84.244211, 36.380885 ], [ -84.235092, 36.371076 ], [ -84.231509, 36.368139 ], [ -84.229261, 36.365814 ], [ -84.227006, 36.364846 ], [ -84.225875, 36.363011 ], [ -84.224782, 36.362516 ], [ -84.223756, 36.360508 ], [ -84.220354, 36.359432 ], [ -84.21852, 36.359388 ], [ -84.21634, 36.360989 ], [ -84.214766, 36.361508 ], [ -84.214303, 36.362181 ], [ -84.214422, 36.364267 ], [ -84.213058, 36.367092 ], [ -84.209938, 36.369637 ], [ -84.206454, 36.37056 ], [ -84.205318, 36.370213 ], [ -84.203778, 36.370888 ], [ -84.204633, 36.371953 ], [ -84.203178, 36.372796 ], [ -84.202846, 36.373373 ], [ -84.202108, 36.373667 ], [ -84.201854, 36.374033 ], [ -84.200722, 36.374125 ], [ -84.200241, 36.374056 ], [ -84.19942, 36.374422 ], [ -84.198911, 36.374514 ], [ -84.197921, 36.374514 ], [ -84.197242, 36.374354 ], [ -84.196789, 36.374056 ], [ -84.194977, 36.373576 ], [ -84.194496, 36.373233 ], [ -84.194128, 36.372546 ], [ -84.193421, 36.371768 ], [ -84.193317, 36.370954 ], [ -84.192884, 36.369617 ], [ -84.192091, 36.36829 ], [ -84.191328, 36.367489 ], [ -84.190903, 36.367238 ], [ -84.189743, 36.366185 ], [ -84.188612, 36.365933 ], [ -84.188357, 36.365521 ], [ -84.187254, 36.364995 ], [ -84.186914, 36.365109 ], [ -84.187197, 36.367077 ], [ -84.186659, 36.367855 ], [ -84.186065, 36.368291 ], [ -84.184681, 36.369632 ], [ -84.184143, 36.370002 ], [ -84.182162, 36.370379 ], [ -84.181491, 36.370869 ], [ -84.180863, 36.371481 ], [ -84.179086, 36.37196 ], [ -84.178918, 36.372162 ], [ -84.179337, 36.372601 ], [ -84.179167, 36.372927 ], [ -84.178246, 36.373731 ], [ -84.177418, 36.374117 ], [ -84.176705, 36.375099 ], [ -84.175253, 36.37642 ], [ -84.175457, 36.374944 ], [ -84.176218, 36.374502 ], [ -84.175852, 36.373623 ], [ -84.176627, 36.37169 ], [ -84.174977, 36.370603 ], [ -84.173191, 36.370932 ], [ -84.172912, 36.37024 ], [ -84.172311, 36.369517 ], [ -84.169634, 36.368494 ], [ -84.169165, 36.368553 ], [ -84.168854, 36.368781 ], [ -84.167802, 36.370147 ], [ -84.167548, 36.370329 ], [ -84.166444, 36.370644 ], [ -84.1652, 36.370822 ], [ -84.164041, 36.37116 ], [ -84.163615, 36.371684 ], [ -84.162873, 36.373326 ], [ -84.162674, 36.373531 ], [ -84.160692, 36.374208 ], [ -84.158546, 36.375182 ], [ -84.157275, 36.375656 ], [ -84.156199, 36.376246 ], [ -84.15563, 36.377181 ], [ -84.155346, 36.377432 ], [ -84.154074, 36.377793 ], [ -84.15328, 36.378245 ], [ -84.152855, 36.378678 ], [ -84.151719, 36.379633 ], [ -84.15118, 36.380248 ], [ -84.149424, 36.381567 ], [ -84.149224, 36.381909 ], [ -84.149081, 36.382388 ], [ -84.148627, 36.382867 ], [ -84.147947, 36.383228 ], [ -84.146729, 36.383681 ], [ -84.146588, 36.38384 ], [ -84.146585, 36.384411 ], [ -84.145451, 36.38523 ], [ -84.145222, 36.386005 ], [ -84.144795, 36.386643 ], [ -84.144229, 36.387029 ], [ -84.14355, 36.387323 ], [ -84.142471, 36.388257 ], [ -84.141536, 36.388824 ], [ -84.140743, 36.389072 ], [ -84.139357, 36.389204 ], [ -84.13763, 36.389928 ], [ -84.135395, 36.390694 ], [ -84.135054, 36.390968 ], [ -84.134769, 36.3914 ], [ -84.134032, 36.392083 ], [ -84.132728, 36.392808 ], [ -84.131597, 36.393147 ], [ -84.131341, 36.393673 ], [ -84.13163, 36.394467 ], [ -84.131426, 36.39456 ], [ -84.130261, 36.395166 ], [ -84.128438, 36.395518 ], [ -84.127831, 36.395702 ], [ -84.127156, 36.395474 ], [ -84.127313, 36.394436 ], [ -84.128069, 36.391182 ], [ -84.127663, 36.389527 ], [ -84.126263, 36.387378 ], [ -84.125677, 36.384584 ], [ -84.124729, 36.384614 ], [ -84.124469, 36.383565 ], [ -84.123476, 36.384007 ], [ -84.122301, 36.384605 ], [ -84.121823, 36.384208 ], [ -84.120979, 36.383513 ], [ -84.12008, 36.382761 ], [ -84.119638, 36.382369 ], [ -84.119548, 36.382294 ], [ -84.119279, 36.382072 ], [ -84.119209, 36.382014 ], [ -84.11919, 36.381998 ], [ -84.118337, 36.381304 ], [ -84.11961, 36.380283 ], [ -84.119778, 36.380147 ], [ -84.120799, 36.379351 ], [ -84.121903, 36.379869 ], [ -84.121275, 36.378968 ], [ -84.120627, 36.378101 ], [ -84.119774, 36.377391 ], [ -84.118909, 36.376684 ], [ -84.118143, 36.376049 ], [ -84.120263, 36.374201 ], [ -84.121396, 36.373321 ], [ -84.122494, 36.372458 ], [ -84.123575, 36.371618 ], [ -84.124733, 36.370744 ], [ -84.123635, 36.370197 ], [ -84.122749, 36.370895 ], [ -84.122424, 36.369155 ], [ -84.121377, 36.367871 ], [ -84.121676, 36.367165 ], [ -84.123962, 36.366861 ], [ -84.124142, 36.366236 ], [ -84.122501, 36.364413 ], [ -84.120421, 36.364549 ], [ -84.118425, 36.365896 ], [ -84.114932, 36.367585 ], [ -84.114613, 36.365866 ], [ -84.113765, 36.366254 ], [ -84.112918, 36.364146 ], [ -84.112268, 36.364309 ], [ -84.111839, 36.363134 ], [ -84.111773, 36.362279 ], [ -84.111713, 36.361321 ], [ -84.112338, 36.359854 ], [ -84.11335, 36.359645 ], [ -84.115227, 36.360099 ], [ -84.1157, 36.359488 ], [ -84.116013, 36.358217 ], [ -84.117761, 36.359751 ], [ -84.119237, 36.359734 ], [ -84.120152, 36.356955 ], [ -84.120866, 36.356198 ], [ -84.122949, 36.355593 ], [ -84.12323, 36.354503 ], [ -84.124921, 36.354291 ], [ -84.125779, 36.354006 ], [ -84.126417, 36.352811 ], [ -84.125745, 36.35113 ], [ -84.123664, 36.348769 ], [ -84.124406, 36.348089 ], [ -84.123883, 36.346654 ], [ -84.124922, 36.346084 ], [ -84.126858, 36.345636 ], [ -84.129919, 36.345506 ], [ -84.129333, 36.343639 ], [ -84.127822, 36.342517 ], [ -84.126092, 36.339759 ], [ -84.124921, 36.339464 ], [ -84.123227, 36.339254 ], [ -84.122409, 36.338369 ], [ -84.122972, 36.337709 ], [ -84.125079, 36.33722 ], [ -84.125493, 36.337141 ], [ -84.126291, 36.336586 ], [ -84.125211, 36.336164 ], [ -84.122366, 36.335717 ], [ -84.120827, 36.33479 ], [ -84.118594, 36.332481 ], [ -84.117233, 36.331504 ], [ -84.11465, 36.330457 ], [ -84.110122, 36.326075 ], [ -84.108198, 36.323068 ], [ -84.106718, 36.319814 ], [ -84.107901, 36.318817 ], [ -84.109878, 36.319548 ], [ -84.113698, 36.321624 ], [ -84.115728, 36.321907 ], [ -84.118717, 36.32177 ], [ -84.119336, 36.321443 ], [ -84.119189, 36.320133 ], [ -84.118149, 36.317823 ], [ -84.116277, 36.316525 ], [ -84.113072, 36.316272 ], [ -84.111675, 36.315558 ], [ -84.109629, 36.313148 ], [ -84.109033, 36.311295 ], [ -84.111264, 36.311145 ], [ -84.113734, 36.311508 ], [ -84.115502, 36.310895 ], [ -84.114621, 36.306349 ], [ -84.114917, 36.305376 ], [ -84.115561, 36.30036 ], [ -84.11694, 36.298231 ], [ -84.118513, 36.297145 ], [ -84.11856, 36.295068 ], [ -84.117778, 36.292796 ], [ -84.115934, 36.290371 ], [ -84.114687, 36.289296 ], [ -84.112357, 36.288544 ], [ -84.109908, 36.290156 ], [ -84.107775, 36.290429 ], [ -84.106523, 36.28978 ], [ -84.104968, 36.287824 ], [ -84.101132, 36.285927 ], [ -84.100284, 36.2839 ], [ -84.097661, 36.283224 ], [ -84.096366, 36.283237 ], [ -84.093939, 36.283977 ], [ -84.09175, 36.285503 ], [ -84.087791, 36.285852 ], [ -84.085196, 36.283853 ], [ -84.084212, 36.281985 ], [ -84.082194, 36.280076 ], [ -84.0814, 36.278427 ], [ -84.07997, 36.277662 ], [ -84.07954, 36.275739 ], [ -84.078987, 36.274151 ], [ -84.077769, 36.272584 ], [ -84.077885, 36.271032 ], [ -84.081656, 36.270179 ], [ -84.083992, 36.267796 ], [ -84.0833, 36.266492 ], [ -84.080577, 36.266459 ], [ -84.079862, 36.266004 ], [ -84.078908, 36.265277 ], [ -84.078584, 36.263405 ], [ -84.077601, 36.260882 ], [ -84.07759, 36.259583 ], [ -84.079044, 36.255632 ], [ -84.077168, 36.253627 ], [ -84.073419, 36.252718 ], [ -84.072698, 36.251989 ], [ -84.070229, 36.251873 ], [ -84.068706, 36.250569 ], [ -84.066119, 36.248178 ], [ -84.063119, 36.246978 ], [ -84.059219, 36.247878 ], [ -84.057619, 36.249078 ], [ -84.057219, 36.250078 ], [ -84.057919, 36.252878 ], [ -84.058319, 36.255978 ], [ -84.057319, 36.260578 ], [ -84.056619, 36.262178 ], [ -84.055419, 36.263678 ], [ -84.050319, 36.267578 ], [ -84.045219, 36.271178 ], [ -84.043319, 36.272978 ], [ -84.041419, 36.275278 ], [ -84.041019, 36.277578 ], [ -84.042119, 36.280878 ], [ -84.042019, 36.282578 ], [ -84.040519, 36.285078 ], [ -84.035619, 36.287978 ], [ -84.034319, 36.289278 ], [ -84.033219, 36.291078 ], [ -84.032719, 36.293078 ], [ -84.033019, 36.293778 ], [ -84.037619, 36.299078 ], [ -84.037519, 36.299978 ], [ -84.035819, 36.301278 ], [ -84.032519, 36.301779 ], [ -84.030419, 36.300979 ], [ -84.028519, 36.299579 ], [ -84.026519, 36.297079 ], [ -84.025774, 36.294179 ], [ -84.025806, 36.292522 ], [ -84.026018, 36.289078 ], [ -84.025318, 36.286278 ], [ -84.025218, 36.284078 ], [ -84.025918, 36.279278 ], [ -84.025318, 36.277478 ], [ -84.021518, 36.272278 ], [ -84.019918, 36.271378 ], [ -84.018418, 36.271078 ], [ -84.015917, 36.271278 ], [ -84.014217, 36.271878 ], [ -84.010917, 36.272178 ], [ -84.004317, 36.270378 ], [ -84.005156, 36.269339 ], [ -84.007298, 36.270304 ], [ -84.009753, 36.27031 ], [ -84.006517, 36.266578 ], [ -84.00638, 36.265441 ], [ -84.00381, 36.263169 ], [ -84.002327, 36.261202 ], [ -84.000816, 36.259177 ], [ -83.999075, 36.258572 ], [ -83.997909, 36.255399 ], [ -83.996405, 36.253228 ], [ -83.997503, 36.251837 ], [ -83.998745, 36.25237 ], [ -83.997826, 36.249873 ], [ -83.993016, 36.245678 ], [ -83.994216, 36.244778 ], [ -83.992998, 36.243173 ], [ -83.991414, 36.241084 ], [ -83.990256, 36.239557 ], [ -83.988805, 36.237646 ], [ -83.988184, 36.236832 ], [ -83.987628, 36.236095 ], [ -83.977582, 36.227324 ], [ -83.975711, 36.223668 ], [ -83.972375, 36.216808 ], [ -83.96965, 36.211183 ], [ -83.969283, 36.210433 ], [ -83.96914, 36.210105 ], [ -83.960546, 36.201709 ], [ -83.950041, 36.193935 ], [ -83.947301, 36.191929 ], [ -83.946499, 36.191341 ], [ -83.941852, 36.186525 ], [ -83.941711, 36.186378 ], [ -83.944113, 36.186479 ], [ -83.944913, 36.186079 ], [ -83.946413, 36.184179 ], [ -83.947612, 36.181879 ], [ -83.950613, 36.181379 ], [ -83.952013, 36.181679 ], [ -83.956013, 36.179479 ], [ -83.957213, 36.177579 ], [ -83.961213, 36.175979 ], [ -83.962813, 36.175779 ], [ -83.964164, 36.174225 ], [ -83.964913, 36.172779 ], [ -83.967313, 36.172179 ], [ -83.968613, 36.171279 ], [ -83.968952, 36.169562 ], [ -83.969913, 36.167479 ], [ -83.976213, 36.168079 ], [ -83.976213, 36.164279 ], [ -83.975713, 36.162879 ], [ -83.979613, 36.160779 ], [ -83.980713, 36.160579 ], [ -83.981013, 36.159579 ], [ -83.984313, 36.156679 ], [ -83.985413, 36.156179 ], [ -83.988843, 36.152907 ], [ -83.990213, 36.151979 ], [ -83.992689, 36.150928 ], [ -83.996491, 36.147203 ], [ -83.997309, 36.146701 ], [ -83.997413, 36.145487 ], [ -83.999721, 36.144419 ], [ -83.999032, 36.141398 ], [ -83.999023, 36.139914 ], [ -84.000313, 36.138979 ], [ -84.002713, 36.138779 ], [ -84.004413, 36.138079 ], [ -84.007283, 36.135887 ], [ -84.007513, 36.135679 ], [ -84.007913, 36.135279 ], [ -84.008313, 36.134979 ], [ -84.008814, 36.134679 ], [ -84.00933, 36.134506 ], [ -84.009414, 36.134479 ], [ -84.009459, 36.134464 ], [ -84.011312, 36.134779 ], [ -84.015314, 36.135378 ], [ -84.015885, 36.132491 ], [ -84.016314, 36.130879 ], [ -84.015514, 36.129378 ], [ -84.016614, 36.128579 ], [ -84.018714, 36.129279 ], [ -84.020514, 36.128879 ], [ -84.022441, 36.126716 ], [ -84.02374, 36.125079 ], [ -84.027162, 36.123855 ], [ -84.028698, 36.122591 ], [ -84.029178, 36.120751 ], [ -84.027994, 36.119871 ], [ -84.028074, 36.118623 ], [ -84.029601, 36.116569 ], [ -84.029717, 36.116475 ], [ -84.030188, 36.116089 ], [ -84.033307, 36.11408 ], [ -84.034747, 36.112784 ], [ -84.036907, 36.111696 ], [ -84.038635, 36.111712 ], [ -84.040955, 36.110831 ], [ -84.043836, 36.111583 ], [ -84.044492, 36.110703 ], [ -84.04392, 36.109182 ], [ -84.043626, 36.108399 ], [ -84.045178, 36.106271 ], [ -84.045146, 36.104911 ], [ -84.046122, 36.103839 ], [ -84.047962, 36.103454 ], [ -84.051362, 36.102296 ], [ -84.052034, 36.100982 ], [ -84.053124, 36.100325 ], [ -84.055048, 36.09901 ], [ -84.057811, 36.097752 ], [ -84.060328, 36.095537 ], [ -84.063549, 36.093678 ], [ -84.065418, 36.09082 ], [ -84.066693, 36.089788 ], [ -84.068171, 36.087679 ], [ -84.068075, 36.086559 ], [ -84.069931, 36.086063 ], [ -84.072427, 36.083263 ], [ -84.078054, 36.080936 ], [ -84.081102, 36.078144 ], [ -84.081458, 36.077715 ], [ -84.08289, 36.076383 ], [ -84.08457, 36.075471 ], [ -84.086458, 36.075375 ], [ -84.088668, 36.076975 ], [ -84.09014, 36.074703 ], [ -84.092759, 36.073724 ], [ -84.091762, 36.072095 ], [ -84.09134, 36.071439 ], [ -84.092251, 36.070223 ], [ -84.094011, 36.068911 ], [ -84.090402, 36.065673 ], [ -84.088827, 36.064271 ], [ -84.084319, 36.060256 ], [ -84.080469, 36.056542 ], [ -84.075685, 36.052232 ], [ -84.074165, 36.05088 ], [ -84.072849, 36.04968 ], [ -84.071836, 36.048764 ], [ -84.071608, 36.048528 ], [ -84.068921, 36.046022 ], [ -84.065795, 36.043065 ], [ -84.058585, 36.036304 ], [ -84.060185, 36.035664 ], [ -84.063549, 36.03282 ], [ -84.068195, 36.031393 ], [ -84.069879, 36.029624 ], [ -84.070116, 36.028881 ], [ -84.070679, 36.028278 ], [ -84.070253, 36.027551 ], [ -84.070905, 36.026312 ], [ -84.073827, 36.025605 ], [ -84.076586, 36.023488 ], [ -84.076298, 36.020656 ], [ -84.077109, 36.019677 ], [ -84.077945, 36.019569 ], [ -84.079321, 36.020465 ], [ -84.080478, 36.020215 ], [ -84.082715, 36.018683 ], [ -84.082977, 36.018318 ], [ -84.084618, 36.017104 ], [ -84.085091, 36.016709 ], [ -84.088297, 36.015837 ], [ -84.089011, 36.015915 ], [ -84.090684, 36.015346 ], [ -84.091675, 36.014984 ], [ -84.093481, 36.01472 ], [ -84.099732, 36.012521 ], [ -84.100217, 36.012241 ], [ -84.101465, 36.011709 ], [ -84.103627, 36.01207 ], [ -84.103719, 36.010373 ], [ -84.103892, 36.009074 ], [ -84.103956, 36.00795 ], [ -84.105946, 36.007135 ], [ -84.106186, 36.005743 ], [ -84.107178, 36.005055 ], [ -84.109275, 36.003567 ], [ -84.110939, 36.003295 ], [ -84.112814, 36.00161 ], [ -84.113375, 36.000364 ], [ -84.114972, 35.999485 ], [ -84.116235, 36.000079 ], [ -84.118283, 36.000223 ], [ -84.119867, 36.000959 ], [ -84.122123, 35.999311 ], [ -84.124108, 35.998379 ], [ -84.125643, 35.998383 ], [ -84.126724, 35.997729 ], [ -84.126765, 35.997693 ], [ -84.127147, 35.997263 ], [ -84.127659, 35.996991 ], [ -84.12813, 35.996818 ], [ -84.128203, 35.996809 ], [ -84.129707, 35.996111 ], [ -84.129963, 35.994463 ], [ -84.133731, 35.994067 ], [ -84.1363, 35.993359 ], [ -84.137564, 35.993647 ], [ -84.138188, 35.992927 ], [ -84.137836, 35.990879 ], [ -84.139644, 35.989807 ], [ -84.143052, 35.990047 ], [ -84.1443, 35.990511 ], [ -84.144965, 35.98998 ], [ -84.146652, 35.988287 ], [ -84.14742, 35.987007 ], [ -84.1495, 35.986927 ], [ -84.15518, 35.989359 ], [ -84.157068, 35.990671 ], [ -84.15731, 35.990883 ], [ -84.157886, 35.991276 ], [ -84.159222, 35.990432 ], [ -84.161754, 35.989912 ], [ -84.167252, 35.990536 ], [ -84.174851, 35.991629 ], [ -84.180567, 35.9922 ], [ -84.184558, 35.992943 ], [ -84.187262, 35.994383 ], [ -84.190271, 35.994976 ], [ -84.191535, 35.995632 ], [ -84.193247, 35.994992 ], [ -84.195151, 35.993008 ], [ -84.195488, 35.991692 ], [ -84.195511, 35.991602 ], [ -84.195726, 35.990303 ], [ -84.194334, 35.983615 ], [ -84.194606, 35.981999 ], [ -84.195694, 35.979566 ], [ -84.196606, 35.978414 ], [ -84.198894, 35.977198 ], [ -84.201918, 35.976894 ], [ -84.206206, 35.976734 ], [ -84.213407, 35.975774 ], [ -84.214647, 35.975115 ], [ -84.215759, 35.97331 ], [ -84.215791, 35.971662 ], [ -84.216527, 35.96651 ], [ -84.219535, 35.963438 ], [ -84.220575, 35.961614 ], [ -84.220127, 35.959918 ], [ -84.217583, 35.957486 ], [ -84.215855, 35.956654 ], [ -84.214495, 35.95411 ], [ -84.213782, 35.950119 ], [ -84.214094, 35.947854 ], [ -84.215902, 35.946382 ], [ -84.217775, 35.94571 ], [ -84.221373, 35.945752 ], [ -84.224975, 35.94707 ], [ -84.227679, 35.948286 ], [ -84.229967, 35.950398 ], [ -84.233019, 35.952577 ], [ -84.236336, 35.954414 ], [ -84.23896, 35.955454 ], [ -84.240704, 35.95571 ], [ -84.244016, 35.95499 ], [ -84.24536, 35.953134 ], [ -84.24587, 35.950511 ], [ -84.244854, 35.948656 ], [ -84.241949, 35.948464 ], [ -84.239897, 35.948025 ], [ -84.238576, 35.946967 ], [ -84.237791, 35.944462 ], [ -84.237967, 35.943342 ], [ -84.23921, 35.940993 ], [ -84.238207, 35.937486 ], [ -84.236575, 35.934334 ], [ -84.235823, 35.931678 ], [ -84.236271, 35.930638 ], [ -84.237583, 35.929646 ], [ -84.239695, 35.929006 ], [ -84.241679, 35.929182 ], [ -84.244784, 35.930334 ], [ -84.247808, 35.932942 ], [ -84.250203, 35.936495 ], [ -84.251527, 35.938013 ], [ -84.25434, 35.939936 ], [ -84.258397, 35.941557 ], [ -84.264725, 35.943637 ], [ -84.26821, 35.943867 ], [ -84.271546, 35.942228 ], [ -84.27347, 35.939278 ], [ -84.272889, 35.936694 ], [ -84.27167, 35.935685 ], [ -84.26769, 35.933888 ], [ -84.263766, 35.931268 ], [ -84.260944, 35.930027 ], [ -84.258878, 35.929668 ], [ -84.256366, 35.928358 ], [ -84.255333, 35.92513 ], [ -84.252675, 35.920386 ], [ -84.252359, 35.918888 ], [ -84.253314, 35.917374 ], [ -84.255365, 35.916078 ], [ -84.257863, 35.915207 ], [ -84.261609, 35.914425 ], [ -84.26394, 35.914399 ], [ -84.2679, 35.913879 ], [ -84.270666, 35.91201 ], [ -84.271587, 35.910165 ], [ -84.271309, 35.907351 ], [ -84.268393, 35.902563 ], [ -84.264928, 35.898455 ], [ -84.263383, 35.89694 ], [ -84.264045, 35.895181 ], [ -84.265292, 35.894349 ], [ -84.266656, 35.894101 ], [ -84.268952, 35.894794 ], [ -84.271373, 35.89666 ], [ -84.274541, 35.900263 ], [ -84.277083, 35.901985 ], [ -84.279297, 35.902846 ], [ -84.281159, 35.902984 ], [ -84.282819, 35.902319 ], [ -84.284551, 35.901026 ], [ -84.285502, 35.899181 ], [ -84.285931, 35.896142 ], [ -84.285811, 35.894283 ], [ -84.283758, 35.889491 ], [ -84.281682, 35.886298 ], [ -84.278817, 35.881035 ], [ -84.278545, 35.879796 ], [ -84.278976, 35.87721 ], [ -84.28169, 35.875467 ], [ -84.282678, 35.875077 ], [ -84.285613, 35.875077 ], [ -84.287551, 35.876758 ], [ -84.289801, 35.879511 ], [ -84.293683, 35.883323 ], [ -84.296684, 35.884602 ], [ -84.304926, 35.88721 ], [ -84.30906, 35.888253 ], [ -84.310376, 35.888272 ], [ -84.312966, 35.887847 ], [ -84.316957, 35.886591 ], [ -84.319184, 35.886313 ], [ -84.322983, 35.88675 ], [ -84.324275, 35.887133 ], [ -84.327392, 35.889375 ], [ -84.32997, 35.892904 ], [ -84.330159, 35.892115 ], [ -84.330962, 35.888757 ], [ -84.332902, 35.880624 ], [ -84.333213, 35.879319 ], [ -84.334875, 35.879831 ], [ -84.336311, 35.881015 ], [ -84.336583, 35.88044 ], [ -84.336814, 35.879955 ], [ -84.336918, 35.879751 ], [ -84.338222, 35.877217 ], [ -84.333734, 35.877137 ], [ -84.333901, 35.876443 ], [ -84.335447, 35.869461 ], [ -84.336888, 35.86027 ], [ -84.337492, 35.856671 ], [ -84.338871, 35.850295 ], [ -84.338687, 35.849486 ], [ -84.338792, 35.847163 ], [ -84.338021, 35.843776 ], [ -84.337898, 35.839865 ], [ -84.338888, 35.837539 ], [ -84.339887, 35.83698 ], [ -84.340142, 35.835486 ], [ -84.342269, 35.834323 ], [ -84.342791, 35.83189 ], [ -84.347624, 35.832367 ], [ -84.350681, 35.831121 ], [ -84.353508, 35.829965 ], [ -84.354572, 35.829531 ], [ -84.36486, 35.825335 ], [ -84.371537, 35.825862 ], [ -84.372165, 35.823888 ], [ -84.374342, 35.822954 ], [ -84.375568, 35.822429 ], [ -84.375326, 35.820274 ], [ -84.379668, 35.817439 ], [ -84.381161, 35.805642 ], [ -84.379881, 35.797815 ], [ -84.381909, 35.796521 ], [ -84.378968, 35.792881 ], [ -84.378323, 35.792941 ], [ -84.377189, 35.790678 ], [ -84.382473, 35.78709 ], [ -84.387432, 35.783375 ], [ -84.388296, 35.782319 ], [ -84.386125, 35.781036 ], [ -84.382112, 35.778645 ], [ -84.380776, 35.777851 ], [ -84.386895, 35.770427 ], [ -84.388333, 35.768683 ], [ -84.388607, 35.768352 ], [ -84.391961, 35.770405 ], [ -84.395614, 35.772471 ], [ -84.399731, 35.774526 ], [ -84.402764, 35.775951 ], [ -84.404442, 35.776545 ], [ -84.406695, 35.777046 ], [ -84.408241, 35.777245 ], [ -84.412588, 35.777117 ], [ -84.414745, 35.7769 ], [ -84.416415, 35.776451 ], [ -84.417696, 35.775747 ], [ -84.419143, 35.774752 ], [ -84.420862, 35.773277 ], [ -84.422009, 35.771976 ], [ -84.423249, 35.770004 ], [ -84.423889, 35.768441 ], [ -84.424336, 35.766402 ], [ -84.424488, 35.764664 ], [ -84.424483, 35.762976 ], [ -84.424358, 35.758954 ], [ -84.424408, 35.75796 ], [ -84.424991, 35.755533 ], [ -84.425289, 35.754569 ], [ -84.42601, 35.753255 ], [ -84.427155, 35.751833 ], [ -84.428548, 35.750473 ], [ -84.42907, 35.750074 ], [ -84.430123, 35.749452 ], [ -84.431359, 35.748888 ], [ -84.431706, 35.74873 ], [ -84.433406, 35.748306 ], [ -84.43407, 35.74821 ], [ -84.435166, 35.748212 ], [ -84.43642, 35.748367 ], [ -84.43857, 35.749192 ], [ -84.440059, 35.750074 ], [ -84.441143, 35.750583 ], [ -84.444352, 35.752917 ], [ -84.445709, 35.75403 ], [ -84.446348, 35.75468 ], [ -84.447104, 35.75612 ], [ -84.447351, 35.757112 ], [ -84.4475, 35.758201 ], [ -84.44733, 35.759083 ], [ -84.448361, 35.759382 ], [ -84.449173, 35.758867 ], [ -84.458787, 35.750073 ], [ -84.46793, 35.741489 ], [ -84.47088, 35.738716 ], [ -84.472, 35.737664 ], [ -84.481451, 35.728682 ], [ -84.482554, 35.727633 ], [ -84.494488, 35.716362 ], [ -84.510472, 35.716448 ], [ -84.512361, 35.715149 ], [ -84.516891, 35.71204 ], [ -84.521008, 35.705865 ], [ -84.521551, 35.705053 ], [ -84.521869, 35.694773 ], [ -84.526091, 35.6948 ], [ -84.526171, 35.691329 ], [ -84.530577, 35.691171 ], [ -84.530597, 35.69072 ], [ -84.530737, 35.687609 ], [ -84.531803, 35.687606 ], [ -84.531877, 35.684294 ], [ -84.531909, 35.683997 ], [ -84.527427, 35.683912 ], [ -84.526842, 35.683902 ], [ -84.521842, 35.683729 ], [ -84.521887, 35.680907 ], [ -84.521936, 35.676597 ], [ -84.52542, 35.676606 ], [ -84.526299, 35.676607 ], [ -84.530779, 35.676612 ], [ -84.530976, 35.670382 ], [ -84.539963, 35.670465 ], [ -84.540031, 35.665894 ], [ -84.540254, 35.665873 ], [ -84.541204, 35.665916 ], [ -84.54881, 35.666062 ], [ -84.548815, 35.665642 ], [ -84.548872, 35.662402 ], [ -84.550918, 35.662404 ], [ -84.55337, 35.662406 ], [ -84.553352, 35.658825 ], [ -84.565717, 35.658843 ], [ -84.575602, 35.658889 ], [ -84.575615, 35.658604 ], [ -84.575671, 35.657348 ], [ -84.575503, 35.651638 ], [ -84.576407, 35.651638 ], [ -84.579587, 35.651625 ], [ -84.58441, 35.651607 ], [ -84.584469, 35.650331 ], [ -84.584444, 35.648339 ], [ -84.584461, 35.645801 ], [ -84.584472, 35.644424 ], [ -84.584428, 35.641606 ], [ -84.584352, 35.637231 ], [ -84.584289, 35.634939 ], [ -84.584296, 35.633086 ], [ -84.576675, 35.633153 ], [ -84.575798, 35.633159 ], [ -84.569411, 35.633218 ], [ -84.566915, 35.63324 ], [ -84.566934, 35.629773 ], [ -84.557872, 35.629651 ], [ -84.557926, 35.636973 ], [ -84.550569, 35.636934 ], [ -84.54923, 35.636896 ], [ -84.549098, 35.640174 ], [ -84.549115, 35.641115 ], [ -84.547603, 35.641327 ], [ -84.546096, 35.640414 ], [ -84.546067, 35.640398 ], [ -84.541694, 35.63769 ], [ -84.540067, 35.63669 ], [ -84.539013, 35.63779 ], [ -84.535386, 35.633696 ], [ -84.534006, 35.629555 ], [ -84.531448, 35.629457 ], [ -84.531419, 35.628119 ], [ -84.525984, 35.628113 ], [ -84.52585, 35.624186 ], [ -84.51737, 35.624191 ], [ -84.517331, 35.623046 ], [ -84.516041, 35.62312 ], [ -84.514103, 35.621229 ], [ -84.513718, 35.621268 ], [ -84.51371, 35.619494 ], [ -84.504746, 35.619542 ], [ -84.503415, 35.620648 ], [ -84.503763, 35.622109 ], [ -84.502396, 35.624438 ], [ -84.502441, 35.625396 ], [ -84.500877, 35.627083 ], [ -84.500061, 35.62939 ], [ -84.502235, 35.629392 ], [ -84.504192, 35.629392 ], [ -84.508579, 35.629399 ], [ -84.508623, 35.633482 ], [ -84.508657, 35.636686 ], [ -84.510909, 35.636759 ], [ -84.513777, 35.636829 ], [ -84.513774, 35.639492 ], [ -84.509201, 35.639474 ], [ -84.509243, 35.642154 ], [ -84.510207, 35.642215 ], [ -84.513749, 35.642242 ], [ -84.513697, 35.644034 ], [ -84.522545, 35.643984 ], [ -84.522162, 35.651394 ], [ -84.51668, 35.651326 ], [ -84.5132, 35.651332 ], [ -84.508491, 35.651308 ], [ -84.506406, 35.651085 ], [ -84.504595, 35.651034 ], [ -84.50443, 35.658603 ], [ -84.504412, 35.659487 ], [ -84.504336, 35.662993 ], [ -84.504274, 35.665866 ], [ -84.500114, 35.665745 ], [ -84.500245, 35.661069 ], [ -84.50022, 35.660296 ], [ -84.49913, 35.660251 ], [ -84.499145, 35.658527 ], [ -84.495525, 35.658378 ], [ -84.495561, 35.655445 ], [ -84.487344, 35.655508 ], [ -84.486754, 35.658376 ], [ -84.48455, 35.658373 ], [ -84.481729, 35.658311 ], [ -84.47899, 35.658109 ], [ -84.477568, 35.658437 ], [ -84.467744, 35.658492 ], [ -84.465278, 35.658501 ], [ -84.460119, 35.658623 ], [ -84.458363, 35.658735 ], [ -84.45724, 35.659081 ], [ -84.457218, 35.66031 ], [ -84.457249, 35.665763 ], [ -84.453289, 35.665795 ], [ -84.452396, 35.665807 ], [ -84.45101, 35.66585 ], [ -84.449308, 35.665926 ], [ -84.448094, 35.665957 ], [ -84.436493, 35.665951 ], [ -84.43578, 35.665953 ], [ -84.435684, 35.66787 ], [ -84.437865, 35.667873 ], [ -84.437254, 35.669486 ], [ -84.437664, 35.671077 ], [ -84.435214, 35.671002 ], [ -84.433364, 35.671959 ], [ -84.429121, 35.67194 ], [ -84.427479, 35.672264 ], [ -84.425376, 35.672269 ], [ -84.423549, 35.671735 ], [ -84.423645, 35.671224 ], [ -84.424149, 35.668517 ], [ -84.422942, 35.668012 ], [ -84.423907, 35.665159 ], [ -84.425663, 35.665225 ], [ -84.425158, 35.663733 ], [ -84.425619, 35.662526 ], [ -84.424785, 35.661078 ], [ -84.423826, 35.661565 ], [ -84.42289, 35.663015 ], [ -84.420857, 35.663136 ], [ -84.419955, 35.663608 ], [ -84.418246, 35.66258 ], [ -84.416172, 35.662228 ], [ -84.414515, 35.665219 ], [ -84.412687, 35.667944 ], [ -84.412536, 35.667903 ], [ -84.414254, 35.664828 ], [ -84.412661, 35.665394 ], [ -84.410509, 35.666698 ], [ -84.409297, 35.665982 ], [ -84.408502, 35.665609 ], [ -84.406472, 35.665622 ], [ -84.404294, 35.66193 ], [ -84.403663, 35.66086 ], [ -84.404484, 35.660435 ], [ -84.402237, 35.654694 ], [ -84.406459, 35.654637 ], [ -84.406502, 35.651188 ], [ -84.397901, 35.650995 ], [ -84.397926, 35.645536 ], [ -84.398074, 35.640208 ], [ -84.388948, 35.640084 ], [ -84.386149, 35.639831 ], [ -84.385011, 35.639841 ], [ -84.38529, 35.640644 ], [ -84.380124, 35.640592 ], [ -84.380115, 35.641419 ], [ -84.375572, 35.641678 ], [ -84.374397, 35.641706 ], [ -84.374387, 35.643449 ], [ -84.371315, 35.643451 ], [ -84.371296, 35.647025 ], [ -84.36541, 35.647014 ], [ -84.36227, 35.647189 ], [ -84.362213, 35.651806 ], [ -84.362238, 35.652442 ], [ -84.362228, 35.654448 ], [ -84.35621, 35.654412 ], [ -84.355739, 35.654409 ], [ -84.353275, 35.654396 ], [ -84.353287, 35.655906 ], [ -84.353303, 35.657837 ], [ -84.354589, 35.657846 ], [ -84.357585, 35.657916 ], [ -84.357608, 35.665162 ], [ -84.355212, 35.665162 ], [ -84.347533, 35.665185 ], [ -84.343466, 35.665074 ], [ -84.339503, 35.665003 ], [ -84.338234, 35.665102 ], [ -84.329659, 35.66499 ], [ -84.326906, 35.664959 ] ] ], [ [ [ -84.52271, 35.607783 ], [ -84.522508, 35.611653 ], [ -84.522554, 35.617412 ], [ -84.522373, 35.618625 ], [ -84.524294, 35.618644 ], [ -84.526775, 35.618672 ], [ -84.526894, 35.619381 ], [ -84.540355, 35.619427 ], [ -84.540351, 35.61824 ], [ -84.540328, 35.611744 ], [ -84.525647, 35.611779 ], [ -84.525653, 35.611695 ], [ -84.525999, 35.607853 ], [ -84.52271, 35.607783 ] ] ], [ [ [ -84.539963, 35.670465 ], [ -84.539848, 35.673838 ], [ -84.539822, 35.675185 ], [ -84.539774, 35.67684 ], [ -84.544214, 35.676893 ], [ -84.544266, 35.673265 ], [ -84.548777, 35.673213 ], [ -84.548774, 35.670536 ], [ -84.541246, 35.670477 ], [ -84.539963, 35.670465 ] ] ], [ [ [ -84.351172, 35.643203 ], [ -84.355297, 35.640924 ], [ -84.350001, 35.632939 ], [ -84.346546, 35.634706 ], [ -84.342871, 35.636585 ], [ -84.343901, 35.637829 ], [ -84.349251, 35.644264 ], [ -84.351172, 35.643203 ] ] ] ] } }
]
}
