{
"type": "FeatureCollection",
"name": "id_3",
"crs": { "type": "name", "properties": { "name": "urn:ogc:def:crs:OGC:1.3:CRS84" } },
"xy_coordinate_resolution": 1e-15,
"features": [
{ "type": "Feature", "properties": { "id": 3.0, "NAME": "3.0", "TotalPop": 767871.0, "PopDevPct": -0.0, "DemPct": 0.338, "RepPct": 0.644, "WhitePct": 0.799, "MinorityPc": 0.201, "BlackPct": 0.104, "HispanicPc": 0.048, "PacificPct": 0.001, "AsianPct": 0.019, "NativePct": 0.028, "TotalVAP": 606482.0, "Margin": -0.162, "color": "#88ff6e", "opacity": "0.5" }, "geometry": { "type": "MultiPolygon", "coordinates": [ [ [ [ -85.18892, 35.418001 ], [ -85.192881, 35.410841 ], [ -85.195973, 35.403494 ], [ -85.20296, 35.392014 ], [ -85.205094, 35.388507 ], [ -85.211452, 35.378065 ], [ -85.21312, 35.375422 ], [ -85.216407, 35.370025 ], [ -85.222064, 35.360629 ], [ -85.223809, 35.357729 ], [ -85.225473, 35.354923 ], [ -85.225877, 35.354276 ], [ -85.227413, 35.351745 ], [ -85.231384, 35.344862 ], [ -85.231505, 35.344652 ], [ -85.232757, 35.342479 ], [ -85.242761, 35.324897 ], [ -85.246005, 35.319077 ], [ -85.248683, 35.316049 ], [ -85.249958, 35.314667 ], [ -85.254249, 35.309174 ], [ -85.25751, 35.305535 ], [ -85.262677, 35.299305 ], [ -85.268377, 35.292383 ], [ -85.271403, 35.288548 ], [ -85.27183, 35.28804 ], [ -85.276066, 35.282963 ], [ -85.280396, 35.27772 ], [ -85.285193, 35.271939 ], [ -85.289701, 35.266402 ], [ -85.292544, 35.26291 ], [ -85.305033, 35.247645 ], [ -85.312582, 35.23828 ], [ -85.324291, 35.223859 ], [ -85.328112, 35.219162 ], [ -85.333114, 35.213224 ], [ -85.343887, 35.199883 ], [ -85.349471, 35.193145 ], [ -85.353065, 35.188854 ], [ -85.354669, 35.186851 ], [ -85.356439, 35.184407 ], [ -85.361986, 35.177684 ], [ -85.363127, 35.176299 ], [ -85.366334, 35.172413 ], [ -85.372073, 35.165176 ], [ -85.376418, 35.160009 ], [ -85.376867, 35.159474 ], [ -85.382889, 35.152221 ], [ -85.387089, 35.147169 ], [ -85.388448, 35.145504 ], [ -85.387547, 35.143246 ], [ -85.38629, 35.141673 ], [ -85.385703, 35.139079 ], [ -85.386239, 35.137721 ], [ -85.385731, 35.136781 ], [ -85.387118, 35.13277 ], [ -85.388102, 35.131188 ], [ -85.387709, 35.128506 ], [ -85.38979, 35.126346 ], [ -85.39039, 35.124409 ], [ -85.390833, 35.123195 ], [ -85.391819, 35.120448 ], [ -85.392174, 35.119432 ], [ -85.392442, 35.118304 ], [ -85.39374, 35.112769 ], [ -85.39577, 35.105638 ], [ -85.393463, 35.105367 ], [ -85.391973, 35.105848 ], [ -85.390355, 35.105384 ], [ -85.384811, 35.1059 ], [ -85.383305, 35.10574 ], [ -85.38119, 35.103883 ], [ -85.379603, 35.103291 ], [ -85.376078, 35.100825 ], [ -85.373033, 35.100105 ], [ -85.37216, 35.099073 ], [ -85.367467, 35.094965 ], [ -85.36816, 35.092573 ], [ -85.36716, 35.090873 ], [ -85.364353, 35.0892 ], [ -85.363444, 35.088658 ], [ -85.361959, 35.087773 ], [ -85.362686, 35.083754 ], [ -85.364059, 35.076173 ], [ -85.364359, 35.076073 ], [ -85.365031, 35.072554 ], [ -85.366017, 35.070052 ], [ -85.367994, 35.06717 ], [ -85.368219, 35.066857 ], [ -85.368474, 35.066503 ], [ -85.371149, 35.063109 ], [ -85.376067, 35.058619 ], [ -85.377272, 35.057306 ], [ -85.378064, 35.055672 ], [ -85.378615, 35.051852 ], [ -85.379468, 35.049758 ], [ -85.381567, 35.047343 ], [ -85.381683, 35.045707 ], [ -85.382255, 35.04473 ], [ -85.384756, 35.042991 ], [ -85.386966, 35.040972 ], [ -85.38815, 35.040945 ], [ -85.389678, 35.040126 ], [ -85.392637, 35.039138 ], [ -85.397636, 35.041754 ], [ -85.404601, 35.041779 ], [ -85.405163, 35.042115 ], [ -85.40684, 35.041243 ], [ -85.40812, 35.041339 ], [ -85.409272, 35.040683 ], [ -85.409912, 35.039483 ], [ -85.411204, 35.035593 ], [ -85.411243, 35.035498 ], [ -85.411265, 35.035442 ], [ -85.411288, 35.035387 ], [ -85.411318, 35.035327 ], [ -85.413074, 35.032855 ], [ -85.414248, 35.031275 ], [ -85.414104, 35.029531 ], [ -85.415752, 35.028075 ], [ -85.41684, 35.028347 ], [ -85.419016, 35.027883 ], [ -85.419896, 35.026603 ], [ -85.418632, 35.025211 ], [ -85.419384, 35.023403 ], [ -85.418792, 35.021035 ], [ -85.4182, 35.020219 ], [ -85.419832, 35.019179 ], [ -85.41948, 35.017243 ], [ -85.421032, 35.013739 ], [ -85.42407, 35.01174 ], [ -85.424965, 35.010525 ], [ -85.427411, 35.008143 ], [ -85.427779, 35.006673 ], [ -85.432048, 35.005059 ], [ -85.432742, 35.004254 ], [ -85.433886, 35.003013 ], [ -85.435421, 35.002341 ], [ -85.437014, 35.003036 ], [ -85.437979, 35.002949 ], [ -85.440073, 35.001 ], [ -85.442699, 35.000586 ], [ -85.442903, 34.999354 ], [ -85.443622, 34.999066 ], [ -85.442999, 34.997979 ], [ -85.443542, 34.997116 ], [ -85.447969, 34.99691 ], [ -85.450081, 34.995678 ], [ -85.452702, 34.996573 ], [ -85.456206, 34.995229 ], [ -85.457771, 34.993057 ], [ -85.461448, 34.990675 ], [ -85.463614, 34.989941 ], [ -85.465429, 34.989621 ], [ -85.46629, 34.988635 ], [ -85.468055, 34.98723 ], [ -85.468451, 34.986936 ], [ -85.468713, 34.986817 ], [ -85.469247, 34.986889 ], [ -85.469528, 34.986812 ], [ -85.474889, 34.986972 ], [ -85.474921, 34.985084 ], [ -85.474073, 34.98302 ], [ -85.466509, 34.982971 ], [ -85.46347, 34.982973 ], [ -85.459194, 34.982999 ], [ -85.458583, 34.983019 ], [ -85.458017, 34.983018 ], [ -85.432329, 34.982958 ], [ -85.431695, 34.982957 ], [ -85.422244, 34.982957 ], [ -85.410488, 34.982936 ], [ -85.409565, 34.982955 ], [ -85.409182, 34.982961 ], [ -85.40763, 34.982938 ], [ -85.398423, 34.982972 ], [ -85.395215, 34.982971 ], [ -85.394945, 34.98296 ], [ -85.384884, 34.982988 ], [ -85.379718, 34.983035 ], [ -85.379512, 34.983035 ], [ -85.365238, 34.983291 ], [ -85.364758, 34.983375 ], [ -85.362919, 34.983374 ], [ -85.362476, 34.983375 ], [ -85.360931, 34.983573 ], [ -85.360625, 34.983564 ], [ -85.35796, 34.983487 ], [ -85.355838, 34.983564 ], [ -85.354221, 34.983573 ], [ -85.349074, 34.983578 ], [ -85.345558, 34.983675 ], [ -85.345371, 34.983673 ], [ -85.344391, 34.983665 ], [ -85.341558, 34.983775 ], [ -85.333267, 34.983976 ], [ -85.332568, 34.983975 ], [ -85.327428, 34.983976 ], [ -85.322819, 34.984155 ], [ -85.317152, 34.984176 ], [ -85.310378, 34.984375 ], [ -85.305462, 34.984475 ], [ -85.29937, 34.984505 ], [ -85.294645, 34.984612 ], [ -85.294613, 34.98462 ], [ -85.289565, 34.984775 ], [ -85.287874, 34.984784 ], [ -85.287016, 34.984868 ], [ -85.286908, 34.984869 ], [ -85.285778, 34.984774 ], [ -85.284609, 34.984778 ], [ -85.281148, 34.98488 ], [ -85.280199, 34.984904 ], [ -85.27752, 34.984974 ], [ -85.273676, 34.984974 ], [ -85.27302, 34.984975 ], [ -85.270966, 34.985074 ], [ -85.264096, 34.985075 ], [ -85.25533, 34.985171 ], [ -85.254823, 34.985014 ], [ -85.252187, 34.985231 ], [ -85.244896, 34.985374 ], [ -85.242185, 34.985521 ], [ -85.239408, 34.985661 ], [ -85.235643, 34.985834 ], [ -85.23041, 34.985489 ], [ -85.227925, 34.985475 ], [ -85.226572, 34.985574 ], [ -85.225116, 34.985479 ], [ -85.223457, 34.985569 ], [ -85.221873, 34.985476 ], [ -85.220509, 34.985578 ], [ -85.218566, 34.98567 ], [ -85.218017, 34.985675 ], [ -85.21654, 34.985675 ], [ -85.21119, 34.985636 ], [ -85.209886, 34.985688 ], [ -85.208714, 34.985775 ], [ -85.207304, 34.985775 ], [ -85.202927, 34.985777 ], [ -85.201646, 34.985867 ], [ -85.201362, 34.985876 ], [ -85.195694, 34.985778 ], [ -85.19233, 34.985876 ], [ -85.187984, 34.985972 ], [ -85.187503, 34.985979 ], [ -85.182469, 34.986075 ], [ -85.180483, 34.986074 ], [ -85.175227, 34.985976 ], [ -85.171822, 34.986013 ], [ -85.166123, 34.986079 ], [ -85.164779, 34.986098 ], [ -85.157823, 34.986301 ], [ -85.154375, 34.986275 ], [ -85.150728, 34.986275 ], [ -85.147501, 34.986279 ], [ -85.143886, 34.986372 ], [ -85.140602, 34.986374 ], [ -85.138825, 34.986449 ], [ -85.130802, 34.986511 ], [ -85.126875, 34.986497 ], [ -85.126653, 34.986445 ], [ -85.124223, 34.986504 ], [ -85.118297, 34.986531 ], [ -85.117449, 34.986535 ], [ -85.114069, 34.98655 ], [ -85.106127, 34.986581 ], [ -85.102082, 34.986571 ], [ -85.096092, 34.986538 ], [ -85.083614, 34.986667 ], [ -85.064833, 34.986648 ], [ -85.057627, 34.986697 ], [ -85.057385, 34.986698 ], [ -85.057361, 34.986699 ], [ -85.056662, 34.986703 ], [ -85.056421, 34.986706 ], [ -85.055706, 34.986711 ], [ -85.05402, 34.986723 ], [ -85.053564, 34.986726 ], [ -85.052957, 34.986731 ], [ -85.05285, 34.986733 ], [ -85.051581, 34.986756 ], [ -85.049879, 34.986789 ], [ -85.047774, 34.986828 ], [ -85.046505, 34.986852 ], [ -85.037504, 34.986987 ], [ -85.025622, 34.987085 ], [ -85.00975, 34.987343 ], [ -85.007985, 34.987355 ], [ -84.999518, 34.987563 ], [ -84.984488, 34.987622 ], [ -84.981887, 34.987637 ], [ -84.980434, 34.987646 ], [ -84.976976, 34.987664 ], [ -84.962404, 34.98775 ], [ -84.961659, 34.987752 ], [ -84.955667, 34.987829 ], [ -84.952772, 34.987943 ], [ -84.944202, 34.987848 ], [ -84.943898, 34.987871 ], [ -84.93949, 34.987913 ], [ -84.93078, 34.987903 ], [ -84.921993, 34.987893 ], [ -84.905005, 34.987864 ], [ -84.891515, 34.988243 ], [ -84.891526, 34.98787 ], [ -84.886527, 34.987871 ], [ -84.88002, 34.987875 ], [ -84.860954, 34.987804 ], [ -84.85819, 34.987755 ], [ -84.851864, 34.987754 ], [ -84.831882, 34.987995 ], [ -84.831229, 34.987744 ], [ -84.820465, 34.987975 ], [ -84.819893, 34.987776 ], [ -84.80785, 34.987594 ], [ -84.802399, 34.98764 ], [ -84.779663, 34.98785 ], [ -84.776076, 34.987881 ], [ -84.775853, 34.987884 ], [ -84.750029, 34.988123 ], [ -84.738484, 34.987838 ], [ -84.737045, 34.987885 ], [ -84.730881, 34.988169 ], [ -84.725635, 34.988031 ], [ -84.709461, 34.988108 ], [ -84.68228, 34.988181 ], [ -84.677546, 34.988106 ], [ -84.66569, 34.988113 ], [ -84.634491, 34.988008 ], [ -84.624933, 34.987978 ], [ -84.621483, 34.988329 ], [ -84.604845, 34.988316 ], [ -84.603647, 34.988312 ], [ -84.600705, 34.988303 ], [ -84.59842, 34.988272 ], [ -84.597174, 34.988268 ], [ -84.596362, 34.988295 ], [ -84.596177, 34.988294 ], [ -84.595623, 34.988292 ], [ -84.595439, 34.988292 ], [ -84.593747, 34.988319 ], [ -84.571279, 34.988265 ], [ -84.56824, 34.988298 ], [ -84.555168, 34.988206 ], [ -84.503328, 34.988017 ], [ -84.487342, 34.988183 ], [ -84.466677, 34.988118 ], [ -84.466222, 34.988114 ], [ -84.463438, 34.988109 ], [ -84.458009, 34.988092 ], [ -84.455255, 34.988118 ], [ -84.453298, 34.988119 ], [ -84.44519, 34.988106 ], [ -84.438611, 34.988096 ], [ -84.425981, 34.988076 ], [ -84.413831, 34.988056 ], [ -84.403753, 34.98804 ], [ -84.401946, 34.988038 ], [ -84.398427, 34.988034 ], [ -84.393819, 34.988067 ], [ -84.389937, 34.988021 ], [ -84.387916, 34.988014 ], [ -84.382889, 34.988001 ], [ -84.381325, 34.987996 ], [ -84.377382, 34.987986 ], [ -84.373639, 34.988183 ], [ -84.372236, 34.98821 ], [ -84.371646, 34.98821 ], [ -84.371075, 34.988242 ], [ -84.37077, 34.988243 ], [ -84.37016, 34.988247 ], [ -84.36886, 34.988261 ], [ -84.36836, 34.988258 ], [ -84.367351, 34.988258 ], [ -84.367075, 34.988258 ], [ -84.366089, 34.988261 ], [ -84.352225, 34.988223 ], [ -84.340489, 34.988336 ], [ -84.338294, 34.98835 ], [ -84.332309, 34.988385 ], [ -84.328765, 34.988407 ], [ -84.323798, 34.988409 ], [ -84.321821, 34.988408 ], [ -84.32151, 34.991219 ], [ -84.320174, 35.002772 ], [ -84.317645, 35.02172 ], [ -84.317627, 35.021862 ], [ -84.317602, 35.022047 ], [ -84.316022, 35.033827 ], [ -84.315911, 35.034647 ], [ -84.315118, 35.040561 ], [ -84.31407, 35.048363 ], [ -84.312715, 35.058453 ], [ -84.31267, 35.058785 ], [ -84.312216, 35.062168 ], [ -84.311385, 35.068566 ], [ -84.310032, 35.078977 ], [ -84.308219, 35.092946 ], [ -84.307169, 35.10101 ], [ -84.30645, 35.106571 ], [ -84.305714, 35.112232 ], [ -84.305148, 35.11658 ], [ -84.305146, 35.116592 ], [ -84.305075, 35.11714 ], [ -84.305004, 35.117688 ], [ -84.304933, 35.118235 ], [ -84.304927, 35.118284 ], [ -84.304645, 35.120441 ], [ -84.304524, 35.121373 ], [ -84.30266, 35.135507 ], [ -84.299257, 35.161142 ], [ -84.298809, 35.163912 ], [ -84.29849, 35.165738 ], [ -84.298109, 35.167934 ], [ -84.297996, 35.168565 ], [ -84.297305, 35.172564 ], [ -84.297133, 35.173521 ], [ -84.296027, 35.178728 ], [ -84.295626, 35.18055 ], [ -84.294838, 35.185017 ], [ -84.294559, 35.188641 ], [ -84.293493, 35.197573 ], [ -84.292365, 35.206694 ], [ -84.290519, 35.223571 ], [ -84.290332, 35.224662 ], [ -84.290055, 35.225443 ], [ -84.287893, 35.224398 ], [ -84.285813, 35.22622 ], [ -84.283297, 35.226459 ], [ -84.282803, 35.227635 ], [ -84.281543, 35.22894 ], [ -84.277875, 35.231497 ], [ -84.277234, 35.232871 ], [ -84.275909, 35.234204 ], [ -84.272136, 35.236015 ], [ -84.268746, 35.237998 ], [ -84.267234, 35.238284 ], [ -84.2652, 35.239908 ], [ -84.260916, 35.241549 ], [ -84.259994, 35.24222 ], [ -84.25868, 35.245345 ], [ -84.252775, 35.249534 ], [ -84.25017, 35.251018 ], [ -84.247282, 35.251469 ], [ -84.243, 35.25321 ], [ -84.240438, 35.255149 ], [ -84.239694, 35.256671 ], [ -84.234828, 35.26146 ], [ -84.233331, 35.262764 ], [ -84.232646, 35.264093 ], [ -84.229201, 35.265943 ], [ -84.228845, 35.266973 ], [ -84.227484, 35.267926 ], [ -84.224611, 35.268859 ], [ -84.223415, 35.268907 ], [ -84.221163, 35.267518 ], [ -84.217718, 35.26816 ], [ -84.216015, 35.267512 ], [ -84.214704, 35.266209 ], [ -84.211395, 35.265621 ], [ -84.209167, 35.262202 ], [ -84.206473, 35.260369 ], [ -84.204902, 35.257477 ], [ -84.202887, 35.255116 ], [ -84.202396, 35.253042 ], [ -84.202823, 35.251805 ], [ -84.201688, 35.250149 ], [ -84.201791, 35.248021 ], [ -84.200481, 35.245207 ], [ -84.199212, 35.243667 ], [ -84.197243, 35.244281 ], [ -84.193166, 35.244681 ], [ -84.191157, 35.241951 ], [ -84.188957, 35.240217 ], [ -84.183513, 35.239996 ], [ -84.179067, 35.240434 ], [ -84.177794, 35.241828 ], [ -84.17301, 35.244349 ], [ -84.171401, 35.244722 ], [ -84.169869, 35.246435 ], [ -84.168396, 35.245521 ], [ -84.166703, 35.245225 ], [ -84.162894, 35.243809 ], [ -84.161161, 35.243599 ], [ -84.159486, 35.245651 ], [ -84.157517, 35.245806 ], [ -84.154723, 35.246494 ], [ -84.152734, 35.245975 ], [ -84.149972, 35.246059 ], [ -84.14797, 35.246844 ], [ -84.145415, 35.24643 ], [ -84.143831, 35.246685 ], [ -84.1394, 35.246097 ], [ -84.136612, 35.244607 ], [ -84.133619, 35.242377 ], [ -84.131918, 35.241785 ], [ -84.129753, 35.241669 ], [ -84.127277, 35.240755 ], [ -84.125958, 35.241524 ], [ -84.125687, 35.242441 ], [ -84.126251, 35.243511 ], [ -84.126131, 35.244904 ], [ -84.126659, 35.24577 ], [ -84.126491, 35.247154 ], [ -84.12522, 35.249871 ], [ -84.122974, 35.249892 ], [ -84.121128, 35.250629 ], [ -84.119927, 35.252049 ], [ -84.119077, 35.252249 ], [ -84.116171, 35.251163 ], [ -84.114168, 35.249161 ], [ -84.113083, 35.249024 ], [ -84.110309, 35.250436 ], [ -84.109253, 35.249891 ], [ -84.106849, 35.251518 ], [ -84.105313, 35.250363 ], [ -84.104207, 35.250214 ], [ -84.102965, 35.248631 ], [ -84.101053, 35.248459 ], [ -84.098628, 35.247564 ], [ -84.097504, 35.247598 ], [ -84.092318, 35.249374 ], [ -84.091337, 35.250043 ], [ -84.090938, 35.251374 ], [ -84.087795, 35.253105 ], [ -84.084934, 35.255556 ], [ -84.08253, 35.256288 ], [ -84.082837, 35.258408 ], [ -84.081013, 35.261158 ], [ -84.077249, 35.262116 ], [ -84.073991, 35.263365 ], [ -84.072635, 35.263306 ], [ -84.06732, 35.26497 ], [ -84.063684, 35.26663 ], [ -84.059169, 35.267353 ], [ -84.055598, 35.268496 ], [ -84.052383, 35.270495 ], [ -84.052614, 35.27141 ], [ -84.050669, 35.273567 ], [ -84.046719, 35.274416 ], [ -84.045539, 35.276193 ], [ -84.041504, 35.278975 ], [ -84.040542, 35.280181 ], [ -84.039295, 35.284206 ], [ -84.036239, 35.288418 ], [ -84.033171, 35.289879 ], [ -84.030229, 35.291746 ], [ -84.028031, 35.292756 ], [ -84.024254, 35.295504 ], [ -84.023085, 35.297196 ], [ -84.023303, 35.298916 ], [ -84.021495, 35.301083 ], [ -84.021779, 35.301857 ], [ -84.023032, 35.302385 ], [ -84.023975, 35.304188 ], [ -84.026298, 35.306321 ], [ -84.02674, 35.309431 ], [ -84.027911, 35.310099 ], [ -84.034115, 35.311183 ], [ -84.035717, 35.312913 ], [ -84.035829, 35.315798 ], [ -84.035115, 35.318387 ], [ -84.033919, 35.320614 ], [ -84.034566, 35.322108 ], [ -84.032878, 35.324064 ], [ -84.032442, 35.325286 ], [ -84.032535, 35.327643 ], [ -84.032184, 35.328766 ], [ -84.030397, 35.330691 ], [ -84.029287, 35.333256 ], [ -84.031414, 35.336476 ], [ -84.032767, 35.337181 ], [ -84.035922, 35.337496 ], [ -84.036212, 35.339371 ], [ -84.035568, 35.34147 ], [ -84.034053, 35.342546 ], [ -84.034001, 35.343276 ], [ -84.038266, 35.348214 ], [ -84.038881, 35.348208 ], [ -84.03839, 35.350924 ], [ -84.034274, 35.351646 ], [ -84.03295, 35.352868 ], [ -84.02961, 35.353763 ], [ -84.028046, 35.353623 ], [ -84.023714, 35.354087 ], [ -84.02273, 35.356273 ], [ -84.021006, 35.356962 ], [ -84.019456, 35.358341 ], [ -84.019247, 35.359518 ], [ -84.016455, 35.362658 ], [ -84.015057, 35.364981 ], [ -84.007394, 35.371649 ], [ -84.008742, 35.372818 ], [ -84.008882, 35.375731 ], [ -84.008301, 35.378766 ], [ -84.009587, 35.380889 ], [ -84.00963, 35.381872 ], [ -84.00968, 35.382503 ], [ -84.011396, 35.384601 ], [ -84.010457, 35.386813 ], [ -84.008296, 35.389732 ], [ -84.008907, 35.391299 ], [ -84.010475, 35.391983 ], [ -84.011963, 35.391883 ], [ -84.012794, 35.392664 ], [ -84.013695, 35.397646 ], [ -84.015138, 35.398555 ], [ -84.017881, 35.399307 ], [ -84.018712, 35.399996 ], [ -84.020311, 35.403038 ], [ -84.021452, 35.404223 ], [ -84.021101, 35.40641 ], [ -84.02283, 35.409265 ], [ -84.023498, 35.411419 ], [ -84.023052, 35.411933 ], [ -84.020224, 35.411998 ], [ -84.018304, 35.411396 ], [ -84.0153, 35.411931 ], [ -84.013889, 35.412711 ], [ -84.01217, 35.415069 ], [ -84.01064, 35.416477 ], [ -84.006181, 35.41964 ], [ -84.005254, 35.421186 ], [ -84.004262, 35.421449 ], [ -84.001682, 35.423029 ], [ -83.999482, 35.425941 ], [ -83.999165, 35.426936 ], [ -83.999884, 35.428366 ], [ -83.997955, 35.430732 ], [ -83.999412, 35.431343 ], [ -83.998636, 35.432176 ], [ -83.999708, 35.433191 ], [ -83.999124, 35.434223 ], [ -83.997442, 35.433801 ], [ -83.996351, 35.434905 ], [ -83.994894, 35.435069 ], [ -83.994476, 35.436739 ], [ -83.992985, 35.437757 ], [ -83.992601, 35.439465 ], [ -83.991777, 35.440674 ], [ -83.990308, 35.439611 ], [ -83.988194, 35.439362 ], [ -83.988671, 35.440311 ], [ -83.987983, 35.440921 ], [ -83.984433, 35.44015 ], [ -83.983449, 35.44081 ], [ -83.982533, 35.444271 ], [ -83.979757, 35.44826 ], [ -83.97854, 35.447961 ], [ -83.976719, 35.446692 ], [ -83.975828, 35.446561 ], [ -83.97532, 35.447809 ], [ -83.973968, 35.447878 ], [ -83.972745, 35.44723 ], [ -83.973077, 35.44865 ], [ -83.973017, 35.451792 ], [ -83.97272, 35.452992 ], [ -83.971096, 35.453007 ], [ -83.971969, 35.454638 ], [ -83.970948, 35.455493 ], [ -83.969461, 35.455167 ], [ -83.966516, 35.455119 ], [ -83.964797, 35.454105 ], [ -83.964242, 35.455083 ], [ -83.96563, 35.455724 ], [ -83.964864, 35.456621 ], [ -83.963085, 35.456422 ], [ -83.963223, 35.458031 ], [ -83.961051, 35.460174 ], [ -83.961193, 35.461673 ], [ -83.961102, 35.463754 ], [ -83.963213, 35.46452 ], [ -83.964855, 35.46582 ], [ -83.965488, 35.466891 ], [ -83.965509, 35.469692 ], [ -83.965151, 35.471117 ], [ -83.963434, 35.473004 ], [ -83.958644, 35.474304 ], [ -83.955469, 35.475576 ], [ -83.950689, 35.477948 ], [ -83.945582, 35.479888 ], [ -83.943794, 35.480741 ], [ -83.941893, 35.482416 ], [ -83.93939, 35.485319 ], [ -83.93854, 35.487773 ], [ -83.939643, 35.488937 ], [ -83.942476, 35.490371 ], [ -83.944234, 35.490737 ], [ -83.950025, 35.490942 ], [ -83.951927, 35.489792 ], [ -83.95413, 35.489435 ], [ -83.957674, 35.489674 ], [ -83.959791, 35.490341 ], [ -83.961789, 35.491702 ], [ -83.96894, 35.498982 ], [ -83.972028, 35.500728 ], [ -83.975006, 35.501015 ], [ -83.976479, 35.500084 ], [ -83.978321, 35.496665 ], [ -83.978938, 35.493346 ], [ -83.980654, 35.487908 ], [ -83.982019, 35.486994 ], [ -83.984351, 35.486686 ], [ -83.987343, 35.487483 ], [ -83.989422, 35.489876 ], [ -83.989195, 35.494619 ], [ -83.990125, 35.497413 ], [ -83.991944, 35.499433 ], [ -83.996425, 35.501674 ], [ -84.001698, 35.50437 ], [ -84.007611, 35.508582 ], [ -84.009842, 35.510955 ], [ -84.010992, 35.513807 ], [ -84.01091, 35.516114 ], [ -84.010275, 35.517495 ], [ -84.007983, 35.52046 ], [ -84.004627, 35.523146 ], [ -84.000523, 35.52479 ], [ -83.995012, 35.526264 ], [ -83.994468, 35.52678 ], [ -83.993389, 35.527891 ], [ -83.992453, 35.530721 ], [ -83.992966, 35.532843 ], [ -83.994422, 35.535307 ], [ -83.99712, 35.541075 ], [ -83.996856, 35.542721 ], [ -83.994209, 35.54775 ], [ -83.993815, 35.550001 ], [ -83.995926, 35.55294 ], [ -83.998728, 35.554185 ], [ -83.999904, 35.554707 ], [ -84.0055, 35.554758 ], [ -84.007962, 35.553818 ], [ -84.008842, 35.553338 ], [ -84.010136, 35.551593 ], [ -84.011029, 35.547913 ], [ -84.012768, 35.546635 ], [ -84.014371, 35.54626 ], [ -84.019123, 35.546077 ], [ -84.022331, 35.546206 ], [ -84.025698, 35.546786 ], [ -84.030008, 35.546622 ], [ -84.032446, 35.545793 ], [ -84.038753, 35.542679 ], [ -84.040424, 35.542247 ], [ -84.042972, 35.542175 ], [ -84.045317, 35.543024 ], [ -84.046965, 35.544487 ], [ -84.04876, 35.545522 ], [ -84.050488, 35.546055 ], [ -84.054117, 35.546338 ], [ -84.05865, 35.545599 ], [ -84.062744, 35.545764 ], [ -84.06809, 35.546393 ], [ -84.070361, 35.546023 ], [ -84.072249, 35.545227 ], [ -84.076603, 35.543932 ], [ -84.081561, 35.541231 ], [ -84.085507, 35.541372 ], [ -84.088794, 35.543709 ], [ -84.090036, 35.546834 ], [ -84.091744, 35.550176 ], [ -84.094807, 35.55332 ], [ -84.094249, 35.55402 ], [ -84.089614, 35.559788 ], [ -84.087768, 35.559875 ], [ -84.091438, 35.563397 ], [ -84.092165, 35.564107 ], [ -84.096196, 35.567997 ], [ -84.096192, 35.568851 ], [ -84.096184, 35.571409 ], [ -84.096169, 35.575487 ], [ -84.10444, 35.575142 ], [ -84.105386, 35.573806 ], [ -84.107197, 35.573803 ], [ -84.110436, 35.577554 ], [ -84.111764, 35.576758 ], [ -84.112321, 35.577735 ], [ -84.109418, 35.579698 ], [ -84.110062, 35.58297 ], [ -84.109841, 35.584384 ], [ -84.112319, 35.587456 ], [ -84.11787, 35.583953 ], [ -84.118944, 35.583275 ], [ -84.119713, 35.58132 ], [ -84.12094, 35.582331 ], [ -84.125247, 35.58235 ], [ -84.125486, 35.580616 ], [ -84.127508, 35.578321 ], [ -84.130953, 35.576313 ], [ -84.13288, 35.579025 ], [ -84.132845, 35.580192 ], [ -84.138265, 35.580079 ], [ -84.140295, 35.580828 ], [ -84.140114, 35.581908 ], [ -84.13983, 35.582839 ], [ -84.140016, 35.58363 ], [ -84.14871, 35.58379 ], [ -84.14891, 35.591265 ], [ -84.1514, 35.59151 ], [ -84.1595, 35.592312 ], [ -84.170773, 35.593427 ], [ -84.176857, 35.596403 ], [ -84.181868, 35.598892 ], [ -84.183822, 35.602456 ], [ -84.183854, 35.602509 ], [ -84.183866, 35.602527 ], [ -84.183909, 35.602599 ], [ -84.18395, 35.60267 ], [ -84.183983, 35.602724 ], [ -84.184749, 35.604125 ], [ -84.184759, 35.604143 ], [ -84.184789, 35.604197 ], [ -84.184799, 35.604216 ], [ -84.184822, 35.604259 ], [ -84.184835, 35.604282 ], [ -84.184878, 35.604362 ], [ -84.184896, 35.604396 ], [ -84.184923, 35.604444 ], [ -84.185074, 35.604715 ], [ -84.186198, 35.60675 ], [ -84.186617, 35.607502 ], [ -84.186759, 35.607753 ], [ -84.187326, 35.608762 ], [ -84.187863, 35.609727 ], [ -84.188207, 35.610347 ], [ -84.188319, 35.610549 ], [ -84.188417, 35.610727 ], [ -84.188627, 35.611105 ], [ -84.190718, 35.614902 ], [ -84.190884, 35.615205 ], [ -84.190967, 35.615356 ], [ -84.191074, 35.61555 ], [ -84.191502, 35.616329 ], [ -84.191763, 35.616721 ], [ -84.191782, 35.616736 ], [ -84.19263, 35.618241 ], [ -84.194337, 35.618093 ], [ -84.194806, 35.618052 ], [ -84.195961, 35.617935 ], [ -84.196447, 35.617885 ], [ -84.199796, 35.617546 ], [ -84.20066, 35.617457 ], [ -84.213413, 35.616151 ], [ -84.218682, 35.615606 ], [ -84.220301, 35.615438 ], [ -84.221451, 35.615322 ], [ -84.22437, 35.61883 ], [ -84.22646, 35.620875 ], [ -84.228423, 35.622074 ], [ -84.230594, 35.622296 ], [ -84.234906, 35.621612 ], [ -84.242468, 35.618376 ], [ -84.245144, 35.617612 ], [ -84.249917, 35.617196 ], [ -84.253071, 35.617852 ], [ -84.254248, 35.619734 ], [ -84.254502, 35.623626 ], [ -84.253929, 35.6262 ], [ -84.252018, 35.630184 ], [ -84.248799, 35.632358 ], [ -84.2476, 35.633782 ], [ -84.249345, 35.633714 ], [ -84.250078, 35.635106 ], [ -84.250697, 35.636753 ], [ -84.250715, 35.6368 ], [ -84.250771, 35.636941 ], [ -84.25079, 35.636989 ], [ -84.252109, 35.636512 ], [ -84.254065, 35.635807 ], [ -84.255248, 35.634037 ], [ -84.256028, 35.632871 ], [ -84.256048, 35.632818 ], [ -84.256111, 35.63266 ], [ -84.256132, 35.632608 ], [ -84.256186, 35.63247 ], [ -84.256352, 35.632059 ], [ -84.256407, 35.631922 ], [ -84.256503, 35.631985 ], [ -84.256792, 35.632174 ], [ -84.256889, 35.632237 ], [ -84.256907, 35.632272 ], [ -84.256912, 35.632281 ], [ -84.257967, 35.63314 ], [ -84.259646, 35.63421 ], [ -84.261336, 35.635288 ], [ -84.263541, 35.635685 ], [ -84.26835, 35.635456 ], [ -84.273423, 35.635517 ], [ -84.281835, 35.635572 ], [ -84.281776, 35.640829 ], [ -84.282185, 35.641346 ], [ -84.282392, 35.641482 ], [ -84.290805, 35.641872 ], [ -84.290887, 35.643017 ], [ -84.297522, 35.643152 ], [ -84.295197, 35.650229 ], [ -84.290867, 35.650327 ], [ -84.290837, 35.651717 ], [ -84.290765, 35.654925 ], [ -84.291904, 35.654908 ], [ -84.299561, 35.654928 ], [ -84.299549, 35.657673 ], [ -84.308698, 35.657795 ], [ -84.310238, 35.659311 ], [ -84.312084, 35.659293 ], [ -84.316159, 35.660506 ], [ -84.31759, 35.65996 ], [ -84.317506, 35.667609 ], [ -84.317628, 35.672107 ], [ -84.326443, 35.672204 ], [ -84.326477, 35.665005 ], [ -84.326906, 35.664959 ], [ -84.329659, 35.66499 ], [ -84.338234, 35.665102 ], [ -84.339503, 35.665003 ], [ -84.343466, 35.665074 ], [ -84.347533, 35.665185 ], [ -84.355212, 35.665162 ], [ -84.357608, 35.665162 ], [ -84.357585, 35.657916 ], [ -84.354589, 35.657846 ], [ -84.353303, 35.657837 ], [ -84.353287, 35.655906 ], [ -84.353275, 35.654396 ], [ -84.355739, 35.654409 ], [ -84.35621, 35.654412 ], [ -84.362228, 35.654448 ], [ -84.362238, 35.652442 ], [ -84.362213, 35.651806 ], [ -84.36227, 35.647189 ], [ -84.36541, 35.647014 ], [ -84.371296, 35.647025 ], [ -84.371315, 35.643451 ], [ -84.374387, 35.643449 ], [ -84.374397, 35.641706 ], [ -84.375572, 35.641678 ], [ -84.380115, 35.641419 ], [ -84.380124, 35.640592 ], [ -84.38529, 35.640644 ], [ -84.385011, 35.639841 ], [ -84.386149, 35.639831 ], [ -84.388948, 35.640084 ], [ -84.398074, 35.640208 ], [ -84.397926, 35.645536 ], [ -84.397901, 35.650995 ], [ -84.406502, 35.651188 ], [ -84.406459, 35.654637 ], [ -84.402237, 35.654694 ], [ -84.404484, 35.660435 ], [ -84.403663, 35.66086 ], [ -84.404294, 35.66193 ], [ -84.406472, 35.665622 ], [ -84.408502, 35.665609 ], [ -84.409297, 35.665982 ], [ -84.410509, 35.666698 ], [ -84.412661, 35.665394 ], [ -84.414254, 35.664828 ], [ -84.412536, 35.667903 ], [ -84.412687, 35.667944 ], [ -84.414515, 35.665219 ], [ -84.416172, 35.662228 ], [ -84.418246, 35.66258 ], [ -84.419955, 35.663608 ], [ -84.420857, 35.663136 ], [ -84.42289, 35.663015 ], [ -84.423826, 35.661565 ], [ -84.424785, 35.661078 ], [ -84.425619, 35.662526 ], [ -84.425158, 35.663733 ], [ -84.425663, 35.665225 ], [ -84.423907, 35.665159 ], [ -84.422942, 35.668012 ], [ -84.424149, 35.668517 ], [ -84.423645, 35.671224 ], [ -84.423549, 35.671735 ], [ -84.425376, 35.672269 ], [ -84.427479, 35.672264 ], [ -84.429121, 35.67194 ], [ -84.433364, 35.671959 ], [ -84.435214, 35.671002 ], [ -84.437664, 35.671077 ], [ -84.437254, 35.669486 ], [ -84.437865, 35.667873 ], [ -84.435684, 35.66787 ], [ -84.43578, 35.665953 ], [ -84.436493, 35.665951 ], [ -84.448094, 35.665957 ], [ -84.449308, 35.665926 ], [ -84.45101, 35.66585 ], [ -84.452396, 35.665807 ], [ -84.453289, 35.665795 ], [ -84.457249, 35.665763 ], [ -84.457218, 35.66031 ], [ -84.45724, 35.659081 ], [ -84.458363, 35.658735 ], [ -84.460119, 35.658623 ], [ -84.465278, 35.658501 ], [ -84.467744, 35.658492 ], [ -84.477568, 35.658437 ], [ -84.47899, 35.658109 ], [ -84.481729, 35.658311 ], [ -84.48455, 35.658373 ], [ -84.486754, 35.658376 ], [ -84.487344, 35.655508 ], [ -84.495561, 35.655445 ], [ -84.495525, 35.658378 ], [ -84.499145, 35.658527 ], [ -84.49913, 35.660251 ], [ -84.50022, 35.660296 ], [ -84.500245, 35.661069 ], [ -84.500114, 35.665745 ], [ -84.504274, 35.665866 ], [ -84.504336, 35.662993 ], [ -84.504412, 35.659487 ], [ -84.50443, 35.658603 ], [ -84.504595, 35.651034 ], [ -84.506406, 35.651085 ], [ -84.508491, 35.651308 ], [ -84.5132, 35.651332 ], [ -84.51668, 35.651326 ], [ -84.522162, 35.651394 ], [ -84.522545, 35.643984 ], [ -84.513697, 35.644034 ], [ -84.513749, 35.642242 ], [ -84.510207, 35.642215 ], [ -84.509243, 35.642154 ], [ -84.509201, 35.639474 ], [ -84.513774, 35.639492 ], [ -84.513777, 35.636829 ], [ -84.510909, 35.636759 ], [ -84.508657, 35.636686 ], [ -84.508623, 35.633482 ], [ -84.508579, 35.629399 ], [ -84.504192, 35.629392 ], [ -84.502235, 35.629392 ], [ -84.500061, 35.62939 ], [ -84.500877, 35.627083 ], [ -84.502441, 35.625396 ], [ -84.502396, 35.624438 ], [ -84.503763, 35.622109 ], [ -84.503415, 35.620648 ], [ -84.504746, 35.619542 ], [ -84.51371, 35.619494 ], [ -84.513718, 35.621268 ], [ -84.514103, 35.621229 ], [ -84.516041, 35.62312 ], [ -84.517331, 35.623046 ], [ -84.51737, 35.624191 ], [ -84.52585, 35.624186 ], [ -84.525984, 35.628113 ], [ -84.531419, 35.628119 ], [ -84.531448, 35.629457 ], [ -84.534006, 35.629555 ], [ -84.535386, 35.633696 ], [ -84.539013, 35.63779 ], [ -84.540067, 35.63669 ], [ -84.541694, 35.63769 ], [ -84.546067, 35.640398 ], [ -84.546096, 35.640414 ], [ -84.547603, 35.641327 ], [ -84.549115, 35.641115 ], [ -84.549098, 35.640174 ], [ -84.54923, 35.636896 ], [ -84.550569, 35.636934 ], [ -84.557926, 35.636973 ], [ -84.557872, 35.629651 ], [ -84.566934, 35.629773 ], [ -84.566915, 35.63324 ], [ -84.569411, 35.633218 ], [ -84.575798, 35.633159 ], [ -84.576675, 35.633153 ], [ -84.584296, 35.633086 ], [ -84.584289, 35.634939 ], [ -84.584352, 35.637231 ], [ -84.584428, 35.641606 ], [ -84.584472, 35.644424 ], [ -84.584461, 35.645801 ], [ -84.584444, 35.648339 ], [ -84.584469, 35.650331 ], [ -84.58441, 35.651607 ], [ -84.579587, 35.651625 ], [ -84.576407, 35.651638 ], [ -84.575503, 35.651638 ], [ -84.575671, 35.657348 ], [ -84.575615, 35.658604 ], [ -84.575602, 35.658889 ], [ -84.565717, 35.658843 ], [ -84.553352, 35.658825 ], [ -84.55337, 35.662406 ], [ -84.550918, 35.662404 ], [ -84.548872, 35.662402 ], [ -84.548815, 35.665642 ], [ -84.54881, 35.666062 ], [ -84.541204, 35.665916 ], [ -84.540254, 35.665873 ], [ -84.540031, 35.665894 ], [ -84.539963, 35.670465 ], [ -84.530976, 35.670382 ], [ -84.530779, 35.676612 ], [ -84.526299, 35.676607 ], [ -84.52542, 35.676606 ], [ -84.521936, 35.676597 ], [ -84.521887, 35.680907 ], [ -84.521842, 35.683729 ], [ -84.526842, 35.683902 ], [ -84.527427, 35.683912 ], [ -84.531909, 35.683997 ], [ -84.531877, 35.684294 ], [ -84.531803, 35.687606 ], [ -84.530737, 35.687609 ], [ -84.530597, 35.69072 ], [ -84.530577, 35.691171 ], [ -84.526171, 35.691329 ], [ -84.526091, 35.6948 ], [ -84.521869, 35.694773 ], [ -84.521551, 35.705053 ], [ -84.521008, 35.705865 ], [ -84.516891, 35.71204 ], [ -84.512361, 35.715149 ], [ -84.510472, 35.716448 ], [ -84.494488, 35.716362 ], [ -84.482554, 35.727633 ], [ -84.481451, 35.728682 ], [ -84.472, 35.737664 ], [ -84.47088, 35.738716 ], [ -84.46793, 35.741489 ], [ -84.458787, 35.750073 ], [ -84.449173, 35.758867 ], [ -84.448361, 35.759382 ], [ -84.44733, 35.759083 ], [ -84.4475, 35.758201 ], [ -84.447351, 35.757112 ], [ -84.447104, 35.75612 ], [ -84.446348, 35.75468 ], [ -84.445709, 35.75403 ], [ -84.444352, 35.752917 ], [ -84.441143, 35.750583 ], [ -84.440059, 35.750074 ], [ -84.43857, 35.749192 ], [ -84.43642, 35.748367 ], [ -84.435166, 35.748212 ], [ -84.43407, 35.74821 ], [ -84.433406, 35.748306 ], [ -84.431706, 35.74873 ], [ -84.431359, 35.748888 ], [ -84.430123, 35.749452 ], [ -84.42907, 35.750074 ], [ -84.428548, 35.750473 ], [ -84.427155, 35.751833 ], [ -84.42601, 35.753255 ], [ -84.425289, 35.754569 ], [ -84.424991, 35.755533 ], [ -84.424408, 35.75796 ], [ -84.424358, 35.758954 ], [ -84.424483, 35.762976 ], [ -84.424488, 35.764664 ], [ -84.424336, 35.766402 ], [ -84.423889, 35.768441 ], [ -84.423249, 35.770004 ], [ -84.422009, 35.771976 ], [ -84.420862, 35.773277 ], [ -84.419143, 35.774752 ], [ -84.417696, 35.775747 ], [ -84.416415, 35.776451 ], [ -84.414745, 35.7769 ], [ -84.412588, 35.777117 ], [ -84.408241, 35.777245 ], [ -84.406695, 35.777046 ], [ -84.404442, 35.776545 ], [ -84.402764, 35.775951 ], [ -84.399731, 35.774526 ], [ -84.395614, 35.772471 ], [ -84.391961, 35.770405 ], [ -84.388607, 35.768352 ], [ -84.388333, 35.768683 ], [ -84.386895, 35.770427 ], [ -84.380776, 35.777851 ], [ -84.382112, 35.778645 ], [ -84.386125, 35.781036 ], [ -84.388296, 35.782319 ], [ -84.387432, 35.783375 ], [ -84.382473, 35.78709 ], [ -84.377189, 35.790678 ], [ -84.378323, 35.792941 ], [ -84.378968, 35.792881 ], [ -84.381909, 35.796521 ], [ -84.379881, 35.797815 ], [ -84.381161, 35.805642 ], [ -84.379668, 35.817439 ], [ -84.375326, 35.820274 ], [ -84.375568, 35.822429 ], [ -84.374342, 35.822954 ], [ -84.372165, 35.823888 ], [ -84.371537, 35.825862 ], [ -84.36486, 35.825335 ], [ -84.354572, 35.829531 ], [ -84.353508, 35.829965 ], [ -84.350681, 35.831121 ], [ -84.347624, 35.832367 ], [ -84.342791, 35.83189 ], [ -84.342269, 35.834323 ], [ -84.340142, 35.835486 ], [ -84.339887, 35.83698 ], [ -84.338888, 35.837539 ], [ -84.337898, 35.839865 ], [ -84.338021, 35.843776 ], [ -84.338792, 35.847163 ], [ -84.338687, 35.849486 ], [ -84.338871, 35.850295 ], [ -84.337492, 35.856671 ], [ -84.336888, 35.86027 ], [ -84.335447, 35.869461 ], [ -84.333901, 35.876443 ], [ -84.333734, 35.877137 ], [ -84.338222, 35.877217 ], [ -84.336918, 35.879751 ], [ -84.336814, 35.879955 ], [ -84.336583, 35.88044 ], [ -84.336311, 35.881015 ], [ -84.334875, 35.879831 ], [ -84.333213, 35.879319 ], [ -84.332902, 35.880624 ], [ -84.330962, 35.888757 ], [ -84.330159, 35.892115 ], [ -84.32997, 35.892904 ], [ -84.327392, 35.889375 ], [ -84.324275, 35.887133 ], [ -84.322983, 35.88675 ], [ -84.319184, 35.886313 ], [ -84.316957, 35.886591 ], [ -84.312966, 35.887847 ], [ -84.310376, 35.888272 ], [ -84.30906, 35.888253 ], [ -84.304926, 35.88721 ], [ -84.296684, 35.884602 ], [ -84.293683, 35.883323 ], [ -84.289801, 35.879511 ], [ -84.287551, 35.876758 ], [ -84.285613, 35.875077 ], [ -84.282678, 35.875077 ], [ -84.28169, 35.875467 ], [ -84.278976, 35.87721 ], [ -84.278545, 35.879796 ], [ -84.278817, 35.881035 ], [ -84.281682, 35.886298 ], [ -84.283758, 35.889491 ], [ -84.285811, 35.894283 ], [ -84.285931, 35.896142 ], [ -84.285502, 35.899181 ], [ -84.284551, 35.901026 ], [ -84.282819, 35.902319 ], [ -84.281159, 35.902984 ], [ -84.279297, 35.902846 ], [ -84.277083, 35.901985 ], [ -84.274541, 35.900263 ], [ -84.271373, 35.89666 ], [ -84.268952, 35.894794 ], [ -84.266656, 35.894101 ], [ -84.265292, 35.894349 ], [ -84.264045, 35.895181 ], [ -84.263383, 35.89694 ], [ -84.264928, 35.898455 ], [ -84.268393, 35.902563 ], [ -84.271309, 35.907351 ], [ -84.271587, 35.910165 ], [ -84.270666, 35.91201 ], [ -84.2679, 35.913879 ], [ -84.26394, 35.914399 ], [ -84.261609, 35.914425 ], [ -84.257863, 35.915207 ], [ -84.255365, 35.916078 ], [ -84.253314, 35.917374 ], [ -84.252359, 35.918888 ], [ -84.252675, 35.920386 ], [ -84.255333, 35.92513 ], [ -84.256366, 35.928358 ], [ -84.258878, 35.929668 ], [ -84.260944, 35.930027 ], [ -84.263766, 35.931268 ], [ -84.26769, 35.933888 ], [ -84.27167, 35.935685 ], [ -84.272889, 35.936694 ], [ -84.27347, 35.939278 ], [ -84.271546, 35.942228 ], [ -84.26821, 35.943867 ], [ -84.264725, 35.943637 ], [ -84.258397, 35.941557 ], [ -84.25434, 35.939936 ], [ -84.251527, 35.938013 ], [ -84.250203, 35.936495 ], [ -84.247808, 35.932942 ], [ -84.244784, 35.930334 ], [ -84.241679, 35.929182 ], [ -84.239695, 35.929006 ], [ -84.237583, 35.929646 ], [ -84.236271, 35.930638 ], [ -84.235823, 35.931678 ], [ -84.236575, 35.934334 ], [ -84.238207, 35.937486 ], [ -84.23921, 35.940993 ], [ -84.237967, 35.943342 ], [ -84.237791, 35.944462 ], [ -84.238576, 35.946967 ], [ -84.239897, 35.948025 ], [ -84.241949, 35.948464 ], [ -84.244854, 35.948656 ], [ -84.24587, 35.950511 ], [ -84.24536, 35.953134 ], [ -84.244016, 35.95499 ], [ -84.240704, 35.95571 ], [ -84.23896, 35.955454 ], [ -84.236336, 35.954414 ], [ -84.233019, 35.952577 ], [ -84.229967, 35.950398 ], [ -84.227679, 35.948286 ], [ -84.224975, 35.94707 ], [ -84.221373, 35.945752 ], [ -84.217775, 35.94571 ], [ -84.215902, 35.946382 ], [ -84.214094, 35.947854 ], [ -84.213782, 35.950119 ], [ -84.214495, 35.95411 ], [ -84.215855, 35.956654 ], [ -84.217583, 35.957486 ], [ -84.220127, 35.959918 ], [ -84.220575, 35.961614 ], [ -84.219535, 35.963438 ], [ -84.216527, 35.96651 ], [ -84.215791, 35.971662 ], [ -84.215759, 35.97331 ], [ -84.214647, 35.975115 ], [ -84.213407, 35.975774 ], [ -84.206206, 35.976734 ], [ -84.201918, 35.976894 ], [ -84.198894, 35.977198 ], [ -84.196606, 35.978414 ], [ -84.195694, 35.979566 ], [ -84.194606, 35.981999 ], [ -84.194334, 35.983615 ], [ -84.195726, 35.990303 ], [ -84.195511, 35.991602 ], [ -84.195488, 35.991692 ], [ -84.195151, 35.993008 ], [ -84.193247, 35.994992 ], [ -84.191535, 35.995632 ], [ -84.190271, 35.994976 ], [ -84.187262, 35.994383 ], [ -84.184558, 35.992943 ], [ -84.180567, 35.9922 ], [ -84.174851, 35.991629 ], [ -84.167252, 35.990536 ], [ -84.161754, 35.989912 ], [ -84.159222, 35.990432 ], [ -84.157886, 35.991276 ], [ -84.15731, 35.990883 ], [ -84.157068, 35.990671 ], [ -84.15518, 35.989359 ], [ -84.1495, 35.986927 ], [ -84.14742, 35.987007 ], [ -84.146652, 35.988287 ], [ -84.144965, 35.98998 ], [ -84.1443, 35.990511 ], [ -84.143052, 35.990047 ], [ -84.139644, 35.989807 ], [ -84.137836, 35.990879 ], [ -84.138188, 35.992927 ], [ -84.137564, 35.993647 ], [ -84.1363, 35.993359 ], [ -84.133731, 35.994067 ], [ -84.129963, 35.994463 ], [ -84.129707, 35.996111 ], [ -84.128203, 35.996809 ], [ -84.12813, 35.996818 ], [ -84.127659, 35.996991 ], [ -84.127147, 35.997263 ], [ -84.126765, 35.997693 ], [ -84.126724, 35.997729 ], [ -84.125643, 35.998383 ], [ -84.124108, 35.998379 ], [ -84.122123, 35.999311 ], [ -84.119867, 36.000959 ], [ -84.118283, 36.000223 ], [ -84.116235, 36.000079 ], [ -84.114972, 35.999485 ], [ -84.113375, 36.000364 ], [ -84.112814, 36.00161 ], [ -84.110939, 36.003295 ], [ -84.109275, 36.003567 ], [ -84.107178, 36.005055 ], [ -84.106186, 36.005743 ], [ -84.105946, 36.007135 ], [ -84.103956, 36.00795 ], [ -84.103892, 36.009074 ], [ -84.103719, 36.010373 ], [ -84.103627, 36.01207 ], [ -84.101465, 36.011709 ], [ -84.100217, 36.012241 ], [ -84.099732, 36.012521 ], [ -84.093481, 36.01472 ], [ -84.091675, 36.014984 ], [ -84.090684, 36.015346 ], [ -84.089011, 36.015915 ], [ -84.088297, 36.015837 ], [ -84.085091, 36.016709 ], [ -84.084618, 36.017104 ], [ -84.082977, 36.018318 ], [ -84.082715, 36.018683 ], [ -84.080478, 36.020215 ], [ -84.079321, 36.020465 ], [ -84.077945, 36.019569 ], [ -84.077109, 36.019677 ], [ -84.076298, 36.020656 ], [ -84.076586, 36.023488 ], [ -84.073827, 36.025605 ], [ -84.070905, 36.026312 ], [ -84.070253, 36.027551 ], [ -84.070679, 36.028278 ], [ -84.070116, 36.028881 ], [ -84.069879, 36.029624 ], [ -84.068195, 36.031393 ], [ -84.063549, 36.03282 ], [ -84.060185, 36.035664 ], [ -84.058585, 36.036304 ], [ -84.065795, 36.043065 ], [ -84.068921, 36.046022 ], [ -84.071608, 36.048528 ], [ -84.071836, 36.048764 ], [ -84.072849, 36.04968 ], [ -84.074165, 36.05088 ], [ -84.075685, 36.052232 ], [ -84.080469, 36.056542 ], [ -84.084319, 36.060256 ], [ -84.088827, 36.064271 ], [ -84.090402, 36.065673 ], [ -84.094011, 36.068911 ], [ -84.092251, 36.070223 ], [ -84.09134, 36.071439 ], [ -84.091762, 36.072095 ], [ -84.092759, 36.073724 ], [ -84.09014, 36.074703 ], [ -84.088668, 36.076975 ], [ -84.086458, 36.075375 ], [ -84.08457, 36.075471 ], [ -84.08289, 36.076383 ], [ -84.081458, 36.077715 ], [ -84.081102, 36.078144 ], [ -84.078054, 36.080936 ], [ -84.072427, 36.083263 ], [ -84.069931, 36.086063 ], [ -84.068075, 36.086559 ], [ -84.068171, 36.087679 ], [ -84.066693, 36.089788 ], [ -84.065418, 36.09082 ], [ -84.063549, 36.093678 ], [ -84.060328, 36.095537 ], [ -84.057811, 36.097752 ], [ -84.055048, 36.09901 ], [ -84.053124, 36.100325 ], [ -84.052034, 36.100982 ], [ -84.051362, 36.102296 ], [ -84.047962, 36.103454 ], [ -84.046122, 36.103839 ], [ -84.045146, 36.104911 ], [ -84.045178, 36.106271 ], [ -84.043626, 36.108399 ], [ -84.04392, 36.109182 ], [ -84.044492, 36.110703 ], [ -84.043836, 36.111583 ], [ -84.040955, 36.110831 ], [ -84.038635, 36.111712 ], [ -84.036907, 36.111696 ], [ -84.034747, 36.112784 ], [ -84.033307, 36.11408 ], [ -84.030188, 36.116089 ], [ -84.029717, 36.116475 ], [ -84.029601, 36.116569 ], [ -84.028074, 36.118623 ], [ -84.027994, 36.119871 ], [ -84.029178, 36.120751 ], [ -84.028698, 36.122591 ], [ -84.027162, 36.123855 ], [ -84.02374, 36.125079 ], [ -84.022441, 36.126716 ], [ -84.020514, 36.128879 ], [ -84.018714, 36.129279 ], [ -84.016614, 36.128579 ], [ -84.015514, 36.129378 ], [ -84.016314, 36.130879 ], [ -84.015885, 36.132491 ], [ -84.015314, 36.135378 ], [ -84.011312, 36.134779 ], [ -84.009459, 36.134464 ], [ -84.009414, 36.134479 ], [ -84.00933, 36.134506 ], [ -84.008814, 36.134679 ], [ -84.008313, 36.134979 ], [ -84.007913, 36.135279 ], [ -84.007513, 36.135679 ], [ -84.007283, 36.135887 ], [ -84.004413, 36.138079 ], [ -84.002713, 36.138779 ], [ -84.000313, 36.138979 ], [ -83.999023, 36.139914 ], [ -83.999032, 36.141398 ], [ -83.999721, 36.144419 ], [ -83.997413, 36.145487 ], [ -83.997309, 36.146701 ], [ -83.996491, 36.147203 ], [ -83.992689, 36.150928 ], [ -83.990213, 36.151979 ], [ -83.988843, 36.152907 ], [ -83.985413, 36.156179 ], [ -83.984313, 36.156679 ], [ -83.981013, 36.159579 ], [ -83.980713, 36.160579 ], [ -83.979613, 36.160779 ], [ -83.975713, 36.162879 ], [ -83.976213, 36.164279 ], [ -83.976213, 36.168079 ], [ -83.969913, 36.167479 ], [ -83.968952, 36.169562 ], [ -83.968613, 36.171279 ], [ -83.967313, 36.172179 ], [ -83.964913, 36.172779 ], [ -83.964164, 36.174225 ], [ -83.962813, 36.175779 ], [ -83.961213, 36.175979 ], [ -83.957213, 36.177579 ], [ -83.956013, 36.179479 ], [ -83.952013, 36.181679 ], [ -83.950613, 36.181379 ], [ -83.947612, 36.181879 ], [ -83.946413, 36.184179 ], [ -83.944913, 36.186079 ], [ -83.944113, 36.186479 ], [ -83.941711, 36.186378 ], [ -83.941852, 36.186525 ], [ -83.946499, 36.191341 ], [ -83.947301, 36.191929 ], [ -83.950041, 36.193935 ], [ -83.960546, 36.201709 ], [ -83.96914, 36.210105 ], [ -83.969283, 36.210433 ], [ -83.96965, 36.211183 ], [ -83.972375, 36.216808 ], [ -83.975711, 36.223668 ], [ -83.977582, 36.227324 ], [ -83.987628, 36.236095 ], [ -83.988184, 36.236832 ], [ -83.988805, 36.237646 ], [ -83.990256, 36.239557 ], [ -83.991414, 36.241084 ], [ -83.992998, 36.243173 ], [ -83.994216, 36.244778 ], [ -83.993016, 36.245678 ], [ -83.997826, 36.249873 ], [ -83.998745, 36.25237 ], [ -83.997503, 36.251837 ], [ -83.996405, 36.253228 ], [ -83.997909, 36.255399 ], [ -83.999075, 36.258572 ], [ -84.000816, 36.259177 ], [ -84.002327, 36.261202 ], [ -84.00381, 36.263169 ], [ -84.00638, 36.265441 ], [ -84.006517, 36.266578 ], [ -84.009753, 36.27031 ], [ -84.007298, 36.270304 ], [ -84.005156, 36.269339 ], [ -84.004317, 36.270378 ], [ -84.010917, 36.272178 ], [ -84.014217, 36.271878 ], [ -84.015917, 36.271278 ], [ -84.018418, 36.271078 ], [ -84.019918, 36.271378 ], [ -84.021518, 36.272278 ], [ -84.025318, 36.277478 ], [ -84.025918, 36.279278 ], [ -84.025218, 36.284078 ], [ -84.025318, 36.286278 ], [ -84.026018, 36.289078 ], [ -84.025806, 36.292522 ], [ -84.025774, 36.294179 ], [ -84.026519, 36.297079 ], [ -84.028519, 36.299579 ], [ -84.030419, 36.300979 ], [ -84.032519, 36.301779 ], [ -84.035819, 36.301278 ], [ -84.037519, 36.299978 ], [ -84.037619, 36.299078 ], [ -84.033019, 36.293778 ], [ -84.032719, 36.293078 ], [ -84.033219, 36.291078 ], [ -84.034319, 36.289278 ], [ -84.035619, 36.287978 ], [ -84.040519, 36.285078 ], [ -84.042019, 36.282578 ], [ -84.042119, 36.280878 ], [ -84.041019, 36.277578 ], [ -84.041419, 36.275278 ], [ -84.043319, 36.272978 ], [ -84.045219, 36.271178 ], [ -84.050319, 36.267578 ], [ -84.055419, 36.263678 ], [ -84.056619, 36.262178 ], [ -84.057319, 36.260578 ], [ -84.058319, 36.255978 ], [ -84.057919, 36.252878 ], [ -84.057219, 36.250078 ], [ -84.057619, 36.249078 ], [ -84.059219, 36.247878 ], [ -84.063119, 36.246978 ], [ -84.066119, 36.248178 ], [ -84.068706, 36.250569 ], [ -84.070229, 36.251873 ], [ -84.072698, 36.251989 ], [ -84.07309, 36.251652 ], [ -84.07492, 36.250078 ], [ -84.07602, 36.247878 ], [ -84.07632, 36.244078 ], [ -84.07592, 36.241878 ], [ -84.073819, 36.239978 ], [ -84.071219, 36.238478 ], [ -84.069819, 36.236678 ], [ -84.069218, 36.233578 ], [ -84.069918, 36.230378 ], [ -84.072018, 36.228578 ], [ -84.073718, 36.227878 ], [ -84.076818, 36.227678 ], [ -84.079818, 36.228178 ], [ -84.083419, 36.229478 ], [ -84.085775, 36.229846 ], [ -84.08832, 36.229878 ], [ -84.09152, 36.229278 ], [ -84.09302, 36.226778 ], [ -84.09251, 36.22426 ], [ -84.091755, 36.222931 ], [ -84.09196, 36.222613 ], [ -84.092264, 36.222494 ], [ -84.092746, 36.2224 ], [ -84.09321, 36.222459 ], [ -84.097061, 36.223334 ], [ -84.098037, 36.223276 ], [ -84.100991, 36.224102 ], [ -84.102691, 36.224424 ], [ -84.103463, 36.225368 ], [ -84.103535, 36.225842 ], [ -84.103087, 36.228645 ], [ -84.10392, 36.229478 ], [ -84.104521, 36.232078 ], [ -84.107121, 36.232678 ], [ -84.110421, 36.233878 ], [ -84.114521, 36.234078 ], [ -84.117184, 36.233878 ], [ -84.119421, 36.233678 ], [ -84.122788, 36.233778 ], [ -84.125009, 36.234293 ], [ -84.126777, 36.233874 ], [ -84.128435, 36.234659 ], [ -84.128885, 36.234697 ], [ -84.130868, 36.233987 ], [ -84.133118, 36.234767 ], [ -84.135319, 36.233766 ], [ -84.137005, 36.234219 ], [ -84.137526, 36.234473 ], [ -84.140125, 36.233676 ], [ -84.142837, 36.23511 ], [ -84.145643, 36.23596 ], [ -84.150323, 36.237378 ], [ -84.151971, 36.237391 ], [ -84.15199, 36.237391 ], [ -84.161265, 36.237518 ], [ -84.161454, 36.237571 ], [ -84.162676, 36.237914 ], [ -84.163645, 36.238187 ], [ -84.165398, 36.238679 ], [ -84.165415, 36.238684 ], [ -84.165521, 36.238713 ], [ -84.170824, 36.240178 ], [ -84.17293, 36.240091 ], [ -84.173217, 36.240079 ], [ -84.17348, 36.240068 ], [ -84.174727, 36.240015 ], [ -84.182924, 36.239678 ], [ -84.183762, 36.239775 ], [ -84.190313, 36.240529 ], [ -84.192087, 36.240736 ], [ -84.210518, 36.24288 ], [ -84.227527, 36.244879 ], [ -84.227627, 36.244779 ], [ -84.228527, 36.243679 ], [ -84.228327, 36.242479 ], [ -84.226127, 36.241479 ], [ -84.226727, 36.239979 ], [ -84.228427, 36.239779 ], [ -84.228727, 36.238779 ], [ -84.228126, 36.236579 ], [ -84.228926, 36.234279 ], [ -84.227526, 36.232879 ], [ -84.229326, 36.225579 ], [ -84.229926, 36.224879 ], [ -84.228526, 36.223579 ], [ -84.226366, 36.2206 ], [ -84.225626, 36.219579 ], [ -84.225726, 36.217179 ], [ -84.226326, 36.216479 ], [ -84.229526, 36.215179 ], [ -84.232526, 36.214579 ], [ -84.233326, 36.210079 ], [ -84.234226, 36.208379 ], [ -84.233673, 36.207333 ], [ -84.231226, 36.204379 ], [ -84.230226, 36.203679 ], [ -84.229726, 36.201679 ], [ -84.230626, 36.198779 ], [ -84.229742, 36.197247 ], [ -84.230525, 36.193778 ], [ -84.231525, 36.191778 ], [ -84.229325, 36.189878 ], [ -84.228725, 36.187378 ], [ -84.228991, 36.185014 ], [ -84.229225, 36.183878 ], [ -84.230325, 36.182078 ], [ -84.232525, 36.181578 ], [ -84.235225, 36.180578 ], [ -84.237325, 36.178478 ], [ -84.241325, 36.177578 ], [ -84.241925, 36.177678 ], [ -84.243026, 36.178978 ], [ -84.244726, 36.178978 ], [ -84.246126, 36.180278 ], [ -84.248526, 36.181078 ], [ -84.249426, 36.181978 ], [ -84.251626, 36.182878 ], [ -84.253326, 36.186578 ], [ -84.255626, 36.187878 ], [ -84.258127, 36.189878 ], [ -84.259027, 36.190078 ], [ -84.260627, 36.189078 ], [ -84.264127, 36.188178 ], [ -84.265627, 36.191078 ], [ -84.268027, 36.193778 ], [ -84.270227, 36.194878 ], [ -84.271427, 36.196078 ], [ -84.271927, 36.199078 ], [ -84.272628, 36.200278 ], [ -84.274528, 36.201878 ], [ -84.278528, 36.204078 ], [ -84.282328, 36.206578 ], [ -84.285428, 36.207578 ], [ -84.287328, 36.210378 ], [ -84.289529, 36.211978 ], [ -84.290554, 36.213319 ], [ -84.291029, 36.215278 ], [ -84.294929, 36.217678 ], [ -84.296929, 36.219478 ], [ -84.299929, 36.220878 ], [ -84.301429, 36.220978 ], [ -84.304029, 36.218878 ], [ -84.306907, 36.217924 ], [ -84.30973, 36.216078 ], [ -84.31113, 36.216278 ], [ -84.31273, 36.215178 ], [ -84.31633, 36.214678 ], [ -84.31783, 36.213378 ], [ -84.31973, 36.213178 ], [ -84.32303, 36.213578 ], [ -84.324747, 36.212461 ], [ -84.324867, 36.2123 ], [ -84.324996, 36.211713 ], [ -84.321587, 36.210812 ], [ -84.321122, 36.210332 ], [ -84.32165, 36.210157 ], [ -84.32633, 36.208578 ], [ -84.32833, 36.208778 ], [ -84.33073, 36.208078 ], [ -84.33273, 36.208578 ], [ -84.333931, 36.210278 ], [ -84.337585, 36.210921 ], [ -84.339031, 36.212278 ], [ -84.343631, 36.213678 ], [ -84.344231, 36.214378 ], [ -84.346731, 36.215078 ], [ -84.349531, 36.215178 ], [ -84.351831, 36.214278 ], [ -84.353932, 36.214078 ], [ -84.355832, 36.214378 ], [ -84.357732, 36.214178 ], [ -84.363432, 36.213078 ], [ -84.365732, 36.212478 ], [ -84.366932, 36.212878 ], [ -84.370632, 36.214978 ], [ -84.372731, 36.216778 ], [ -84.374332, 36.215678 ], [ -84.374332, 36.214378 ], [ -84.375832, 36.212278 ], [ -84.378233, 36.211478 ], [ -84.380233, 36.209778 ], [ -84.382133, 36.207678 ], [ -84.383333, 36.206878 ], [ -84.385633, 36.206678 ], [ -84.386733, 36.205578 ], [ -84.390333, 36.204278 ], [ -84.391933, 36.202878 ], [ -84.392433, 36.201678 ], [ -84.390933, 36.199378 ], [ -84.390833, 36.196478 ], [ -84.392792, 36.193887 ], [ -84.393933, 36.192378 ], [ -84.396633, 36.190678 ], [ -84.397433, 36.189278 ], [ -84.401233, 36.186778 ], [ -84.403133, 36.185778 ], [ -84.403533, 36.184478 ], [ -84.402433, 36.180778 ], [ -84.401333, 36.180078 ], [ -84.400833, 36.178478 ], [ -84.402033, 36.176078 ], [ -84.404233, 36.174478 ], [ -84.406233, 36.174978 ], [ -84.408433, 36.173878 ], [ -84.411633, 36.169978 ], [ -84.413633, 36.169578 ], [ -84.415333, 36.167978 ], [ -84.419233, 36.169178 ], [ -84.421634, 36.169278 ], [ -84.423634, 36.168678 ], [ -84.425434, 36.165278 ], [ -84.426434, 36.164678 ], [ -84.432734, 36.165378 ], [ -84.433734, 36.164778 ], [ -84.435334, 36.164778 ], [ -84.441034, 36.163478 ], [ -84.441134, 36.162478 ], [ -84.442434, 36.160778 ], [ -84.442334, 36.158278 ], [ -84.440834, 36.155978 ], [ -84.442034, 36.155178 ], [ -84.443834, 36.153078 ], [ -84.445327, 36.151878 ], [ -84.446534, 36.152478 ], [ -84.448234, 36.152478 ], [ -84.449881, 36.151046 ], [ -84.449834, 36.142277 ], [ -84.449034, 36.139577 ], [ -84.446234, 36.138477 ], [ -84.444434, 36.138477 ], [ -84.442963, 36.139901 ], [ -84.442534, 36.139977 ], [ -84.442534, 36.137477 ], [ -84.442134, 36.135477 ], [ -84.439934, 36.135277 ], [ -84.435733, 36.133977 ], [ -84.432433, 36.131677 ], [ -84.430033, 36.131877 ], [ -84.429676, 36.131352 ], [ -84.425532, 36.125078 ], [ -84.425452, 36.124612 ], [ -84.425491, 36.123657 ], [ -84.425542, 36.122992 ], [ -84.421732, 36.115277 ], [ -84.420432, 36.108377 ], [ -84.416432, 36.108277 ], [ -84.414532, 36.107877 ], [ -84.413532, 36.107177 ], [ -84.408132, 36.105077 ], [ -84.406031, 36.103577 ], [ -84.403331, 36.103877 ], [ -84.400131, 36.104677 ], [ -84.397131, 36.104777 ], [ -84.396431, 36.105077 ], [ -84.395031, 36.104377 ], [ -84.393531, 36.102477 ], [ -84.393231, 36.100477 ], [ -84.391131, 36.099277 ], [ -84.38933, 36.099277 ], [ -84.38883, 36.098677 ], [ -84.38693, 36.098877 ], [ -84.38463, 36.097677 ], [ -84.38183, 36.096577 ], [ -84.38063, 36.096477 ], [ -84.37903, 36.095377 ], [ -84.376189, 36.09129 ], [ -84.361128, 36.069977 ], [ -84.360643, 36.06945 ], [ -84.358807, 36.067454 ], [ -84.353834, 36.062047 ], [ -84.34894, 36.056728 ], [ -84.348803, 36.056579 ], [ -84.348394, 36.056134 ], [ -84.348326, 36.05606 ], [ -84.348259, 36.055986 ], [ -84.347916, 36.055614 ], [ -84.346872, 36.054479 ], [ -84.345511, 36.053001 ], [ -84.345086, 36.052538 ], [ -84.343522, 36.050841 ], [ -84.34321, 36.050496 ], [ -84.341812, 36.048977 ], [ -84.343882, 36.049306 ], [ -84.346025, 36.049054 ], [ -84.347796, 36.048291 ], [ -84.348301, 36.048076 ], [ -84.352327, 36.046877 ], [ -84.357528, 36.044177 ], [ -84.360628, 36.043877 ], [ -84.362328, 36.042977 ], [ -84.364928, 36.041077 ], [ -84.366841, 36.039001 ], [ -84.368928, 36.037477 ], [ -84.370028, 36.035977 ], [ -84.372146, 36.034518 ], [ -84.373128, 36.033977 ], [ -84.378528, 36.028677 ], [ -84.382628, 36.024277 ], [ -84.384028, 36.023677 ], [ -84.387842, 36.020837 ], [ -84.390129, 36.019377 ], [ -84.393629, 36.017577 ], [ -84.394829, 36.017377 ], [ -84.398329, 36.015177 ], [ -84.400029, 36.013377 ], [ -84.404429, 36.010177 ], [ -84.405102, 36.009366 ], [ -84.406441, 36.008189 ], [ -84.407829, 36.007677 ], [ -84.41143, 36.005277 ], [ -84.41413, 36.004377 ], [ -84.41543, 36.004377 ], [ -84.42023, 36.001176 ], [ -84.425294, 35.998552 ], [ -84.434285, 35.993726 ], [ -84.440135, 35.988867 ], [ -84.442721, 35.987391 ], [ -84.446054, 35.985984 ], [ -84.449986, 35.985707 ], [ -84.453418, 35.985151 ], [ -84.456591, 35.984099 ], [ -84.460556, 35.985377 ], [ -84.463564, 35.984932 ], [ -84.465286, 35.984132 ], [ -84.467792, 35.983635 ], [ -84.470549, 35.983586 ], [ -84.476498, 35.984639 ], [ -84.478589, 35.98403 ], [ -84.481061, 35.983782 ], [ -84.481805, 35.983773 ], [ -84.483408, 35.983858 ], [ -84.487147, 35.985183 ], [ -84.489556, 35.984564 ], [ -84.49408, 35.98428 ], [ -84.494988, 35.982989 ], [ -84.498208, 35.982034 ], [ -84.501371, 35.980281 ], [ -84.502637, 35.980448 ], [ -84.506156, 35.978915 ], [ -84.509478, 35.977738 ], [ -84.518634, 35.975509 ], [ -84.520552, 35.974884 ], [ -84.522965, 35.97496 ], [ -84.526277, 35.974211 ], [ -84.526533, 35.97354 ], [ -84.528431, 35.972664 ], [ -84.531962, 35.97298 ], [ -84.533266, 35.97217 ], [ -84.536064, 35.971761 ], [ -84.537724, 35.970918 ], [ -84.542025, 35.970303 ], [ -84.542686, 35.9696 ], [ -84.545662, 35.968883 ], [ -84.550433, 35.966489 ], [ -84.554021, 35.964521 ], [ -84.555844, 35.960892 ], [ -84.554931, 35.958988 ], [ -84.554631, 35.95676 ], [ -84.554885, 35.954304 ], [ -84.554189, 35.952918 ], [ -84.554969, 35.950361 ], [ -84.55573, 35.950318 ], [ -84.563177, 35.949612 ], [ -84.570358, 35.949658 ], [ -84.574704, 35.949828 ], [ -84.574884, 35.949835 ], [ -84.575412, 35.949858 ], [ -84.577247, 35.950503 ], [ -84.577433, 35.950524 ], [ -84.580722, 35.951578 ], [ -84.582696, 35.950725 ], [ -84.586185, 35.950553 ], [ -84.584804, 35.948267 ], [ -84.585484, 35.947507 ], [ -84.588299, 35.947319 ], [ -84.589819, 35.948046 ], [ -84.590499, 35.949409 ], [ -84.592798, 35.950484 ], [ -84.59396, 35.949437 ], [ -84.594957, 35.947001 ], [ -84.596391, 35.946685 ], [ -84.596783, 35.947311 ], [ -84.595582, 35.94833 ], [ -84.595559, 35.949632 ], [ -84.596599, 35.950286 ], [ -84.598684, 35.950262 ], [ -84.599091, 35.951669 ], [ -84.601652, 35.951521 ], [ -84.602707, 35.952322 ], [ -84.601293, 35.953203 ], [ -84.601025, 35.954115 ], [ -84.602818, 35.954226 ], [ -84.603763, 35.954009 ], [ -84.605119, 35.952008 ], [ -84.606659, 35.951145 ], [ -84.606836, 35.947886 ], [ -84.606036, 35.944592 ], [ -84.607758, 35.943197 ], [ -84.609797, 35.943088 ], [ -84.609813, 35.941047 ], [ -84.611925, 35.941468 ], [ -84.613763, 35.940723 ], [ -84.615638, 35.940672 ], [ -84.616023, 35.938866 ], [ -84.617883, 35.938076 ], [ -84.618665, 35.93722 ], [ -84.618606, 35.936066 ], [ -84.619824, 35.934478 ], [ -84.619613, 35.933071 ], [ -84.620887, 35.932199 ], [ -84.624403, 35.932941 ], [ -84.626806, 35.934376 ], [ -84.62784, 35.93424 ], [ -84.628867, 35.933444 ], [ -84.628423, 35.930812 ], [ -84.630247, 35.930522 ], [ -84.631503, 35.931226 ], [ -84.633009, 35.931413 ], [ -84.633658, 35.930161 ], [ -84.637575, 35.931481 ], [ -84.638547, 35.931459 ], [ -84.643114, 35.9295 ], [ -84.642622, 35.92772 ], [ -84.643102, 35.927308 ], [ -84.64737, 35.927782 ], [ -84.648897, 35.927019 ], [ -84.651598, 35.928652 ], [ -84.652294, 35.927289 ], [ -84.652051, 35.926334 ], [ -84.653538, 35.923862 ], [ -84.654963, 35.924241 ], [ -84.656227, 35.921748 ], [ -84.656208, 35.920001 ], [ -84.656721, 35.91954 ], [ -84.659476, 35.92054 ], [ -84.660442, 35.920535 ], [ -84.66197, 35.915805 ], [ -84.662922, 35.916388 ], [ -84.665319, 35.916553 ], [ -84.666386, 35.9159 ], [ -84.667817, 35.916219 ], [ -84.668587, 35.917032 ], [ -84.670356, 35.917614 ], [ -84.672896, 35.91667 ], [ -84.674429, 35.915582 ], [ -84.674112, 35.914703 ], [ -84.672471, 35.913868 ], [ -84.673251, 35.912403 ], [ -84.674538, 35.911501 ], [ -84.675308, 35.910182 ], [ -84.676064, 35.910759 ], [ -84.677063, 35.909424 ], [ -84.679177, 35.909144 ], [ -84.680633, 35.908454 ], [ -84.681385, 35.907804 ], [ -84.682445, 35.9057 ], [ -84.68306, 35.904113 ], [ -84.684262, 35.903986 ], [ -84.685113, 35.902871 ], [ -84.686517, 35.90241 ], [ -84.688509, 35.902432 ], [ -84.690717, 35.901459 ], [ -84.69173, 35.901448 ], [ -84.697313, 35.899943 ], [ -84.698877, 35.898495 ], [ -84.700864, 35.896818 ], [ -84.700918, 35.89677 ], [ -84.701811, 35.896014 ], [ -84.702019, 35.895848 ], [ -84.704265, 35.893942 ], [ -84.706181, 35.896066 ], [ -84.708115, 35.89258 ], [ -84.717406, 35.875847 ], [ -84.718873, 35.873627 ], [ -84.72555, 35.86497 ], [ -84.726189, 35.864179 ], [ -84.727693, 35.863811 ], [ -84.728745, 35.86047 ], [ -84.728771, 35.859223 ], [ -84.730876, 35.85786 ], [ -84.733508, 35.858343 ], [ -84.734364, 35.857123 ], [ -84.736051, 35.856672 ], [ -84.736942, 35.855608 ], [ -84.737604, 35.854418 ], [ -84.737855, 35.853936 ], [ -84.737949, 35.85139 ], [ -84.739088, 35.850985 ], [ -84.740462, 35.852259 ], [ -84.741453, 35.850676 ], [ -84.743167, 35.851236 ], [ -84.745757, 35.850213 ], [ -84.746108, 35.849213 ], [ -84.748368, 35.848585 ], [ -84.74882, 35.849409 ], [ -84.74994, 35.84931 ], [ -84.7515, 35.847549 ], [ -84.752959, 35.84493 ], [ -84.754873, 35.842105 ], [ -84.756563, 35.843492 ], [ -84.758051, 35.843015 ], [ -84.758774, 35.841765 ], [ -84.760991, 35.840951 ], [ -84.762016, 35.838826 ], [ -84.764844, 35.838426 ], [ -84.764279, 35.836788 ], [ -84.762842, 35.83645 ], [ -84.76281, 35.835291 ], [ -84.763687, 35.833686 ], [ -84.766462, 35.833195 ], [ -84.768195, 35.831002 ], [ -84.770412, 35.829596 ], [ -84.773347, 35.828755 ], [ -84.776059, 35.826755 ], [ -84.77714, 35.82646 ], [ -84.779774, 35.826863 ], [ -84.781191, 35.826242 ], [ -84.781901, 35.825 ], [ -84.789924, 35.825077 ], [ -84.79783, 35.825151 ], [ -84.797941, 35.825039 ], [ -84.81464, 35.815935 ], [ -84.831938, 35.806456 ], [ -84.835141, 35.804699 ], [ -84.833824, 35.804417 ], [ -84.832758, 35.802637 ], [ -84.830074, 35.801071 ], [ -84.828293, 35.800484 ], [ -84.827174, 35.800841 ], [ -84.824213, 35.799304 ], [ -84.822202, 35.799551 ], [ -84.81922, 35.797623 ], [ -84.814164, 35.796247 ], [ -84.81256, 35.796405 ], [ -84.811709, 35.797068 ], [ -84.8104, 35.796058 ], [ -84.809422, 35.794327 ], [ -84.807769, 35.79266 ], [ -84.807683, 35.791636 ], [ -84.808942, 35.787575 ], [ -84.809707, 35.786287 ], [ -84.811609, 35.784212 ], [ -84.813545, 35.779417 ], [ -84.813743, 35.777027 ], [ -84.814282, 35.776143 ], [ -84.816573, 35.773622 ], [ -84.819516, 35.773237 ], [ -84.820304, 35.772677 ], [ -84.819421, 35.7712 ], [ -84.819528, 35.770355 ], [ -84.821219, 35.768107 ], [ -84.821537, 35.766112 ], [ -84.821152, 35.764746 ], [ -84.819327, 35.763017 ], [ -84.816476, 35.76137 ], [ -84.816354, 35.760629 ], [ -84.817905, 35.758934 ], [ -84.820921, 35.758409 ], [ -84.824328, 35.757451 ], [ -84.826158, 35.756066 ], [ -84.826434, 35.754973 ], [ -84.825209, 35.750801 ], [ -84.825615, 35.750198 ], [ -84.828845, 35.747937 ], [ -84.830009, 35.747959 ], [ -84.83188, 35.746766 ], [ -84.833854, 35.746712 ], [ -84.835896, 35.744823 ], [ -84.838471, 35.744058 ], [ -84.83945, 35.744306 ], [ -84.839776, 35.747195 ], [ -84.839327, 35.748842 ], [ -84.837444, 35.749095 ], [ -84.835839, 35.750763 ], [ -84.835091, 35.752546 ], [ -84.837219, 35.752508 ], [ -84.838381, 35.751868 ], [ -84.840804, 35.757344 ], [ -84.84124, 35.758714 ], [ -84.841899, 35.759541 ], [ -84.844441, 35.760942 ], [ -84.847173, 35.761067 ], [ -84.849, 35.76306 ], [ -84.85097, 35.765785 ], [ -84.852534, 35.767097 ], [ -84.855677, 35.768953 ], [ -84.858205, 35.769963 ], [ -84.860276, 35.771303 ], [ -84.861983, 35.773934 ], [ -84.862522, 35.773395 ], [ -84.865211, 35.772685 ], [ -84.867441, 35.76997 ], [ -84.869867, 35.768991 ], [ -84.873683, 35.769572 ], [ -84.874464, 35.768231 ], [ -84.873301, 35.766645 ], [ -84.874892, 35.767838 ], [ -84.875865, 35.769188 ], [ -84.876493, 35.769048 ], [ -84.878915, 35.769998 ], [ -84.878011, 35.773163 ], [ -84.879944, 35.774922 ], [ -84.882101, 35.777385 ], [ -84.882387, 35.778793 ], [ -84.88675, 35.77782 ], [ -84.893212, 35.776383 ], [ -84.895335, 35.775913 ], [ -84.905133, 35.773738 ], [ -84.910705, 35.767699 ], [ -84.916062, 35.761939 ], [ -84.927115, 35.750067 ], [ -84.928568, 35.748173 ], [ -84.939691, 35.736149 ], [ -84.944463, 35.730963 ], [ -84.951837, 35.722946 ], [ -84.964006, 35.709766 ], [ -84.966398, 35.707264 ], [ -84.966889, 35.706742 ], [ -84.971548, 35.701625 ], [ -84.979717, 35.692833 ], [ -84.98591, 35.686037 ], [ -84.987271, 35.684605 ], [ -84.989907, 35.681802 ], [ -84.990086, 35.680199 ], [ -84.981161, 35.679447 ], [ -84.981568, 35.674805 ], [ -84.992399, 35.675543 ], [ -84.994842, 35.675712 ], [ -84.995463, 35.675755 ], [ -84.998666, 35.672296 ], [ -85.002874, 35.667545 ], [ -85.010835, 35.658964 ], [ -85.013728, 35.655832 ], [ -85.020316, 35.648729 ], [ -85.022542, 35.64632 ], [ -85.026292, 35.642285 ], [ -85.03157, 35.636586 ], [ -85.035028, 35.632862 ], [ -85.038031, 35.62961 ], [ -85.041223, 35.626173 ], [ -85.047641, 35.618654 ], [ -85.050779, 35.616188 ], [ -85.061512, 35.607746 ], [ -85.062311, 35.607123 ], [ -85.068515, 35.60224 ], [ -85.083912, 35.590175 ], [ -85.087121, 35.587647 ], [ -85.093358, 35.582707 ], [ -85.095107, 35.581318 ], [ -85.107734, 35.571383 ], [ -85.107874, 35.569773 ], [ -85.107942, 35.568786 ], [ -85.108281, 35.563897 ], [ -85.108726, 35.557473 ], [ -85.108908, 35.554856 ], [ -85.108997, 35.553537 ], [ -85.109819, 35.541551 ], [ -85.105606, 35.548779 ], [ -85.102471, 35.547546 ], [ -85.096574, 35.545218 ], [ -85.102141, 35.544096 ], [ -85.10068, 35.539138 ], [ -85.099927, 35.536581 ], [ -85.099069, 35.533683 ], [ -85.100608, 35.533351 ], [ -85.104237, 35.532568 ], [ -85.105058, 35.535194 ], [ -85.109161, 35.537462 ], [ -85.109055, 35.535957 ], [ -85.108763, 35.53179 ], [ -85.105773, 35.529605 ], [ -85.110057, 35.526014 ], [ -85.111997, 35.524354 ], [ -85.115567, 35.521344 ], [ -85.118602, 35.523504 ], [ -85.116145, 35.524174 ], [ -85.113877, 35.52479 ], [ -85.119276, 35.528984 ], [ -85.122682, 35.526001 ], [ -85.127159, 35.520423 ], [ -85.132634, 35.514045 ], [ -85.135659, 35.508828 ], [ -85.136837, 35.506763 ], [ -85.138, 35.504708 ], [ -85.141194, 35.500067 ], [ -85.143517, 35.495857 ], [ -85.146393, 35.491299 ], [ -85.144969, 35.491305 ], [ -85.143826, 35.492645 ], [ -85.141737, 35.492248 ], [ -85.141684, 35.49099 ], [ -85.142282, 35.489804 ], [ -85.141672, 35.488446 ], [ -85.140429, 35.487962 ], [ -85.138709, 35.489027 ], [ -85.138043, 35.489983 ], [ -85.136713, 35.489774 ], [ -85.134232, 35.491459 ], [ -85.133749, 35.49075 ], [ -85.133778, 35.488585 ], [ -85.132791, 35.48775 ], [ -85.132792, 35.486145 ], [ -85.134411, 35.485866 ], [ -85.13501, 35.484943 ], [ -85.133398, 35.483887 ], [ -85.131612, 35.483265 ], [ -85.131243, 35.481875 ], [ -85.128838, 35.481522 ], [ -85.126514, 35.481955 ], [ -85.125392, 35.481647 ], [ -85.124684, 35.480635 ], [ -85.125126, 35.478888 ], [ -85.124465, 35.477913 ], [ -85.122717, 35.478735 ], [ -85.11988, 35.47698 ], [ -85.115946, 35.47567 ], [ -85.124961, 35.46762 ], [ -85.134504, 35.459255 ], [ -85.135191, 35.458649 ], [ -85.132815, 35.457936 ], [ -85.131094, 35.458004 ], [ -85.131757, 35.450974 ], [ -85.135995, 35.451313 ], [ -85.13657, 35.452345 ], [ -85.136053, 35.455607 ], [ -85.137969, 35.456216 ], [ -85.145341, 35.449782 ], [ -85.148792, 35.445594 ], [ -85.151233, 35.445205 ], [ -85.154133, 35.447217 ], [ -85.155912, 35.447278 ], [ -85.157497, 35.44779 ], [ -85.159142, 35.447345 ], [ -85.16078, 35.448395 ], [ -85.163077, 35.448852 ], [ -85.164291, 35.451753 ], [ -85.16744, 35.454567 ], [ -85.168302, 35.455614 ], [ -85.174372, 35.445537 ], [ -85.184094, 35.428156 ], [ -85.18811, 35.419681 ], [ -85.18892, 35.418001 ] ] ], [ [ [ -84.539963, 35.670465 ], [ -84.541246, 35.670477 ], [ -84.548774, 35.670536 ], [ -84.548777, 35.673213 ], [ -84.544266, 35.673265 ], [ -84.544214, 35.676893 ], [ -84.539774, 35.67684 ], [ -84.539822, 35.675185 ], [ -84.539848, 35.673838 ], [ -84.539963, 35.670465 ] ] ], [ [ [ -84.351172, 35.643203 ], [ -84.349251, 35.644264 ], [ -84.343901, 35.637829 ], [ -84.342871, 35.636585 ], [ -84.346546, 35.634706 ], [ -84.350001, 35.632939 ], [ -84.355297, 35.640924 ], [ -84.351172, 35.643203 ] ] ], [ [ [ -84.52271, 35.607783 ], [ -84.525999, 35.607853 ], [ -84.525653, 35.611695 ], [ -84.525647, 35.611779 ], [ -84.540328, 35.611744 ], [ -84.540351, 35.61824 ], [ -84.540355, 35.619427 ], [ -84.526894, 35.619381 ], [ -84.526775, 35.618672 ], [ -84.524294, 35.618644 ], [ -84.522373, 35.618625 ], [ -84.522554, 35.617412 ], [ -84.522508, 35.611653 ], [ -84.52271, 35.607783 ] ] ] ] } }
]
}
