{
"type": "FeatureCollection",
"name": "id_4",
"crs": { "type": "name", "properties": { "name": "urn:ogc:def:crs:OGC:1.3:CRS84" } },
"xy_coordinate_resolution": 1e-15,
"features": [
{ "type": "Feature", "properties": { "id": 4.0, "NAME": "4.0", "TotalPop": 767871.0, "PopDevPct": -0.0, "DemPct": 0.422, "RepPct": 0.551, "WhitePct": 0.673, "MinorityPc": 0.327, "BlackPct": 0.156, "HispanicPc": 0.111, "PacificPct": 0.001, "AsianPct": 0.037, "NativePct": 0.025, "TotalVAP": 586518.0, "Margin": -0.078, "color": "#00c3ff", "opacity": "0.5" }, "geometry": { "type": "MultiPolygon", "coordinates": [ [ [ [ -86.067137, 34.989514 ], [ -86.007497, 34.989021 ], [ -85.999981, 34.989034 ], [ -85.955125, 34.988753 ], [ -85.954646, 34.988751 ], [ -85.925374, 34.988583 ], [ -85.908203, 34.988682 ], [ -85.904077, 34.988646 ], [ -85.899075, 34.988601 ], [ -85.89214, 34.988572 ], [ -85.884415, 34.988471 ], [ -85.873076, 34.988282 ], [ -85.863935, 34.988253 ], [ -85.847865, 34.988203 ], [ -85.828767, 34.988069 ], [ -85.824349, 34.988118 ], [ -85.822546, 34.98809 ], [ -85.812858, 34.987835 ], [ -85.808116, 34.987776 ], [ -85.807889, 34.987774 ], [ -85.795819, 34.9876 ], [ -85.772677, 34.987323 ], [ -85.763072, 34.98722 ], [ -85.757948, 34.987166 ], [ -85.748941, 34.987065 ], [ -85.745415, 34.987011 ], [ -85.735776, 34.986865 ], [ -85.726237, 34.98672 ], [ -85.722153, 34.986657 ], [ -85.720283, 34.98663 ], [ -85.719769, 34.986622 ], [ -85.702249, 34.986355 ], [ -85.700824, 34.986333 ], [ -85.699396, 34.986311 ], [ -85.696584, 34.986268 ], [ -85.694764, 34.986241 ], [ -85.676966, 34.985969 ], [ -85.655931, 34.985649 ], [ -85.638299, 34.985381 ], [ -85.637641, 34.985372 ], [ -85.622034, 34.985104 ], [ -85.611494, 34.984837 ], [ -85.610559, 34.984814 ], [ -85.605165, 34.984678 ], [ -85.603279, 34.98466 ], [ -85.599894, 34.984576 ], [ -85.597855, 34.984583 ], [ -85.57267, 34.984254 ], [ -85.552714, 34.983996 ], [ -85.534166, 34.983755 ], [ -85.517973, 34.983544 ], [ -85.503294, 34.983366 ], [ -85.498195, 34.983199 ], [ -85.485196, 34.983104 ], [ -85.474073, 34.98302 ], [ -85.474921, 34.985084 ], [ -85.474889, 34.986972 ], [ -85.469528, 34.986812 ], [ -85.469247, 34.986889 ], [ -85.468713, 34.986817 ], [ -85.468451, 34.986936 ], [ -85.468055, 34.98723 ], [ -85.46629, 34.988635 ], [ -85.465429, 34.989621 ], [ -85.463614, 34.989941 ], [ -85.461448, 34.990675 ], [ -85.457771, 34.993057 ], [ -85.456206, 34.995229 ], [ -85.452702, 34.996573 ], [ -85.450081, 34.995678 ], [ -85.447969, 34.99691 ], [ -85.443542, 34.997116 ], [ -85.442999, 34.997979 ], [ -85.443622, 34.999066 ], [ -85.442903, 34.999354 ], [ -85.442699, 35.000586 ], [ -85.440073, 35.001 ], [ -85.437979, 35.002949 ], [ -85.437014, 35.003036 ], [ -85.435421, 35.002341 ], [ -85.433886, 35.003013 ], [ -85.432742, 35.004254 ], [ -85.432048, 35.005059 ], [ -85.427779, 35.006673 ], [ -85.427411, 35.008143 ], [ -85.424965, 35.010525 ], [ -85.42407, 35.01174 ], [ -85.421032, 35.013739 ], [ -85.41948, 35.017243 ], [ -85.419832, 35.019179 ], [ -85.4182, 35.020219 ], [ -85.418792, 35.021035 ], [ -85.419384, 35.023403 ], [ -85.418632, 35.025211 ], [ -85.419896, 35.026603 ], [ -85.419016, 35.027883 ], [ -85.41684, 35.028347 ], [ -85.415752, 35.028075 ], [ -85.414104, 35.029531 ], [ -85.414248, 35.031275 ], [ -85.413074, 35.032855 ], [ -85.411318, 35.035327 ], [ -85.411288, 35.035387 ], [ -85.411265, 35.035442 ], [ -85.411243, 35.035498 ], [ -85.411204, 35.035593 ], [ -85.409912, 35.039483 ], [ -85.409272, 35.040683 ], [ -85.40812, 35.041339 ], [ -85.40684, 35.041243 ], [ -85.405163, 35.042115 ], [ -85.404601, 35.041779 ], [ -85.397636, 35.041754 ], [ -85.392637, 35.039138 ], [ -85.389678, 35.040126 ], [ -85.38815, 35.040945 ], [ -85.386966, 35.040972 ], [ -85.384756, 35.042991 ], [ -85.382255, 35.04473 ], [ -85.381683, 35.045707 ], [ -85.381567, 35.047343 ], [ -85.379468, 35.049758 ], [ -85.378615, 35.051852 ], [ -85.378064, 35.055672 ], [ -85.377272, 35.057306 ], [ -85.376067, 35.058619 ], [ -85.371149, 35.063109 ], [ -85.368474, 35.066503 ], [ -85.368219, 35.066857 ], [ -85.367994, 35.06717 ], [ -85.366017, 35.070052 ], [ -85.365031, 35.072554 ], [ -85.364359, 35.076073 ], [ -85.364059, 35.076173 ], [ -85.362686, 35.083754 ], [ -85.361959, 35.087773 ], [ -85.363444, 35.088658 ], [ -85.364353, 35.0892 ], [ -85.36716, 35.090873 ], [ -85.36816, 35.092573 ], [ -85.367467, 35.094965 ], [ -85.37216, 35.099073 ], [ -85.373033, 35.100105 ], [ -85.376078, 35.100825 ], [ -85.379603, 35.103291 ], [ -85.38119, 35.103883 ], [ -85.383305, 35.10574 ], [ -85.384811, 35.1059 ], [ -85.390355, 35.105384 ], [ -85.391973, 35.105848 ], [ -85.393463, 35.105367 ], [ -85.39577, 35.105638 ], [ -85.39374, 35.112769 ], [ -85.392442, 35.118304 ], [ -85.392174, 35.119432 ], [ -85.391819, 35.120448 ], [ -85.390833, 35.123195 ], [ -85.39039, 35.124409 ], [ -85.38979, 35.126346 ], [ -85.387709, 35.128506 ], [ -85.388102, 35.131188 ], [ -85.387118, 35.13277 ], [ -85.385731, 35.136781 ], [ -85.386239, 35.137721 ], [ -85.385703, 35.139079 ], [ -85.38629, 35.141673 ], [ -85.387547, 35.143246 ], [ -85.388448, 35.145504 ], [ -85.387089, 35.147169 ], [ -85.382889, 35.152221 ], [ -85.376867, 35.159474 ], [ -85.376418, 35.160009 ], [ -85.372073, 35.165176 ], [ -85.366334, 35.172413 ], [ -85.363127, 35.176299 ], [ -85.361986, 35.177684 ], [ -85.356439, 35.184407 ], [ -85.354669, 35.186851 ], [ -85.353065, 35.188854 ], [ -85.349471, 35.193145 ], [ -85.343887, 35.199883 ], [ -85.333114, 35.213224 ], [ -85.328112, 35.219162 ], [ -85.324291, 35.223859 ], [ -85.312582, 35.23828 ], [ -85.305033, 35.247645 ], [ -85.292544, 35.26291 ], [ -85.289701, 35.266402 ], [ -85.285193, 35.271939 ], [ -85.280396, 35.27772 ], [ -85.276066, 35.282963 ], [ -85.27183, 35.28804 ], [ -85.271403, 35.288548 ], [ -85.268377, 35.292383 ], [ -85.262677, 35.299305 ], [ -85.25751, 35.305535 ], [ -85.254249, 35.309174 ], [ -85.249958, 35.314667 ], [ -85.248683, 35.316049 ], [ -85.246005, 35.319077 ], [ -85.242761, 35.324897 ], [ -85.232757, 35.342479 ], [ -85.231505, 35.344652 ], [ -85.231384, 35.344862 ], [ -85.227413, 35.351745 ], [ -85.225877, 35.354276 ], [ -85.225473, 35.354923 ], [ -85.223809, 35.357729 ], [ -85.222064, 35.360629 ], [ -85.216407, 35.370025 ], [ -85.21312, 35.375422 ], [ -85.211452, 35.378065 ], [ -85.205094, 35.388507 ], [ -85.20296, 35.392014 ], [ -85.195973, 35.403494 ], [ -85.192881, 35.410841 ], [ -85.18892, 35.418001 ], [ -85.18811, 35.419681 ], [ -85.184094, 35.428156 ], [ -85.174372, 35.445537 ], [ -85.168302, 35.455614 ], [ -85.16744, 35.454567 ], [ -85.164291, 35.451753 ], [ -85.163077, 35.448852 ], [ -85.16078, 35.448395 ], [ -85.159142, 35.447345 ], [ -85.157497, 35.44779 ], [ -85.155912, 35.447278 ], [ -85.154133, 35.447217 ], [ -85.151233, 35.445205 ], [ -85.148792, 35.445594 ], [ -85.145341, 35.449782 ], [ -85.137969, 35.456216 ], [ -85.136053, 35.455607 ], [ -85.13657, 35.452345 ], [ -85.135995, 35.451313 ], [ -85.131757, 35.450974 ], [ -85.131094, 35.458004 ], [ -85.132815, 35.457936 ], [ -85.135191, 35.458649 ], [ -85.134504, 35.459255 ], [ -85.124961, 35.46762 ], [ -85.115946, 35.47567 ], [ -85.11988, 35.47698 ], [ -85.122717, 35.478735 ], [ -85.124465, 35.477913 ], [ -85.125126, 35.478888 ], [ -85.124684, 35.480635 ], [ -85.125392, 35.481647 ], [ -85.126514, 35.481955 ], [ -85.128838, 35.481522 ], [ -85.131243, 35.481875 ], [ -85.131612, 35.483265 ], [ -85.133398, 35.483887 ], [ -85.13501, 35.484943 ], [ -85.134411, 35.485866 ], [ -85.132792, 35.486145 ], [ -85.132791, 35.48775 ], [ -85.133778, 35.488585 ], [ -85.133749, 35.49075 ], [ -85.134232, 35.491459 ], [ -85.136713, 35.489774 ], [ -85.138043, 35.489983 ], [ -85.138709, 35.489027 ], [ -85.140429, 35.487962 ], [ -85.141672, 35.488446 ], [ -85.142282, 35.489804 ], [ -85.141684, 35.49099 ], [ -85.141737, 35.492248 ], [ -85.143826, 35.492645 ], [ -85.144969, 35.491305 ], [ -85.146393, 35.491299 ], [ -85.143517, 35.495857 ], [ -85.141194, 35.500067 ], [ -85.138, 35.504708 ], [ -85.136837, 35.506763 ], [ -85.135659, 35.508828 ], [ -85.132634, 35.514045 ], [ -85.127159, 35.520423 ], [ -85.122682, 35.526001 ], [ -85.119276, 35.528984 ], [ -85.113877, 35.52479 ], [ -85.116145, 35.524174 ], [ -85.118602, 35.523504 ], [ -85.115567, 35.521344 ], [ -85.111997, 35.524354 ], [ -85.110057, 35.526014 ], [ -85.105773, 35.529605 ], [ -85.108763, 35.53179 ], [ -85.109055, 35.535957 ], [ -85.109161, 35.537462 ], [ -85.105058, 35.535194 ], [ -85.104237, 35.532568 ], [ -85.100608, 35.533351 ], [ -85.099069, 35.533683 ], [ -85.099927, 35.536581 ], [ -85.10068, 35.539138 ], [ -85.102141, 35.544096 ], [ -85.096574, 35.545218 ], [ -85.102471, 35.547546 ], [ -85.105606, 35.548779 ], [ -85.109819, 35.541551 ], [ -85.108997, 35.553537 ], [ -85.108908, 35.554856 ], [ -85.108726, 35.557473 ], [ -85.108281, 35.563897 ], [ -85.107942, 35.568786 ], [ -85.107874, 35.569773 ], [ -85.107734, 35.571383 ], [ -85.095107, 35.581318 ], [ -85.093358, 35.582707 ], [ -85.087121, 35.587647 ], [ -85.083912, 35.590175 ], [ -85.068515, 35.60224 ], [ -85.062311, 35.607123 ], [ -85.061512, 35.607746 ], [ -85.050779, 35.616188 ], [ -85.047641, 35.618654 ], [ -85.041223, 35.626173 ], [ -85.038031, 35.62961 ], [ -85.035028, 35.632862 ], [ -85.03157, 35.636586 ], [ -85.026292, 35.642285 ], [ -85.022542, 35.64632 ], [ -85.020316, 35.648729 ], [ -85.013728, 35.655832 ], [ -85.010835, 35.658964 ], [ -85.002874, 35.667545 ], [ -84.998666, 35.672296 ], [ -84.995463, 35.675755 ], [ -84.994842, 35.675712 ], [ -84.992399, 35.675543 ], [ -84.981568, 35.674805 ], [ -84.981161, 35.679447 ], [ -84.990086, 35.680199 ], [ -84.989907, 35.681802 ], [ -84.987271, 35.684605 ], [ -84.98591, 35.686037 ], [ -84.979717, 35.692833 ], [ -84.971548, 35.701625 ], [ -84.966889, 35.706742 ], [ -84.966398, 35.707264 ], [ -84.964006, 35.709766 ], [ -84.951837, 35.722946 ], [ -84.944463, 35.730963 ], [ -84.939691, 35.736149 ], [ -84.928568, 35.748173 ], [ -84.927115, 35.750067 ], [ -84.916062, 35.761939 ], [ -84.917641, 35.761502 ], [ -84.920538, 35.761881 ], [ -84.920673, 35.76471 ], [ -84.918986, 35.765202 ], [ -84.921614, 35.765694 ], [ -84.921614, 35.76471 ], [ -84.922536, 35.763726 ], [ -84.924243, 35.765203 ], [ -84.926086, 35.765572 ], [ -84.926086, 35.766433 ], [ -84.928401, 35.766556 ], [ -84.928536, 35.768549 ], [ -84.929864, 35.768265 ], [ -84.930098, 35.768214 ], [ -84.930803, 35.768062 ], [ -84.931038, 35.768012 ], [ -84.936486, 35.766804 ], [ -84.938299, 35.766394 ], [ -84.948942, 35.76403 ], [ -84.980258, 35.757071 ], [ -84.981205, 35.75686 ], [ -84.991756, 35.754513 ], [ -84.993885, 35.754043 ], [ -84.999944, 35.75301 ], [ -85.010891, 35.75031 ], [ -85.01473, 35.749446 ], [ -85.026129, 35.746888 ], [ -85.028888, 35.746302 ], [ -85.031268, 35.746725 ], [ -85.032567, 35.746954 ], [ -85.034135, 35.752149 ], [ -85.034294, 35.75268 ], [ -85.032122, 35.75599 ], [ -85.032616, 35.75928 ], [ -85.040067, 35.770194 ], [ -85.04114, 35.77177 ], [ -85.042703, 35.77078 ], [ -85.048738, 35.767466 ], [ -85.0515, 35.767562 ], [ -85.052969, 35.76757 ], [ -85.056856, 35.767597 ], [ -85.061126, 35.76763 ], [ -85.061842, 35.767407 ], [ -85.073831, 35.760472 ], [ -85.083814, 35.760538 ], [ -85.08631, 35.761158 ], [ -85.086841, 35.761399 ], [ -85.090136, 35.762894 ], [ -85.091277, 35.763491 ], [ -85.091892, 35.763816 ], [ -85.093533, 35.76469 ], [ -85.093558, 35.764702 ], [ -85.10201, 35.76918 ], [ -85.103406, 35.769921 ], [ -85.110437, 35.769924 ], [ -85.122979, 35.769647 ], [ -85.133331, 35.769284 ], [ -85.142743, 35.769104 ], [ -85.148912, 35.768796 ], [ -85.158478, 35.76851 ], [ -85.162323, 35.768386 ], [ -85.165106, 35.768298 ], [ -85.165357, 35.768288 ], [ -85.178052, 35.767906 ], [ -85.187667, 35.767609 ], [ -85.193072, 35.767443 ], [ -85.226503, 35.766419 ], [ -85.235559, 35.766139 ], [ -85.246768, 35.765798 ], [ -85.249474, 35.765715 ], [ -85.249943, 35.765516 ], [ -85.254062, 35.765611 ], [ -85.253518, 35.766927 ], [ -85.25429, 35.768218 ], [ -85.256125, 35.768277 ], [ -85.257286, 35.770302 ], [ -85.257842, 35.771483 ], [ -85.255871, 35.774128 ], [ -85.25678, 35.775167 ], [ -85.2586, 35.774874 ], [ -85.259497, 35.775945 ], [ -85.258988, 35.777206 ], [ -85.255304, 35.777754 ], [ -85.256585, 35.779418 ], [ -85.256846, 35.780818 ], [ -85.257667, 35.781476 ], [ -85.259354, 35.779971 ], [ -85.260971, 35.779112 ], [ -85.26294, 35.778764 ], [ -85.266535, 35.780011 ], [ -85.268056, 35.779556 ], [ -85.269086, 35.780457 ], [ -85.270213, 35.78227 ], [ -85.27296, 35.783168 ], [ -85.274319, 35.784433 ], [ -85.273533, 35.787037 ], [ -85.272664, 35.787718 ], [ -85.273288, 35.787948 ], [ -85.269359, 35.793388 ], [ -85.268166, 35.796157 ], [ -85.268453, 35.79697 ], [ -85.271727, 35.798344 ], [ -85.274029, 35.797861 ], [ -85.276126, 35.799069 ], [ -85.276984, 35.80179 ], [ -85.276982, 35.804129 ], [ -85.277535, 35.805095 ], [ -85.27735, 35.806992 ], [ -85.27749, 35.809077 ], [ -85.276735, 35.809984 ], [ -85.274601, 35.81011 ], [ -85.273904, 35.811084 ], [ -85.271923, 35.812129 ], [ -85.2707, 35.813586 ], [ -85.270425, 35.814769 ], [ -85.268059, 35.816999 ], [ -85.265651, 35.820255 ], [ -85.265065, 35.82217 ], [ -85.274379, 35.81965 ], [ -85.277093, 35.818752 ], [ -85.295159, 35.814085 ], [ -85.308847, 35.810558 ], [ -85.31038, 35.810165 ], [ -85.311343, 35.80991 ], [ -85.320371, 35.80758 ], [ -85.334577, 35.803916 ], [ -85.338413, 35.802926 ], [ -85.350566, 35.799792 ], [ -85.362267, 35.796774 ], [ -85.363021, 35.79689 ], [ -85.374971, 35.799771 ], [ -85.42046, 35.813991 ], [ -85.420862, 35.815306 ], [ -85.423179, 35.814691 ], [ -85.424327, 35.815891 ], [ -85.424536, 35.816259 ], [ -85.42895, 35.818155 ], [ -85.431676, 35.818818 ], [ -85.433652, 35.818577 ], [ -85.436157, 35.816351 ], [ -85.438148, 35.815567 ], [ -85.439527, 35.815866 ], [ -85.44248, 35.817495 ], [ -85.447454, 35.82097 ], [ -85.44936, 35.821559 ], [ -85.451693, 35.820803 ], [ -85.45534, 35.820474 ], [ -85.461157, 35.821957 ], [ -85.461553, 35.822028 ], [ -85.462996, 35.822209 ], [ -85.464391, 35.821783 ], [ -85.465034, 35.821001 ], [ -85.465253, 35.820421 ], [ -85.465362, 35.819737 ], [ -85.464959, 35.818795 ], [ -85.46422, 35.817634 ], [ -85.463903, 35.816683 ], [ -85.463847, 35.81612 ], [ -85.464154, 35.815161 ], [ -85.464748, 35.814726 ], [ -85.465815, 35.814557 ], [ -85.467525, 35.814703 ], [ -85.468633, 35.81509 ], [ -85.46962, 35.815727 ], [ -85.469995, 35.816122 ], [ -85.470478, 35.817064 ], [ -85.470655, 35.818136 ], [ -85.471202, 35.819633 ], [ -85.471867, 35.820924 ], [ -85.472167, 35.821353 ], [ -85.472943, 35.822126 ], [ -85.474213, 35.822656 ], [ -85.475223, 35.822405 ], [ -85.476855, 35.821626 ], [ -85.478693, 35.820377 ], [ -85.479951, 35.819616 ], [ -85.48136, 35.819064 ], [ -85.482312, 35.818801 ], [ -85.482684, 35.818615 ], [ -85.482867, 35.818524 ], [ -85.482976, 35.818488 ], [ -85.483841, 35.818195 ], [ -85.484245, 35.817898 ], [ -85.484692, 35.817429 ], [ -85.48532, 35.816943 ], [ -85.485338, 35.816928 ], [ -85.485709, 35.816462 ], [ -85.485795, 35.816356 ], [ -85.485957, 35.816177 ], [ -85.486227, 35.815882 ], [ -85.486647, 35.815574 ], [ -85.486721, 35.815522 ], [ -85.487339, 35.815178 ], [ -85.487486, 35.815127 ], [ -85.488228, 35.814873 ], [ -85.489088, 35.814648 ], [ -85.49012, 35.81445 ], [ -85.490901, 35.81426 ], [ -85.491599, 35.814084 ], [ -85.492684, 35.813739 ], [ -85.494354, 35.813231 ], [ -85.49499, 35.813035 ], [ -85.495626, 35.812632 ], [ -85.496533, 35.812249 ], [ -85.497027, 35.811883 ], [ -85.497428, 35.811422 ], [ -85.497461, 35.811376 ], [ -85.497729, 35.810979 ], [ -85.497871, 35.81083 ], [ -85.498009, 35.810685 ], [ -85.49806, 35.810383 ], [ -85.498032, 35.810292 ], [ -85.49792, 35.809941 ], [ -85.497823, 35.809238 ], [ -85.497758, 35.809088 ], [ -85.497544, 35.808585 ], [ -85.497508, 35.808128 ], [ -85.4975, 35.807555 ], [ -85.497518, 35.8075 ], [ -85.497644, 35.807109 ], [ -85.49774, 35.80683 ], [ -85.497769, 35.806755 ], [ -85.498026, 35.806458 ], [ -85.498389, 35.80641 ], [ -85.498875, 35.806426 ], [ -85.499398, 35.806515 ], [ -85.499606, 35.806699 ], [ -85.500019, 35.807292 ], [ -85.505064, 35.811279 ], [ -85.508458, 35.813113 ], [ -85.512614, 35.815018 ], [ -85.517326, 35.815815 ], [ -85.517695, 35.81565 ], [ -85.518761, 35.815169 ], [ -85.520581, 35.81312 ], [ -85.526581, 35.807283 ], [ -85.527045, 35.805858 ], [ -85.526451, 35.804847 ], [ -85.523032, 35.802905 ], [ -85.521607, 35.801277 ], [ -85.521482, 35.800213 ], [ -85.522205, 35.797039 ], [ -85.521907, 35.795973 ], [ -85.519043, 35.793735 ], [ -85.519775, 35.792077 ], [ -85.521336, 35.79168 ], [ -85.524109, 35.791531 ], [ -85.526677, 35.792413 ], [ -85.528395, 35.793557 ], [ -85.531663, 35.797281 ], [ -85.535043, 35.799352 ], [ -85.536977, 35.799263 ], [ -85.540782, 35.797678 ], [ -85.543209, 35.797325 ], [ -85.544728, 35.798158 ], [ -85.545439, 35.800871 ], [ -85.546309, 35.8021 ], [ -85.547855, 35.802389 ], [ -85.5488, 35.801215 ], [ -85.549227, 35.798041 ], [ -85.550841, 35.796494 ], [ -85.553406, 35.795908 ], [ -85.555145, 35.796459 ], [ -85.556712, 35.797479 ], [ -85.559616, 35.798618 ], [ -85.563979, 35.801529 ], [ -85.567729, 35.804462 ], [ -85.567935, 35.804597 ], [ -85.570593, 35.806342 ], [ -85.571577, 35.806576 ], [ -85.575875, 35.806726 ], [ -85.57833, 35.806682 ], [ -85.582757, 35.806863 ], [ -85.58436, 35.806817 ], [ -85.585629, 35.806257 ], [ -85.5864, 35.805412 ], [ -85.58705, 35.804366 ], [ -85.587678, 35.803174 ], [ -85.588359, 35.80232 ], [ -85.589647, 35.801615 ], [ -85.590949, 35.801241 ], [ -85.592931, 35.80145 ], [ -85.594906, 35.802596 ], [ -85.596269, 35.803884 ], [ -85.597476, 35.805335 ], [ -85.598389, 35.806304 ], [ -85.599215, 35.806588 ], [ -85.600294, 35.806627 ], [ -85.601085, 35.806515 ], [ -85.601422, 35.805786 ], [ -85.601521, 35.80434 ], [ -85.600815, 35.802602 ], [ -85.599603, 35.800731 ], [ -85.598257, 35.798555 ], [ -85.597309, 35.79644 ], [ -85.597141, 35.794948 ], [ -85.59727, 35.794253 ], [ -85.597997, 35.793843 ], [ -85.600215, 35.793888 ], [ -85.602083, 35.794446 ], [ -85.602876, 35.794996 ], [ -85.604374, 35.796275 ], [ -85.606537, 35.798904 ], [ -85.607429, 35.802499 ], [ -85.608582, 35.804265 ], [ -85.610759, 35.804558 ], [ -85.615385, 35.801726 ], [ -85.618425, 35.801086 ], [ -85.6203, 35.801247 ], [ -85.622177, 35.801803 ], [ -85.62498, 35.803632 ], [ -85.628146, 35.804737 ], [ -85.630004, 35.805248 ], [ -85.630725, 35.805773 ], [ -85.631601, 35.80613 ], [ -85.632593, 35.806675 ], [ -85.633384, 35.806969 ], [ -85.633768, 35.807215 ], [ -85.634035, 35.807825 ], [ -85.634845, 35.808616 ], [ -85.634903, 35.8094 ], [ -85.634804, 35.810455 ], [ -85.635737, 35.813353 ], [ -85.639917, 35.815191 ], [ -85.641655, 35.816717 ], [ -85.646702, 35.817007 ], [ -85.649756, 35.816203 ], [ -85.653072, 35.816431 ], [ -85.663609, 35.819589 ], [ -85.665561, 35.820019 ], [ -85.671427, 35.820708 ], [ -85.682602, 35.827246 ], [ -85.682886, 35.829359 ], [ -85.682095, 35.831254 ], [ -85.685095, 35.83196 ], [ -85.687415, 35.832512 ], [ -85.704664, 35.836082 ], [ -85.713633, 35.838515 ], [ -85.714723, 35.838753 ], [ -85.719645, 35.8428 ], [ -85.734501, 35.843826 ], [ -85.734988, 35.844055 ], [ -85.744804, 35.84857 ], [ -85.747257, 35.849369 ], [ -85.751785, 35.850027 ], [ -85.751597, 35.847759 ], [ -85.751467, 35.84524 ], [ -85.757341, 35.84518 ], [ -85.757206, 35.846746 ], [ -85.757051, 35.848519 ], [ -85.761318, 35.848606 ], [ -85.76249, 35.848617 ], [ -85.766206, 35.848691 ], [ -85.767718, 35.848737 ], [ -85.776027, 35.845536 ], [ -85.77421, 35.842548 ], [ -85.783941, 35.842862 ], [ -85.787534, 35.843036 ], [ -85.787115, 35.846407 ], [ -85.788657, 35.846536 ], [ -85.788523, 35.852002 ], [ -85.78957, 35.852051 ], [ -85.791923, 35.852162 ], [ -85.792096, 35.85074 ], [ -85.793851, 35.85091 ], [ -85.796925, 35.851131 ], [ -85.802276, 35.850659 ], [ -85.802544, 35.850636 ], [ -85.806994, 35.850403 ], [ -85.811546, 35.850179 ], [ -85.811329, 35.848613 ], [ -85.813624, 35.845816 ], [ -85.818905, 35.846317 ], [ -85.820671, 35.84649 ], [ -85.824402, 35.846816 ], [ -85.824411, 35.847381 ], [ -85.832226, 35.84714 ], [ -85.842082, 35.846912 ], [ -85.842398, 35.845043 ], [ -85.842506, 35.843896 ], [ -85.842943, 35.840419 ], [ -85.846601, 35.840966 ], [ -85.846224, 35.845475 ], [ -85.859038, 35.846684 ], [ -85.863784, 35.846158 ], [ -85.863939, 35.844785 ], [ -85.866665, 35.845066 ], [ -85.867485, 35.845 ], [ -85.867353, 35.846346 ], [ -85.872935, 35.846447 ], [ -85.873162, 35.845818 ], [ -85.875877, 35.845776 ], [ -85.87588, 35.845208 ], [ -85.875885, 35.844497 ], [ -85.873391, 35.843897 ], [ -85.873387, 35.840425 ], [ -85.879803, 35.839224 ], [ -85.885156, 35.839658 ], [ -85.885768, 35.84283 ], [ -85.889589, 35.842771 ], [ -85.891741, 35.843584 ], [ -85.894269, 35.844095 ], [ -85.895294, 35.846119 ], [ -85.897178, 35.846822 ], [ -85.896793, 35.848881 ], [ -85.896166, 35.851135 ], [ -85.893524, 35.849938 ], [ -85.890631, 35.852794 ], [ -85.88923, 35.854176 ], [ -85.88921, 35.857543 ], [ -85.89062, 35.857544 ], [ -85.89107, 35.858689 ], [ -85.892437, 35.859093 ], [ -85.893909, 35.855596 ], [ -85.897502, 35.859618 ], [ -85.906757, 35.870929 ], [ -85.909321, 35.873562 ], [ -85.91612, 35.879254 ], [ -85.922548, 35.884709 ], [ -85.923493, 35.885486 ], [ -85.92524, 35.886944 ], [ -85.925497, 35.887154 ], [ -85.930697, 35.891504 ], [ -85.932373, 35.892899 ], [ -85.938462, 35.89794 ], [ -85.943961, 35.902511 ], [ -85.945177, 35.903683 ], [ -85.953498, 35.911707 ], [ -85.962001, 35.919903 ], [ -85.979989, 35.937241 ], [ -85.992132, 35.948946 ], [ -85.994626, 35.950945 ], [ -85.99721, 35.952926 ], [ -85.997389, 35.952983 ], [ -85.999988, 35.954023 ], [ -86.014849, 35.96106 ], [ -86.022675, 35.964679 ], [ -86.074994, 35.964928 ], [ -86.076427, 35.964935 ], [ -86.078136, 35.964943 ], [ -86.083421, 35.964969 ], [ -86.083448, 35.965674 ], [ -86.085903, 35.966125 ], [ -86.088348, 35.96699 ], [ -86.088323, 35.96721 ], [ -86.087485, 35.974077 ], [ -86.090502, 35.974451 ], [ -86.091491, 35.968029 ], [ -86.091925, 35.965214 ], [ -86.09508, 35.965451 ], [ -86.095732, 35.960886 ], [ -86.119514, 35.959163 ], [ -86.125008, 35.959845 ], [ -86.139529, 35.961273 ], [ -86.14986, 35.962257 ], [ -86.149792, 35.962604 ], [ -86.154505, 35.963097 ], [ -86.154845, 35.960034 ], [ -86.151545, 35.958608 ], [ -86.153214, 35.954399 ], [ -86.156612, 35.954549 ], [ -86.156601, 35.956524 ], [ -86.16126, 35.956751 ], [ -86.161625, 35.959235 ], [ -86.161094, 35.963214 ], [ -86.164953, 35.963522 ], [ -86.165347, 35.96185 ], [ -86.165062, 35.960143 ], [ -86.16774, 35.960281 ], [ -86.167774, 35.958828 ], [ -86.169351, 35.959721 ], [ -86.173266, 35.960477 ], [ -86.175406, 35.960348 ], [ -86.175286, 35.958931 ], [ -86.170358, 35.958116 ], [ -86.170476, 35.957262 ], [ -86.176951, 35.957508 ], [ -86.186495, 35.957877 ], [ -86.185922, 35.962184 ], [ -86.195231, 35.962879 ], [ -86.202435, 35.963415 ], [ -86.202505, 35.962318 ], [ -86.205534, 35.962562 ], [ -86.210327, 35.962945 ], [ -86.209846, 35.966952 ], [ -86.216909, 35.967654 ], [ -86.216868, 35.969366 ], [ -86.217565, 35.969303 ], [ -86.222995, 35.969276 ], [ -86.222588, 35.968171 ], [ -86.223369, 35.968211 ], [ -86.223219, 35.965107 ], [ -86.224483, 35.964607 ], [ -86.22516, 35.96292 ], [ -86.23069, 35.963091 ], [ -86.236949, 35.963285 ], [ -86.23776, 35.959424 ], [ -86.246444, 35.960245 ], [ -86.251731, 35.961141 ], [ -86.250608, 35.967681 ], [ -86.255838, 35.968322 ], [ -86.255957, 35.967369 ], [ -86.256873, 35.9676 ], [ -86.256786, 35.968469 ], [ -86.287596, 35.972695 ], [ -86.287112, 35.974985 ], [ -86.310363, 35.978563 ], [ -86.309725, 35.981176 ], [ -86.310441, 35.98086 ], [ -86.310954, 35.980507 ], [ -86.311036, 35.980622 ], [ -86.309967, 35.986146 ], [ -86.317888, 35.986736 ], [ -86.319457, 35.985965 ], [ -86.322555, 35.987348 ], [ -86.323162, 35.98655 ], [ -86.324123, 35.987208 ], [ -86.326252, 35.985008 ], [ -86.339812, 35.995329 ], [ -86.346266, 36.000062 ], [ -86.35293, 36.003679 ], [ -86.353137, 36.003798 ], [ -86.364201, 36.010172 ], [ -86.364882, 36.010586 ], [ -86.364685, 36.012494 ], [ -86.364372, 36.014319 ], [ -86.365824, 36.015027 ], [ -86.366529, 36.016428 ], [ -86.366695, 36.016816 ], [ -86.367165, 36.017674 ], [ -86.36994, 36.0187 ], [ -86.371232, 36.018822 ], [ -86.372267, 36.018821 ], [ -86.373951, 36.018007 ], [ -86.374909, 36.014813 ], [ -86.375851, 36.012813 ], [ -86.376999, 36.012043 ], [ -86.385745, 36.02371 ], [ -86.388359, 36.027193 ], [ -86.383847, 36.026697 ], [ -86.383181, 36.030261 ], [ -86.382528, 36.035251 ], [ -86.393772, 36.03641 ], [ -86.394136, 36.036448 ], [ -86.39512, 36.03103 ], [ -86.400306, 36.033469 ], [ -86.413529, 36.039707 ], [ -86.417189, 36.041517 ], [ -86.417277, 36.04156 ], [ -86.418092, 36.041961 ], [ -86.426729, 36.047403 ], [ -86.427097, 36.047608 ], [ -86.430403, 36.049673 ], [ -86.43076, 36.049897 ], [ -86.43103, 36.050066 ], [ -86.432544, 36.051016 ], [ -86.433592, 36.04966 ], [ -86.435008, 36.049888 ], [ -86.43628, 36.05082 ], [ -86.439792, 36.051408 ], [ -86.43828, 36.051776 ], [ -86.437304, 36.054036 ], [ -86.442217, 36.057074 ], [ -86.452081, 36.06256 ], [ -86.452016, 36.062697 ], [ -86.463496, 36.068676 ], [ -86.463125, 36.070244 ], [ -86.469293, 36.070865 ], [ -86.469118, 36.072157 ], [ -86.471848, 36.072515 ], [ -86.472, 36.072079 ], [ -86.476778, 36.075255 ], [ -86.478663, 36.076517 ], [ -86.492966, 36.086031 ], [ -86.502285, 36.091754 ], [ -86.510366, 36.097077 ], [ -86.512171, 36.098306 ], [ -86.515589, 36.10061 ], [ -86.519566, 36.103831 ], [ -86.523355, 36.106633 ], [ -86.527737, 36.107167 ], [ -86.535943, 36.108166 ], [ -86.535634, 36.110104 ], [ -86.53529, 36.112496 ], [ -86.531183, 36.112049 ], [ -86.529718, 36.121318 ], [ -86.529688, 36.121505 ], [ -86.528868, 36.126704 ], [ -86.526437, 36.126479 ], [ -86.525789, 36.134386 ], [ -86.527391, 36.134585 ], [ -86.526492, 36.137797 ], [ -86.525559, 36.13854 ], [ -86.526049, 36.139619 ], [ -86.527841, 36.140769 ], [ -86.528438, 36.138009 ], [ -86.532513, 36.138439 ], [ -86.532839, 36.138472 ], [ -86.532899, 36.138436 ], [ -86.533007, 36.138366 ], [ -86.533144, 36.138263 ], [ -86.533228, 36.138206 ], [ -86.533297, 36.138153 ], [ -86.533353, 36.138095 ], [ -86.53342, 36.137982 ], [ -86.533443, 36.137902 ], [ -86.533447, 36.137792 ], [ -86.53343, 36.137679 ], [ -86.533418, 36.137603 ], [ -86.533396, 36.137504 ], [ -86.533381, 36.137446 ], [ -86.533363, 36.137389 ], [ -86.533354, 36.13736 ], [ -86.533649, 36.137501 ], [ -86.535789, 36.138513 ], [ -86.537272, 36.136887 ], [ -86.538597, 36.135395 ], [ -86.53996, 36.136733 ], [ -86.540291, 36.138853 ], [ -86.54272, 36.140594 ], [ -86.546957, 36.137054 ], [ -86.549545, 36.137823 ], [ -86.553145, 36.135814 ], [ -86.554398, 36.135755 ], [ -86.554138, 36.134191 ], [ -86.55473, 36.133886 ], [ -86.556609, 36.134928 ], [ -86.556865, 36.13496 ], [ -86.555735, 36.141344 ], [ -86.555406, 36.143217 ], [ -86.555323, 36.143212 ], [ -86.555275, 36.143521 ], [ -86.55458, 36.143461 ], [ -86.554563, 36.143458 ], [ -86.553856, 36.143359 ], [ -86.553484, 36.143307 ], [ -86.553083, 36.14325 ], [ -86.552285, 36.143211 ], [ -86.551254, 36.143262 ], [ -86.550937, 36.144315 ], [ -86.552683, 36.144568 ], [ -86.552559, 36.14515 ], [ -86.555759, 36.145381 ], [ -86.558862, 36.151301 ], [ -86.563296, 36.160373 ], [ -86.564859, 36.163649 ], [ -86.567688, 36.168312 ], [ -86.567917, 36.16869 ], [ -86.571162, 36.168849 ], [ -86.585372, 36.16954 ], [ -86.599183, 36.170191 ], [ -86.601298, 36.170098 ], [ -86.603579, 36.169803 ], [ -86.604746, 36.169536 ], [ -86.606692, 36.168982 ], [ -86.608041, 36.168444 ], [ -86.610347, 36.167331 ], [ -86.614587, 36.16469 ], [ -86.621241, 36.160571 ], [ -86.629091, 36.155699 ], [ -86.631288, 36.154342 ], [ -86.638611, 36.149794 ], [ -86.638598, 36.150092 ], [ -86.648932, 36.143691 ], [ -86.650441, 36.142941 ], [ -86.655619, 36.141366 ], [ -86.658041, 36.141076 ], [ -86.660587, 36.141035 ], [ -86.666423, 36.141386 ], [ -86.666647, 36.141402 ], [ -86.677137, 36.142136 ], [ -86.685015, 36.143106 ], [ -86.692838, 36.144257 ], [ -86.696993, 36.144372 ], [ -86.697251, 36.144349 ], [ -86.697454, 36.144183 ], [ -86.700766, 36.143787 ], [ -86.710232, 36.142254 ], [ -86.714397, 36.141549 ], [ -86.722507, 36.140209 ], [ -86.726446, 36.139861 ], [ -86.727133, 36.139054 ], [ -86.727129, 36.137002 ], [ -86.726761, 36.136815 ], [ -86.725044, 36.135803 ], [ -86.72256, 36.134026 ], [ -86.720965, 36.133102 ], [ -86.717919, 36.131897 ], [ -86.716871, 36.131189 ], [ -86.714032, 36.128971 ], [ -86.711092, 36.126708 ], [ -86.713362, 36.125489 ], [ -86.714825, 36.124735 ], [ -86.717029, 36.123561 ], [ -86.717619, 36.122331 ], [ -86.718013, 36.120975 ], [ -86.718634, 36.118871 ], [ -86.71898, 36.117696 ], [ -86.719066, 36.117426 ], [ -86.71924, 36.116735 ], [ -86.719563, 36.114859 ], [ -86.720458, 36.115003 ], [ -86.721827, 36.115432 ], [ -86.723516, 36.115937 ], [ -86.725267, 36.116475 ], [ -86.725475, 36.116567 ], [ -86.725912, 36.116719 ], [ -86.727713, 36.114568 ], [ -86.726409, 36.113105 ], [ -86.727324, 36.112006 ], [ -86.729605, 36.111058 ], [ -86.730565, 36.111081 ], [ -86.731083, 36.110569 ], [ -86.731089, 36.109714 ], [ -86.732161, 36.109707 ], [ -86.733525, 36.109832 ], [ -86.734605, 36.109933 ], [ -86.735922, 36.110077 ], [ -86.740732, 36.110561 ], [ -86.740845, 36.109631 ], [ -86.740962, 36.108642 ], [ -86.744074, 36.108703 ], [ -86.745536, 36.108563 ], [ -86.747478, 36.108776 ], [ -86.747422, 36.110135 ], [ -86.747361, 36.111059 ], [ -86.746801, 36.11103 ], [ -86.745905, 36.110967 ], [ -86.745218, 36.110942 ], [ -86.746167, 36.112713 ], [ -86.746907, 36.112627 ], [ -86.747502, 36.112561 ], [ -86.748203, 36.112488 ], [ -86.748728, 36.112519 ], [ -86.748887, 36.111173 ], [ -86.749959, 36.111239 ], [ -86.750888, 36.111289 ], [ -86.750945, 36.111285 ], [ -86.750988, 36.111282 ], [ -86.751541, 36.111225 ], [ -86.75172, 36.1112 ], [ -86.753504, 36.111012 ], [ -86.754468, 36.111082 ], [ -86.755232, 36.111164 ], [ -86.758005, 36.111442 ], [ -86.759308, 36.111579 ], [ -86.762922, 36.111929 ], [ -86.767018, 36.112333 ], [ -86.768018, 36.112395 ], [ -86.769045, 36.11228 ], [ -86.770697, 36.112112 ], [ -86.771777, 36.112199 ], [ -86.771069, 36.111118 ], [ -86.765455, 36.102855 ], [ -86.764845, 36.101532 ], [ -86.763679, 36.099 ], [ -86.762922, 36.09634 ], [ -86.762449, 36.093221 ], [ -86.762543, 36.08931 ], [ -86.763057, 36.08623 ], [ -86.763247, 36.085156 ], [ -86.763717, 36.082518 ], [ -86.761704, 36.082103 ], [ -86.760874, 36.081808 ], [ -86.76002, 36.081511 ], [ -86.758369, 36.081073 ], [ -86.755389, 36.081113 ], [ -86.755143, 36.080148 ], [ -86.755213, 36.077743 ], [ -86.754794, 36.075794 ], [ -86.754844, 36.074706 ], [ -86.750567, 36.074575 ], [ -86.748755, 36.074516 ], [ -86.748441, 36.073423 ], [ -86.745362, 36.069927 ], [ -86.746264, 36.069291 ], [ -86.745206, 36.068801 ], [ -86.743419, 36.068749 ], [ -86.742773, 36.068779 ], [ -86.739949, 36.068726 ], [ -86.739334, 36.068462 ], [ -86.738328, 36.068031 ], [ -86.737346, 36.067669 ], [ -86.737651, 36.067066 ], [ -86.738153, 36.066055 ], [ -86.74139, 36.05931 ], [ -86.74266, 36.0551 ], [ -86.743094, 36.052207 ], [ -86.74332, 36.050917 ], [ -86.743751, 36.047326 ], [ -86.74386, 36.046285 ], [ -86.744143, 36.043424 ], [ -86.743507, 36.040019 ], [ -86.743455, 36.038063 ], [ -86.743485, 36.036907 ], [ -86.743547, 36.034431 ], [ -86.743958, 36.030472 ], [ -86.744092, 36.028654 ], [ -86.74352, 36.026479 ], [ -86.742369, 36.024368 ], [ -86.742381, 36.02437 ], [ -86.742676, 36.021752 ], [ -86.742203, 36.019831 ], [ -86.74135, 36.017555 ], [ -86.740599, 36.015591 ], [ -86.740049, 36.014894 ], [ -86.740607, 36.014275 ], [ -86.738652, 36.013256 ], [ -86.734426, 36.011083 ], [ -86.731882, 36.009856 ], [ -86.726076, 36.009306 ], [ -86.723938, 36.009124 ], [ -86.722181, 36.008976 ], [ -86.720169, 36.008744 ], [ -86.712896, 36.008122 ], [ -86.703215, 36.00217 ], [ -86.699433, 35.999847 ], [ -86.697419, 35.998609 ], [ -86.693173, 35.996 ], [ -86.692324, 35.994753 ], [ -86.689614, 35.994966 ], [ -86.689096, 35.99505 ], [ -86.687714, 35.995343 ], [ -86.687394, 35.995104 ], [ -86.687305, 35.995037 ], [ -86.6872, 35.994962 ], [ -86.686735, 35.994608 ], [ -86.686455, 35.994363 ], [ -86.686347, 35.994269 ], [ -86.686164, 35.994092 ], [ -86.684785, 35.992599 ], [ -86.683475, 35.991177 ], [ -86.681889, 35.989399 ], [ -86.6761, 35.987158 ], [ -86.675519, 35.986933 ], [ -86.673863, 35.986292 ], [ -86.669453, 35.984592 ], [ -86.666792, 35.983565 ], [ -86.664852, 35.982816 ], [ -86.664248, 35.982583 ], [ -86.656189, 35.979472 ], [ -86.654285, 35.978736 ], [ -86.648288, 35.976422 ], [ -86.648288, 35.975573 ], [ -86.645887, 35.975359 ], [ -86.632912, 35.974401 ], [ -86.627397, 35.974027 ], [ -86.627695, 35.972128 ], [ -86.6186, 35.971336 ], [ -86.618892, 35.968224 ], [ -86.614415, 35.967785 ], [ -86.613688, 35.972391 ], [ -86.613646, 35.975552 ], [ -86.610425, 35.975468 ], [ -86.609595, 35.979822 ], [ -86.607995, 35.979772 ], [ -86.607743, 35.981573 ], [ -86.607547, 35.983784 ], [ -86.607225, 35.985472 ], [ -86.610086, 35.985755 ], [ -86.610007, 35.987902 ], [ -86.609591, 35.990926 ], [ -86.615588, 35.991624 ], [ -86.612734, 36.007273 ], [ -86.612691, 36.007523 ], [ -86.606815, 36.002254 ], [ -86.603317, 35.999629 ], [ -86.596727, 35.995443 ], [ -86.582612, 35.986461 ], [ -86.579802, 35.984221 ], [ -86.576587, 35.980983 ], [ -86.573605, 35.977827 ], [ -86.571471, 35.9753 ], [ -86.569976, 35.975954 ], [ -86.565857, 35.97704 ], [ -86.56303, 35.978414 ], [ -86.561378, 35.979357 ], [ -86.558897, 35.980774 ], [ -86.557435, 35.981591 ], [ -86.554793, 35.983124 ], [ -86.553007, 35.984125 ], [ -86.548827, 35.986589 ], [ -86.548636, 35.986413 ], [ -86.546878, 35.98474 ], [ -86.54338, 35.981271 ], [ -86.542569, 35.980503 ], [ -86.541706, 35.97972 ], [ -86.540206, 35.978312 ], [ -86.539829, 35.979169 ], [ -86.533414, 35.978383 ], [ -86.532014, 35.976838 ], [ -86.531387, 35.975723 ], [ -86.530016, 35.975269 ], [ -86.526981, 35.977557 ], [ -86.525798, 35.977613 ], [ -86.525906, 35.976165 ], [ -86.524389, 35.976055 ], [ -86.522804, 35.975712 ], [ -86.521366, 35.975616 ], [ -86.520991, 35.975584 ], [ -86.519661, 35.975941 ], [ -86.518432, 35.975738 ], [ -86.518825, 35.972581 ], [ -86.517402, 35.972463 ], [ -86.514832, 35.972246 ], [ -86.512554, 35.97205 ], [ -86.510887, 35.971212 ], [ -86.510047, 35.971701 ], [ -86.506824, 35.968083 ], [ -86.506529, 35.968271 ], [ -86.506413, 35.968392 ], [ -86.504905, 35.966658 ], [ -86.504115, 35.965745 ], [ -86.503098, 35.964582 ], [ -86.502255, 35.963617 ], [ -86.497257, 35.958344 ], [ -86.497073, 35.958172 ], [ -86.49552, 35.956656 ], [ -86.49433, 35.954617 ], [ -86.487799, 35.947059 ], [ -86.486236, 35.945276 ], [ -86.482404, 35.940861 ], [ -86.482555, 35.940792 ], [ -86.48312, 35.940778 ], [ -86.48441, 35.939913 ], [ -86.485475, 35.940862 ], [ -86.487436, 35.942013 ], [ -86.488543, 35.942132 ], [ -86.491274, 35.942396 ], [ -86.491498, 35.941156 ], [ -86.492013, 35.938708 ], [ -86.492312, 35.937775 ], [ -86.493654, 35.936409 ], [ -86.494435, 35.935751 ], [ -86.493552, 35.934954 ], [ -86.492791, 35.934266 ], [ -86.49364, 35.933393 ], [ -86.492063, 35.931955 ], [ -86.492717, 35.931451 ], [ -86.494437, 35.932546 ], [ -86.495207, 35.931018 ], [ -86.495483, 35.93109 ], [ -86.495751, 35.93116 ], [ -86.495859, 35.931188 ], [ -86.496588, 35.93138 ], [ -86.497052, 35.930226 ], [ -86.499787, 35.930476 ], [ -86.499587, 35.932061 ], [ -86.499222, 35.934838 ], [ -86.502808, 35.935134 ], [ -86.503972, 35.935237 ], [ -86.505147, 35.935335 ], [ -86.50634, 35.935444 ], [ -86.507506, 35.935557 ], [ -86.508631, 35.935417 ], [ -86.509634, 35.934501 ], [ -86.510629, 35.932452 ], [ -86.511949, 35.932086 ], [ -86.517235, 35.932361 ], [ -86.518553, 35.931716 ], [ -86.520256, 35.927253 ], [ -86.520857, 35.925014 ], [ -86.521004, 35.924433 ], [ -86.521109, 35.924051 ], [ -86.521915, 35.92117 ], [ -86.522099, 35.920518 ], [ -86.525926, 35.920879 ], [ -86.526738, 35.920968 ], [ -86.527194, 35.921019 ], [ -86.528832, 35.921175 ], [ -86.530744, 35.921354 ], [ -86.531993, 35.921469 ], [ -86.533551, 35.921604 ], [ -86.535174, 35.921773 ], [ -86.537999, 35.922648 ], [ -86.540469, 35.923252 ], [ -86.54019, 35.925275 ], [ -86.540169, 35.925429 ], [ -86.541559, 35.925759 ], [ -86.544265, 35.926939 ], [ -86.54542, 35.927322 ], [ -86.546157, 35.927439 ], [ -86.547417, 35.92742 ], [ -86.548592, 35.926998 ], [ -86.549413, 35.926241 ], [ -86.549701, 35.925519 ], [ -86.550084, 35.923201 ], [ -86.549934, 35.923187 ], [ -86.550217, 35.921236 ], [ -86.550352, 35.921245 ], [ -86.550372, 35.921108 ], [ -86.550281, 35.921092 ], [ -86.550299, 35.920949 ], [ -86.550478, 35.919819 ], [ -86.55061, 35.918988 ], [ -86.550882, 35.917222 ], [ -86.551151, 35.914145 ], [ -86.551577, 35.912678 ], [ -86.552194, 35.908733 ], [ -86.552414, 35.907696 ], [ -86.552797, 35.905397 ], [ -86.553004, 35.904862 ], [ -86.553582, 35.904191 ], [ -86.554806, 35.903769 ], [ -86.556007, 35.903816 ], [ -86.560186, 35.904293 ], [ -86.561142, 35.904249 ], [ -86.561763, 35.903962 ], [ -86.562333, 35.903252 ], [ -86.562405, 35.902839 ], [ -86.562269, 35.90199 ], [ -86.562354, 35.900847 ], [ -86.56274, 35.897823 ], [ -86.562836, 35.897827 ], [ -86.562945, 35.897022 ], [ -86.563004, 35.89673 ], [ -86.563103, 35.896454 ], [ -86.56323, 35.896188 ], [ -86.563267, 35.896128 ], [ -86.563431, 35.895873 ], [ -86.565085, 35.893912 ], [ -86.565436, 35.893498 ], [ -86.565706, 35.893185 ], [ -86.565756, 35.893127 ], [ -86.565892, 35.892953 ], [ -86.566021, 35.892766 ], [ -86.566031, 35.892752 ], [ -86.566102, 35.892626 ], [ -86.566147, 35.892534 ], [ -86.566168, 35.892494 ], [ -86.566229, 35.892336 ], [ -86.566271, 35.892209 ], [ -86.566312, 35.89206 ], [ -86.566415, 35.891569 ], [ -86.566464, 35.891267 ], [ -86.566549, 35.89075 ], [ -86.566951, 35.888593 ], [ -86.567232, 35.888074 ], [ -86.569166, 35.88652 ], [ -86.569583, 35.886027 ], [ -86.570191, 35.885108 ], [ -86.570809, 35.884243 ], [ -86.571017, 35.884067 ], [ -86.572548, 35.8827 ], [ -86.572987, 35.881953 ], [ -86.573422, 35.881503 ], [ -86.574127, 35.880068 ], [ -86.576329, 35.880221 ], [ -86.578523, 35.880016 ], [ -86.584819, 35.880916 ], [ -86.586363, 35.880882 ], [ -86.588479, 35.882146 ], [ -86.591748, 35.883953 ], [ -86.59434, 35.885798 ], [ -86.594626, 35.88603 ], [ -86.59494, 35.887925 ], [ -86.595115, 35.888822 ], [ -86.596396, 35.889742 ], [ -86.60296, 35.890542 ], [ -86.605582, 35.89086 ], [ -86.608749, 35.89166 ], [ -86.609944, 35.89127 ], [ -86.610595, 35.890148 ], [ -86.611634, 35.889682 ], [ -86.613857, 35.889666 ], [ -86.615132, 35.88944 ], [ -86.613771, 35.883756 ], [ -86.615513, 35.882778 ], [ -86.619588, 35.883715 ], [ -86.621372, 35.882569 ], [ -86.618556, 35.871339 ], [ -86.617315, 35.870223 ], [ -86.617296, 35.868812 ], [ -86.618032, 35.867913 ], [ -86.617427, 35.864132 ], [ -86.616781, 35.863666 ], [ -86.615597, 35.862343 ], [ -86.612675, 35.861088 ], [ -86.61208, 35.859906 ], [ -86.60617, 35.858975 ], [ -86.607099, 35.855828 ], [ -86.605648, 35.855156 ], [ -86.605294, 35.854993 ], [ -86.605079, 35.85418 ], [ -86.600428, 35.853185 ], [ -86.600221, 35.851519 ], [ -86.600032, 35.849994 ], [ -86.601457, 35.848891 ], [ -86.601026, 35.84514 ], [ -86.60162, 35.844535 ], [ -86.601506, 35.841498 ], [ -86.602582, 35.840246 ], [ -86.603221, 35.84014 ], [ -86.60343, 35.838704 ], [ -86.616383, 35.838795 ], [ -86.617335, 35.831287 ], [ -86.625534, 35.832249 ], [ -86.626018, 35.826738 ], [ -86.613506, 35.824671 ], [ -86.611816, 35.824558 ], [ -86.612707, 35.819215 ], [ -86.612245, 35.817448 ], [ -86.612951, 35.813515 ], [ -86.61387, 35.813486 ], [ -86.61691, 35.813484 ], [ -86.617033, 35.816227 ], [ -86.618691, 35.816156 ], [ -86.618748, 35.815551 ], [ -86.620919, 35.815445 ], [ -86.621684, 35.816297 ], [ -86.623291, 35.815735 ], [ -86.623826, 35.812522 ], [ -86.625198, 35.808897 ], [ -86.624996, 35.808196 ], [ -86.622878, 35.806967 ], [ -86.622415, 35.805227 ], [ -86.619475, 35.805714 ], [ -86.61971, 35.807174 ], [ -86.619016, 35.808499 ], [ -86.616937, 35.809054 ], [ -86.613531, 35.809965 ], [ -86.612815, 35.808131 ], [ -86.612754, 35.806394 ], [ -86.611855, 35.804795 ], [ -86.610908, 35.804115 ], [ -86.613241, 35.790824 ], [ -86.613328, 35.790331 ], [ -86.623703, 35.791191 ], [ -86.623997, 35.794762 ], [ -86.631989, 35.79542 ], [ -86.632088, 35.794484 ], [ -86.635521, 35.794627 ], [ -86.643487, 35.795301 ], [ -86.647049, 35.795558 ], [ -86.647783, 35.790858 ], [ -86.647844, 35.79047 ], [ -86.649811, 35.79058 ], [ -86.649916, 35.789855 ], [ -86.651395, 35.78998 ], [ -86.651684, 35.790005 ], [ -86.651984, 35.790029 ], [ -86.662855, 35.790934 ], [ -86.663374, 35.789421 ], [ -86.662149, 35.787977 ], [ -86.661467, 35.786348 ], [ -86.661772, 35.785392 ], [ -86.664042, 35.783682 ], [ -86.664217, 35.782898 ], [ -86.663316, 35.782158 ], [ -86.661728, 35.78261 ], [ -86.659966, 35.781734 ], [ -86.659926, 35.779626 ], [ -86.660225, 35.776879 ], [ -86.661266, 35.767431 ], [ -86.662568, 35.767809 ], [ -86.663821, 35.770982 ], [ -86.671288, 35.771736 ], [ -86.672002, 35.768885 ], [ -86.672737, 35.768623 ], [ -86.675149, 35.76896 ], [ -86.675091, 35.765689 ], [ -86.678142, 35.765772 ], [ -86.679478, 35.756258 ], [ -86.679931, 35.756304 ], [ -86.680854, 35.750621 ], [ -86.681701, 35.750753 ], [ -86.681813, 35.750066 ], [ -86.692366, 35.751069 ], [ -86.692181, 35.752448 ], [ -86.692486, 35.753328 ], [ -86.692376, 35.754532 ], [ -86.692884, 35.753723 ], [ -86.69354, 35.752719 ], [ -86.693698, 35.752712 ], [ -86.696904, 35.752334 ], [ -86.69755, 35.747306 ], [ -86.69758, 35.747077 ], [ -86.697619, 35.74678 ], [ -86.697794, 35.746284 ], [ -86.697964, 35.742632 ], [ -86.698032, 35.741059 ], [ -86.698446, 35.733958 ], [ -86.698561, 35.732581 ], [ -86.698669, 35.731831 ], [ -86.700265, 35.722621 ], [ -86.699281, 35.717837 ], [ -86.698119, 35.717839 ], [ -86.698003, 35.717835 ], [ -86.697897, 35.717844 ], [ -86.695008, 35.717547 ], [ -86.694703, 35.71876 ], [ -86.692638, 35.718633 ], [ -86.692002, 35.71852 ], [ -86.688557, 35.718372 ], [ -86.688588, 35.718082 ], [ -86.689105, 35.713254 ], [ -86.685925, 35.713558 ], [ -86.686193, 35.710051 ], [ -86.680652, 35.70957 ], [ -86.68118, 35.708221 ], [ -86.682126, 35.706981 ], [ -86.682628, 35.704097 ], [ -86.677206, 35.703775 ], [ -86.673683, 35.703306 ], [ -86.674255, 35.696962 ], [ -86.670208, 35.696705 ], [ -86.667074, 35.696357 ], [ -86.667188, 35.695283 ], [ -86.661346, 35.694844 ], [ -86.661619, 35.692664 ], [ -86.66047, 35.692544 ], [ -86.651194, 35.691586 ], [ -86.651389, 35.690092 ], [ -86.649695, 35.689902 ], [ -86.643283, 35.689183 ], [ -86.641978, 35.689037 ], [ -86.642389, 35.686235 ], [ -86.639436, 35.6859 ], [ -86.636933, 35.696551 ], [ -86.635657, 35.701715 ], [ -86.636362, 35.701982 ], [ -86.629908, 35.702406 ], [ -86.623915, 35.702823 ], [ -86.623791, 35.702827 ], [ -86.623605, 35.702833 ], [ -86.621912, 35.702808 ], [ -86.622182, 35.701256 ], [ -86.621875, 35.700995 ], [ -86.619515, 35.701079 ], [ -86.619446, 35.702676 ], [ -86.615763, 35.702473 ], [ -86.600362, 35.701578 ], [ -86.581754, 35.699426 ], [ -86.581343, 35.699377 ], [ -86.57107, 35.699241 ], [ -86.568295, 35.699246 ], [ -86.543116, 35.697617 ], [ -86.543685, 35.694278 ], [ -86.53734, 35.693266 ], [ -86.537514, 35.692235 ], [ -86.535628, 35.69215 ], [ -86.53481, 35.692076 ], [ -86.526878, 35.69139 ], [ -86.526643, 35.689974 ], [ -86.523898, 35.689761 ], [ -86.523378, 35.689855 ], [ -86.523293, 35.686053 ], [ -86.523136, 35.686045 ], [ -86.520432, 35.685892 ], [ -86.520208, 35.688519 ], [ -86.515516, 35.688396 ], [ -86.516676, 35.680586 ], [ -86.519121, 35.680556 ], [ -86.519442, 35.677751 ], [ -86.513078, 35.676998 ], [ -86.513157, 35.676134 ], [ -86.508794, 35.675598 ], [ -86.509482, 35.67136 ], [ -86.504837, 35.670804 ], [ -86.505373, 35.667624 ], [ -86.501608, 35.667149 ], [ -86.501899, 35.664993 ], [ -86.499448, 35.664556 ], [ -86.499773, 35.661688 ], [ -86.499797, 35.66149 ], [ -86.493652, 35.660847 ], [ -86.494006, 35.658048 ], [ -86.493612, 35.658044 ], [ -86.488394, 35.657708 ], [ -86.487815, 35.656472 ], [ -86.477702, 35.655404 ], [ -86.472088, 35.654732 ], [ -86.473206, 35.646321 ], [ -86.461353, 35.645176 ], [ -86.462181, 35.63785 ], [ -86.456514, 35.637207 ], [ -86.456052, 35.637154 ], [ -86.455038, 35.644548 ], [ -86.445134, 35.643532 ], [ -86.444741, 35.646177 ], [ -86.442338, 35.646229 ], [ -86.438418, 35.645231 ], [ -86.436629, 35.64552 ], [ -86.432679, 35.646908 ], [ -86.431486, 35.647916 ], [ -86.430247, 35.649736 ], [ -86.428898, 35.650645 ], [ -86.424415, 35.652858 ], [ -86.424145, 35.652976 ], [ -86.424931, 35.649772 ], [ -86.416625, 35.649636 ], [ -86.416788, 35.647159 ], [ -86.418173, 35.647178 ], [ -86.418902, 35.640617 ], [ -86.413429, 35.640023 ], [ -86.413847, 35.637029 ], [ -86.415338, 35.63493 ], [ -86.415369, 35.633088 ], [ -86.417275, 35.630403 ], [ -86.4179, 35.628259 ], [ -86.416866, 35.625559 ], [ -86.413678, 35.623177 ], [ -86.411401, 35.622699 ], [ -86.409525, 35.623144 ], [ -86.406722, 35.62292 ], [ -86.405157, 35.622197 ], [ -86.403312, 35.618874 ], [ -86.401731, 35.618627 ], [ -86.40135, 35.619786 ], [ -86.399791, 35.620741 ], [ -86.3987, 35.622072 ], [ -86.39509, 35.623204 ], [ -86.39456, 35.623805 ], [ -86.394443, 35.625513 ], [ -86.395498, 35.627778 ], [ -86.394164, 35.62659 ], [ -86.390784, 35.626995 ], [ -86.38965, 35.627194 ], [ -86.387762, 35.626094 ], [ -86.384299, 35.62634 ], [ -86.382831, 35.626777 ], [ -86.382648, 35.628568 ], [ -86.379636, 35.629868 ], [ -86.376959, 35.630219 ], [ -86.374271, 35.63008 ], [ -86.373011, 35.6311 ], [ -86.374551, 35.633936 ], [ -86.375611, 35.634804 ], [ -86.375607, 35.6359 ], [ -86.374399, 35.637539 ], [ -86.374992, 35.639174 ], [ -86.377754, 35.641479 ], [ -86.378642, 35.642823 ], [ -86.377841, 35.645303 ], [ -86.376796, 35.647157 ], [ -86.374992, 35.646043 ], [ -86.373396, 35.645812 ], [ -86.370673, 35.647038 ], [ -86.369035, 35.647274 ], [ -86.366725, 35.648471 ], [ -86.365601, 35.650926 ], [ -86.363379, 35.651431 ], [ -86.362826, 35.65228 ], [ -86.359716, 35.652161 ], [ -86.359493, 35.650433 ], [ -86.352169, 35.650237 ], [ -86.350702, 35.653245 ], [ -86.35146, 35.654772 ], [ -86.354374, 35.655561 ], [ -86.354825, 35.657939 ], [ -86.352734, 35.660482 ], [ -86.350624, 35.660666 ], [ -86.347282, 35.658723 ], [ -86.345509, 35.659482 ], [ -86.343776, 35.660917 ], [ -86.345069, 35.663744 ], [ -86.34194, 35.664259 ], [ -86.340438, 35.663168 ], [ -86.338262, 35.663093 ], [ -86.33706, 35.662584 ], [ -86.33603, 35.662149 ], [ -86.336847, 35.659061 ], [ -86.335679, 35.658193 ], [ -86.334075, 35.658059 ], [ -86.331977, 35.659587 ], [ -86.329587, 35.660863 ], [ -86.327852, 35.662395 ], [ -86.326323, 35.662639 ], [ -86.325368, 35.661875 ], [ -86.321324, 35.662348 ], [ -86.318896, 35.662037 ], [ -86.317209, 35.660816 ], [ -86.315959, 35.661027 ], [ -86.315215, 35.661153 ], [ -86.313895, 35.661182 ], [ -86.311811, 35.661575 ], [ -86.310374, 35.661587 ], [ -86.310243, 35.660306 ], [ -86.309328, 35.659517 ], [ -86.3076, 35.659196 ], [ -86.304128, 35.659553 ], [ -86.303177, 35.657806 ], [ -86.301156, 35.656581 ], [ -86.300321, 35.655736 ], [ -86.300724, 35.654371 ], [ -86.302048, 35.653996 ], [ -86.302123, 35.652829 ], [ -86.302783, 35.651394 ], [ -86.304096, 35.651155 ], [ -86.30547, 35.651505 ], [ -86.306181, 35.650585 ], [ -86.306493, 35.64868 ], [ -86.305893, 35.64795 ], [ -86.305235, 35.646375 ], [ -86.302421, 35.64619 ], [ -86.301335, 35.645713 ], [ -86.300798, 35.646087 ], [ -86.299562, 35.646447 ], [ -86.297316, 35.64658 ], [ -86.295266, 35.647449 ], [ -86.293525, 35.647273 ], [ -86.292153, 35.646094 ], [ -86.291337, 35.646023 ], [ -86.290741, 35.645688 ], [ -86.289916, 35.644844 ], [ -86.289831, 35.643869 ], [ -86.288637, 35.643359 ], [ -86.286923, 35.643409 ], [ -86.286826, 35.644028 ], [ -86.286466, 35.645144 ], [ -86.28743, 35.646593 ], [ -86.287584, 35.648252 ], [ -86.285457, 35.648315 ], [ -86.284018, 35.649084 ], [ -86.282828, 35.648382 ], [ -86.280924, 35.648615 ], [ -86.27981, 35.645892 ], [ -86.277229, 35.644589 ], [ -86.274769, 35.643786 ], [ -86.273309, 35.64259 ], [ -86.272722, 35.642708 ], [ -86.271483, 35.64296 ], [ -86.268898, 35.642631 ], [ -86.268368, 35.641113 ], [ -86.266556, 35.639769 ], [ -86.263763, 35.63956 ], [ -86.262714, 35.637884 ], [ -86.260577, 35.637897 ], [ -86.257478, 35.634286 ], [ -86.25766, 35.631921 ], [ -86.249994, 35.632116 ], [ -86.246414, 35.631949 ], [ -86.246076, 35.631938 ], [ -86.245767, 35.631929 ], [ -86.245165, 35.631913 ], [ -86.244183, 35.630386 ], [ -86.241862, 35.627654 ], [ -86.24167, 35.626986 ], [ -86.242565, 35.625641 ], [ -86.243291, 35.62572 ], [ -86.24362, 35.625759 ], [ -86.245611, 35.625729 ], [ -86.247213, 35.624313 ], [ -86.247662, 35.624055 ], [ -86.248096, 35.62062 ], [ -86.244448, 35.620434 ], [ -86.243789, 35.61741 ], [ -86.245112, 35.616877 ], [ -86.245292, 35.615254 ], [ -86.245115, 35.611879 ], [ -86.244362, 35.611762 ], [ -86.243779, 35.610139 ], [ -86.243927, 35.608914 ], [ -86.245771, 35.607096 ], [ -86.243869, 35.606691 ], [ -86.243719, 35.603266 ], [ -86.242252, 35.577876 ], [ -86.242141, 35.575072 ], [ -86.242149, 35.570689 ], [ -86.242482, 35.55557 ], [ -86.242697, 35.545808 ], [ -86.242701, 35.545636 ], [ -86.242838, 35.539321 ], [ -86.242942, 35.532386 ], [ -86.242708, 35.528431 ], [ -86.242786, 35.525101 ], [ -86.242654, 35.517822 ], [ -86.24178, 35.516008 ], [ -86.23756, 35.507667 ], [ -86.237278, 35.507086 ], [ -86.236679, 35.505836 ], [ -86.238723, 35.504841 ], [ -86.241641, 35.504176 ], [ -86.241987, 35.501003 ], [ -86.242253, 35.500074 ], [ -86.24383, 35.487851 ], [ -86.245008, 35.478731 ], [ -86.245289, 35.477411 ], [ -86.244786, 35.476604 ], [ -86.244062, 35.472866 ], [ -86.246278, 35.471579 ], [ -86.24617, 35.469418 ], [ -86.24471, 35.469047 ], [ -86.244237, 35.467837 ], [ -86.244957, 35.466903 ], [ -86.246742, 35.466573 ], [ -86.246872, 35.465375 ], [ -86.246244, 35.462482 ], [ -86.245413, 35.460671 ], [ -86.244286, 35.458809 ], [ -86.243641, 35.458932 ], [ -86.242381, 35.459569 ], [ -86.241739, 35.457516 ], [ -86.239396, 35.455882 ], [ -86.236714, 35.455034 ], [ -86.234529, 35.453308 ], [ -86.235057, 35.451961 ], [ -86.237266, 35.452003 ], [ -86.237789, 35.448553 ], [ -86.246613, 35.449195 ], [ -86.247622, 35.441181 ], [ -86.249601, 35.426008 ], [ -86.249856, 35.42318 ], [ -86.249867, 35.423063 ], [ -86.249991, 35.421715 ], [ -86.250438, 35.414474 ], [ -86.25055, 35.413202 ], [ -86.254676, 35.41277 ], [ -86.25759, 35.412476 ], [ -86.257888, 35.41125 ], [ -86.258036, 35.409103 ], [ -86.251504, 35.409038 ], [ -86.251673, 35.403511 ], [ -86.252457, 35.403412 ], [ -86.256663, 35.403614 ], [ -86.258847, 35.403732 ], [ -86.258806, 35.404267 ], [ -86.260859, 35.40432 ], [ -86.260971, 35.400375 ], [ -86.261045, 35.39779 ], [ -86.267252, 35.397978 ], [ -86.270312, 35.39538 ], [ -86.271392, 35.394466 ], [ -86.27386, 35.392412 ], [ -86.279905, 35.387452 ], [ -86.274321, 35.387035 ], [ -86.271742, 35.386843 ], [ -86.268669, 35.386615 ], [ -86.263458, 35.386227 ], [ -86.263307, 35.385686 ], [ -86.253335, 35.385299 ], [ -86.253682, 35.380351 ], [ -86.257141, 35.380677 ], [ -86.257123, 35.379391 ], [ -86.257712, 35.375078 ], [ -86.257364, 35.373014 ], [ -86.257491, 35.370878 ], [ -86.258291, 35.371078 ], [ -86.274391, 35.372278 ], [ -86.274488, 35.371728 ], [ -86.274691, 35.370578 ], [ -86.272391, 35.370578 ], [ -86.272939, 35.366744 ], [ -86.272991, 35.366378 ], [ -86.261991, 35.365678 ], [ -86.262191, 35.363478 ], [ -86.260929, 35.361602 ], [ -86.25849, 35.357976 ], [ -86.25179, 35.357379 ], [ -86.25189, 35.356679 ], [ -86.24429, 35.356079 ], [ -86.245026, 35.350252 ], [ -86.24539, 35.347379 ], [ -86.24999, 35.345655 ], [ -86.26124, 35.340829 ], [ -86.266376, 35.338564 ], [ -86.266264, 35.338245 ], [ -86.26459, 35.335179 ], [ -86.262385, 35.334041 ], [ -86.261489, 35.333579 ], [ -86.261684, 35.330107 ], [ -86.260235, 35.32892 ], [ -86.260235, 35.327647 ], [ -86.25541, 35.327789 ], [ -86.253394, 35.326448 ], [ -86.25254, 35.326002 ], [ -86.249658, 35.324579 ], [ -86.246171, 35.32424 ], [ -86.245289, 35.323737 ], [ -86.246161, 35.318142 ], [ -86.244723, 35.314877 ], [ -86.251885, 35.315151 ], [ -86.252433, 35.310986 ], [ -86.252607, 35.309671 ], [ -86.253296, 35.309603 ], [ -86.253792, 35.306098 ], [ -86.250713, 35.305884 ], [ -86.251536, 35.303966 ], [ -86.25551, 35.296721 ], [ -86.255762, 35.295829 ], [ -86.257968, 35.296022 ], [ -86.261579, 35.296307 ], [ -86.26163, 35.297514 ], [ -86.266245, 35.297663 ], [ -86.265813, 35.292717 ], [ -86.266077, 35.290173 ], [ -86.266573, 35.289987 ], [ -86.267165, 35.28571 ], [ -86.267892, 35.285761 ], [ -86.27341, 35.286137 ], [ -86.273919, 35.281721 ], [ -86.274107, 35.280478 ], [ -86.276051, 35.279921 ], [ -86.276168, 35.277717 ], [ -86.275081, 35.27827 ], [ -86.272921, 35.278181 ], [ -86.27099, 35.278281 ], [ -86.26749, 35.276681 ], [ -86.267619, 35.275575 ], [ -86.267781, 35.274205 ], [ -86.26809, 35.271581 ], [ -86.271291, 35.272772 ], [ -86.27239, 35.273181 ], [ -86.27469, 35.272481 ], [ -86.277218, 35.272281 ], [ -86.27919, 35.272481 ], [ -86.279489, 35.271285 ], [ -86.279538, 35.271137 ], [ -86.28049, 35.270681 ], [ -86.27999, 35.268781 ], [ -86.280898, 35.268676 ], [ -86.282751, 35.26791 ], [ -86.28389, 35.267981 ], [ -86.28409, 35.265481 ], [ -86.28369, 35.263981 ], [ -86.281906, 35.263557 ], [ -86.27719, 35.262981 ], [ -86.277376, 35.261842 ], [ -86.277627, 35.260254 ], [ -86.283279, 35.261422 ], [ -86.28379, 35.259581 ], [ -86.28719, 35.259681 ], [ -86.28729, 35.256881 ], [ -86.286273, 35.256803 ], [ -86.28365, 35.254484 ], [ -86.282334, 35.254081 ], [ -86.281128, 35.252684 ], [ -86.279633, 35.253341 ], [ -86.27859, 35.253081 ], [ -86.278739, 35.250081 ], [ -86.27971, 35.247277 ], [ -86.280023, 35.246079 ], [ -86.281191, 35.241761 ], [ -86.282178, 35.24186 ], [ -86.285098, 35.242098 ], [ -86.28569, 35.242181 ], [ -86.286437, 35.239687 ], [ -86.286676, 35.238962 ], [ -86.28568, 35.237307 ], [ -86.288684, 35.238445 ], [ -86.29037, 35.23881 ], [ -86.291994, 35.238213 ], [ -86.297904, 35.235595 ], [ -86.2951, 35.233199 ], [ -86.295744, 35.232311 ], [ -86.295827, 35.231677 ], [ -86.29785, 35.233531 ], [ -86.299802, 35.2344 ], [ -86.301597, 35.235241 ], [ -86.303112, 35.234693 ], [ -86.304903, 35.232179 ], [ -86.306076, 35.231178 ], [ -86.304293, 35.230991 ], [ -86.304094, 35.230915 ], [ -86.302147, 35.231311 ], [ -86.299283, 35.230832 ], [ -86.299861, 35.226306 ], [ -86.299118, 35.226177 ], [ -86.298086, 35.222819 ], [ -86.297492, 35.222187 ], [ -86.308332, 35.222413 ], [ -86.308586, 35.220107 ], [ -86.309601, 35.219324 ], [ -86.310286, 35.219801 ], [ -86.315014, 35.219822 ], [ -86.316224, 35.219745 ], [ -86.31533, 35.218589 ], [ -86.314681, 35.215299 ], [ -86.309924, 35.215311 ], [ -86.310071, 35.217044 ], [ -86.308369, 35.217032 ], [ -86.307643, 35.217606 ], [ -86.305426, 35.21748 ], [ -86.305135, 35.216872 ], [ -86.302619, 35.216931 ], [ -86.299309, 35.217269 ], [ -86.298286, 35.217781 ], [ -86.295907, 35.218062 ], [ -86.296185, 35.216469 ], [ -86.294638, 35.216379 ], [ -86.295376, 35.214237 ], [ -86.295423, 35.212381 ], [ -86.294156, 35.209688 ], [ -86.293717, 35.207287 ], [ -86.29829, 35.207382 ], [ -86.29829, 35.205082 ], [ -86.29989, 35.205482 ], [ -86.30189, 35.206582 ], [ -86.30359, 35.204582 ], [ -86.30179, 35.200082 ], [ -86.30179, 35.198782 ], [ -86.302863, 35.198067 ], [ -86.30379, 35.197082 ], [ -86.309028, 35.198092 ], [ -86.308956, 35.19648 ], [ -86.311416, 35.196221 ], [ -86.311832, 35.195513 ], [ -86.31071, 35.193393 ], [ -86.310191, 35.191391 ], [ -86.309399, 35.190323 ], [ -86.30621, 35.187448 ], [ -86.305906, 35.186385 ], [ -86.307046, 35.184958 ], [ -86.309237, 35.183735 ], [ -86.310858, 35.182115 ], [ -86.3108, 35.18106 ], [ -86.307669, 35.179106 ], [ -86.305669, 35.17821 ], [ -86.301489, 35.177382 ], [ -86.300989, 35.173183 ], [ -86.305789, 35.173383 ], [ -86.305927, 35.171766 ], [ -86.308482, 35.171669 ], [ -86.311925, 35.172314 ], [ -86.314024, 35.171561 ], [ -86.316743, 35.168871 ], [ -86.317847, 35.166947 ], [ -86.318932, 35.16364 ], [ -86.319356, 35.162806 ], [ -86.319973, 35.161316 ], [ -86.319372, 35.158701 ], [ -86.31953, 35.155926 ], [ -86.320025, 35.154126 ], [ -86.319753, 35.153092 ], [ -86.316989, 35.150345 ], [ -86.31653, 35.148852 ], [ -86.316754, 35.146766 ], [ -86.316935, 35.146484 ], [ -86.321319, 35.147255 ], [ -86.324131, 35.149019 ], [ -86.326117, 35.148514 ], [ -86.328009, 35.14945 ], [ -86.330797, 35.148543 ], [ -86.333354, 35.146698 ], [ -86.332753, 35.145743 ], [ -86.330205, 35.143722 ], [ -86.323825, 35.139612 ], [ -86.321399, 35.136965 ], [ -86.318927, 35.13605 ], [ -86.31569, 35.135391 ], [ -86.31474, 35.135455 ], [ -86.31274, 35.134604 ], [ -86.3128, 35.133886 ], [ -86.315626, 35.130063 ], [ -86.318168, 35.126986 ], [ -86.318084, 35.125084 ], [ -86.318237, 35.118618 ], [ -86.318175, 35.110975 ], [ -86.318135, 35.106017 ], [ -86.318061, 35.097188 ], [ -86.318054, 35.09634 ], [ -86.318032, 35.09363 ], [ -86.317861, 35.07246 ], [ -86.317836, 35.063571 ], [ -86.317841, 35.063371 ], [ -86.318552, 35.05511 ], [ -86.318583, 35.054746 ], [ -86.318747, 35.05146 ], [ -86.319871, 35.039817 ], [ -86.320031, 35.037578 ], [ -86.320288, 35.032786 ], [ -86.320203, 35.030629 ], [ -86.319741, 35.019037 ], [ -86.318988, 35.000087 ], [ -86.318761, 34.991169 ], [ -86.299843, 34.990991 ], [ -86.291754, 34.990967 ], [ -86.254101, 34.990613 ], [ -86.248019, 34.990421 ], [ -86.247525, 34.990414 ], [ -86.237023, 34.990387 ], [ -86.218907, 34.990262 ], [ -86.152814, 34.989926 ], [ -86.124985, 34.989786 ], [ -86.101912, 34.989723 ], [ -86.084648, 34.989594 ], [ -86.067137, 34.989514 ] ] ] ] } }
]
}
