{
"type": "FeatureCollection",
"name": "id_6",
"crs": { "type": "name", "properties": { "name": "urn:ogc:def:crs:OGC:1.3:CRS84" } },
"xy_coordinate_resolution": 1e-15,
"features": [
{ "type": "Feature", "properties": { "id": 6.0, "NAME": "6.0", "TotalPop": 767871.0, "PopDevPct": -0.0, "DemPct": 0.403, "RepPct": 0.573, "WhitePct": 0.79, "MinorityPc": 0.21, "BlackPct": 0.106, "HispanicPc": 0.055, "PacificPct": 0.001, "AsianPct": 0.024, "NativePct": 0.023, "TotalVAP": 614497.0, "Margin": -0.097, "color": "#005eff", "opacity": "0.5" }, "geometry": { "type": "MultiPolygon", "coordinates": [ [ [ [ -84.78545, 36.603444 ], [ -84.804294, 36.6039 ], [ -84.818982, 36.604259 ], [ -84.829123, 36.604514 ], [ -84.874882, 36.607701 ], [ -84.883803, 36.608175 ], [ -84.897679, 36.609085 ], [ -84.919833, 36.610634 ], [ -84.937508, 36.611858 ], [ -84.95274, 36.613412 ], [ -84.991632, 36.617041 ], [ -84.993427, 36.617156 ], [ -84.99681, 36.617373 ], [ -85.026279, 36.619261 ], [ -85.026861, 36.619299 ], [ -85.02742, 36.619323 ], [ -85.049583, 36.620303 ], [ -85.070543, 36.621248 ], [ -85.078097, 36.621543 ], [ -85.085471, 36.621882 ], [ -85.086396, 36.621921 ], [ -85.088348, 36.622005 ], [ -85.096619, 36.622352 ], [ -85.110636, 36.622935 ], [ -85.118389, 36.623215 ], [ -85.136033, 36.623813 ], [ -85.143387, 36.624034 ], [ -85.168763, 36.624798 ], [ -85.17018, 36.62484 ], [ -85.171624, 36.624884 ], [ -85.18627, 36.625208 ], [ -85.190361, 36.625277 ], [ -85.203933, 36.625505 ], [ -85.204519, 36.625515 ], [ -85.205493, 36.625532 ], [ -85.207773, 36.625571 ], [ -85.208062, 36.625576 ], [ -85.208322, 36.62558 ], [ -85.209046, 36.625593 ], [ -85.209382, 36.625599 ], [ -85.213286, 36.625669 ], [ -85.221927, 36.625823 ], [ -85.225992, 36.625896 ], [ -85.226468, 36.625905 ], [ -85.228942, 36.625949 ], [ -85.240162, 36.626149 ], [ -85.247557, 36.626281 ], [ -85.249966, 36.626324 ], [ -85.256819, 36.626438 ], [ -85.257149, 36.626443 ], [ -85.265628, 36.626622 ], [ -85.276281, 36.626816 ], [ -85.276922, 36.626823 ], [ -85.289091, 36.626486 ], [ -85.290266, 36.626454 ], [ -85.294158, 36.626278 ], [ -85.298471, 36.625009 ], [ -85.299225, 36.624793 ], [ -85.300415, 36.624449 ], [ -85.303128, 36.624461 ], [ -85.303687, 36.624464 ], [ -85.317069, 36.624498 ], [ -85.324791, 36.624508 ], [ -85.330632, 36.623592 ], [ -85.331397, 36.623472 ], [ -85.333062, 36.623212 ], [ -85.334549, 36.622979 ], [ -85.350496, 36.622261 ], [ -85.353233, 36.622143 ], [ -85.354252, 36.622101 ], [ -85.354584, 36.622083 ], [ -85.356092, 36.622022 ], [ -85.356266, 36.622015 ], [ -85.357921, 36.621947 ], [ -85.35862, 36.621919 ], [ -85.369621, 36.621466 ], [ -85.372092, 36.621355 ], [ -85.382476, 36.620826 ], [ -85.383957, 36.620756 ], [ -85.392571, 36.620381 ], [ -85.392878, 36.620369 ], [ -85.394241, 36.620312 ], [ -85.394896, 36.620286 ], [ -85.412004, 36.619554 ], [ -85.413562, 36.619532 ], [ -85.417362, 36.619397 ], [ -85.429361, 36.619095 ], [ -85.434908, 36.618751 ], [ -85.488497, 36.615395 ], [ -85.49106, 36.615261 ], [ -85.501599, 36.614857 ], [ -85.502294, 36.614868 ], [ -85.502838, 36.614876 ], [ -85.508593, 36.614994 ], [ -85.538077, 36.615629 ], [ -85.55355, 36.615871 ], [ -85.574554, 36.616225 ], [ -85.587048, 36.616466 ], [ -85.602787, 36.616772 ], [ -85.611298, 36.616993 ], [ -85.638022, 36.617498 ], [ -85.64039, 36.617536 ], [ -85.644126, 36.617588 ], [ -85.665341, 36.618273 ], [ -85.665763, 36.618285 ], [ -85.67653, 36.618223 ], [ -85.68644, 36.618698 ], [ -85.69393, 36.618905 ], [ -85.704535, 36.619306 ], [ -85.711722, 36.619467 ], [ -85.719906, 36.619891 ], [ -85.724021, 36.620191 ], [ -85.732596, 36.620507 ], [ -85.738391, 36.620496 ], [ -85.744513, 36.620624 ], [ -85.752674, 36.6209 ], [ -85.771312, 36.621516 ], [ -85.788726, 36.622048 ], [ -85.788695, 36.619368 ], [ -85.788358, 36.617621 ], [ -85.788004, 36.615403 ], [ -85.788455, 36.614979 ], [ -85.791408, 36.614482 ], [ -85.793027, 36.613267 ], [ -85.796462, 36.613541 ], [ -85.797304, 36.608604 ], [ -85.797667, 36.604329 ], [ -85.798956, 36.596131 ], [ -85.799686, 36.591174 ], [ -85.801082, 36.581786 ], [ -85.801862, 36.576785 ], [ -85.80217, 36.574802 ], [ -85.806077, 36.556687 ], [ -85.807145, 36.552475 ], [ -85.807882, 36.546971 ], [ -85.809257, 36.534167 ], [ -85.809668, 36.530311 ], [ -85.811498, 36.516234 ], [ -85.812504, 36.512449 ], [ -85.812979, 36.508635 ], [ -85.813243, 36.505854 ], [ -85.813885, 36.499473 ], [ -85.815221, 36.491028 ], [ -85.816022, 36.486685 ], [ -85.818866, 36.468384 ], [ -85.818918, 36.468067 ], [ -85.820864, 36.455925 ], [ -85.821927, 36.44988 ], [ -85.823337, 36.440914 ], [ -85.827476, 36.41496 ], [ -85.827779, 36.413037 ], [ -85.827798, 36.412935 ], [ -85.828026, 36.411836 ], [ -85.843875, 36.414026 ], [ -85.851248, 36.415035 ], [ -85.867457, 36.415467 ], [ -85.868616, 36.41548 ], [ -85.877563, 36.415588 ], [ -85.891704, 36.4176 ], [ -85.893977, 36.41792 ], [ -85.894588, 36.417935 ], [ -85.895719, 36.420556 ], [ -85.898232, 36.418311 ], [ -85.898676, 36.417103 ], [ -85.898201, 36.415528 ], [ -85.904031, 36.415785 ], [ -85.903948, 36.418427 ], [ -85.908774, 36.418827 ], [ -85.916779, 36.41967 ], [ -85.925192, 36.420559 ], [ -85.925467, 36.420588 ], [ -85.933095, 36.421394 ], [ -85.942014, 36.422378 ], [ -85.943719, 36.421233 ], [ -85.946416, 36.420106 ], [ -85.947281, 36.420861 ], [ -85.949391, 36.422908 ], [ -85.967057, 36.42448 ], [ -85.967445, 36.424515 ], [ -85.978893, 36.426073 ], [ -85.979774, 36.424709 ], [ -85.978859, 36.422093 ], [ -85.976597, 36.422002 ], [ -85.974742, 36.422535 ], [ -85.972642, 36.421285 ], [ -85.971071, 36.419107 ], [ -85.971785, 36.418348 ], [ -85.976329, 36.415407 ], [ -85.977024, 36.414199 ], [ -85.976796, 36.412331 ], [ -85.975665, 36.411321 ], [ -85.976151, 36.410672 ], [ -85.976495, 36.406567 ], [ -85.977143, 36.405076 ], [ -85.98108, 36.400167 ], [ -85.981444, 36.398853 ], [ -85.982407, 36.397949 ], [ -85.982708, 36.395903 ], [ -85.985046, 36.394934 ], [ -85.990417, 36.395343 ], [ -85.998215, 36.393385 ], [ -86.002267, 36.393006 ], [ -86.006425, 36.391721 ], [ -86.007672, 36.391311 ], [ -86.011622, 36.390091 ], [ -86.018515, 36.388426 ], [ -86.018029, 36.38766 ], [ -86.021166, 36.385738 ], [ -86.036052, 36.38198 ], [ -86.040759, 36.379864 ], [ -86.041372, 36.379594 ], [ -86.042645, 36.379004 ], [ -86.047819, 36.376419 ], [ -86.053976, 36.373301 ], [ -86.057938, 36.371041 ], [ -86.059973, 36.369881 ], [ -86.065762, 36.366119 ], [ -86.069371, 36.363802 ], [ -86.074062, 36.360475 ], [ -86.0809, 36.355367 ], [ -86.083741, 36.352946 ], [ -86.087993, 36.349194 ], [ -86.092701, 36.344911 ], [ -86.094692, 36.342786 ], [ -86.095461, 36.341934 ], [ -86.096321, 36.34103 ], [ -86.099781, 36.337294 ], [ -86.101179, 36.335825 ], [ -86.106304, 36.329426 ], [ -86.110847, 36.323269 ], [ -86.115365, 36.316086 ], [ -86.117752, 36.31208 ], [ -86.120437, 36.307093 ], [ -86.122725, 36.302204 ], [ -86.126152, 36.294086 ], [ -86.131986, 36.2945 ], [ -86.136803, 36.295859 ], [ -86.142554, 36.302184 ], [ -86.144659, 36.304502 ], [ -86.150426, 36.309289 ], [ -86.15224, 36.310835 ], [ -86.155546, 36.310292 ], [ -86.156139, 36.3121 ], [ -86.155776, 36.31385 ], [ -86.159645, 36.31715 ], [ -86.164045, 36.320899 ], [ -86.174463, 36.327865 ], [ -86.175016, 36.328234 ], [ -86.175916, 36.328836 ], [ -86.177011, 36.325961 ], [ -86.180825, 36.321587 ], [ -86.184277, 36.319287 ], [ -86.186203, 36.319225 ], [ -86.189251, 36.320088 ], [ -86.197593, 36.326234 ], [ -86.199587, 36.327931 ], [ -86.204069, 36.332321 ], [ -86.206404, 36.336509 ], [ -86.20656, 36.342659 ], [ -86.207752, 36.342621 ], [ -86.209252, 36.342842 ], [ -86.210505, 36.343825 ], [ -86.212355, 36.344674 ], [ -86.21533, 36.343248 ], [ -86.217884, 36.341625 ], [ -86.223078, 36.342138 ], [ -86.226996, 36.342692 ], [ -86.226251, 36.348957 ], [ -86.228669, 36.349217 ], [ -86.230096, 36.349172 ], [ -86.244456, 36.336405 ], [ -86.245715, 36.334643 ], [ -86.247123, 36.331121 ], [ -86.248322, 36.327415 ], [ -86.24775, 36.323038 ], [ -86.247391, 36.317587 ], [ -86.247399, 36.311521 ], [ -86.248042, 36.308446 ], [ -86.249275, 36.30582 ], [ -86.252546, 36.302829 ], [ -86.257999, 36.300393 ], [ -86.260942, 36.299665 ], [ -86.263446, 36.299448 ], [ -86.266136, 36.300863 ], [ -86.269869, 36.304243 ], [ -86.272664, 36.307286 ], [ -86.27347, 36.309364 ], [ -86.273072, 36.313277 ], [ -86.27258, 36.315441 ], [ -86.271176, 36.318233 ], [ -86.266212, 36.325639 ], [ -86.264643, 36.328292 ], [ -86.264578, 36.331102 ], [ -86.265761, 36.337369 ], [ -86.267291, 36.341395 ], [ -86.26913, 36.344862 ], [ -86.272764, 36.347579 ], [ -86.275903, 36.348476 ], [ -86.27911, 36.348523 ], [ -86.283256, 36.3475 ], [ -86.287291, 36.346174 ], [ -86.290883, 36.343376 ], [ -86.294477, 36.339005 ], [ -86.295987, 36.336491 ], [ -86.296429, 36.334636 ], [ -86.296613, 36.324065 ], [ -86.297198, 36.320008 ], [ -86.298289, 36.315367 ], [ -86.298452, 36.313634 ], [ -86.300075, 36.312374 ], [ -86.307046, 36.312894 ], [ -86.315952, 36.315397 ], [ -86.32074, 36.316919 ], [ -86.330452, 36.318772 ], [ -86.333865, 36.318525 ], [ -86.336409, 36.317877 ], [ -86.339858, 36.316497 ], [ -86.344832, 36.314195 ], [ -86.348547, 36.312299 ], [ -86.354816, 36.309711 ], [ -86.356661, 36.309475 ], [ -86.358539, 36.309236 ], [ -86.360512, 36.309843 ], [ -86.362023, 36.311505 ], [ -86.361626, 36.31442 ], [ -86.361281, 36.315434 ], [ -86.356287, 36.322251 ], [ -86.353223, 36.324803 ], [ -86.349405, 36.326806 ], [ -86.346839, 36.328841 ], [ -86.346094, 36.329848 ], [ -86.345651, 36.34089 ], [ -86.346517, 36.345112 ], [ -86.351025, 36.352292 ], [ -86.352971, 36.352696 ], [ -86.355366, 36.354428 ], [ -86.358691, 36.356488 ], [ -86.361323, 36.357684 ], [ -86.363902, 36.358063 ], [ -86.366388, 36.357746 ], [ -86.370409, 36.356134 ], [ -86.375705, 36.352119 ], [ -86.376888, 36.350921 ], [ -86.380816, 36.344649 ], [ -86.383992, 36.341005 ], [ -86.38624, 36.337625 ], [ -86.388208, 36.332969 ], [ -86.389728, 36.327817 ], [ -86.39044, 36.322682 ], [ -86.38912, 36.317446 ], [ -86.38916, 36.313086 ], [ -86.390778, 36.309855 ], [ -86.391289, 36.309353 ], [ -86.391863, 36.308812 ], [ -86.393113, 36.307671 ], [ -86.395583, 36.306666 ], [ -86.401068, 36.30589 ], [ -86.402791, 36.305941 ], [ -86.405004, 36.306248 ], [ -86.407812, 36.307702 ], [ -86.409961, 36.309268 ], [ -86.413166, 36.31215 ], [ -86.41544, 36.313698 ], [ -86.417304, 36.317594 ], [ -86.418552, 36.32207 ], [ -86.417712, 36.327553 ], [ -86.418392, 36.332837 ], [ -86.41884, 36.333489 ], [ -86.422552, 36.335753 ], [ -86.428008, 36.338461 ], [ -86.430937, 36.339441 ], [ -86.433665, 36.340017 ], [ -86.437184, 36.339656 ], [ -86.438225, 36.339441 ], [ -86.444737, 36.336877 ], [ -86.447305, 36.336297 ], [ -86.451721, 36.335629 ], [ -86.457073, 36.332865 ], [ -86.459414, 36.331299 ], [ -86.468031, 36.326195 ], [ -86.472606, 36.322449 ], [ -86.474093, 36.32145 ], [ -86.476967, 36.322922 ], [ -86.47873, 36.324288 ], [ -86.48004, 36.326376 ], [ -86.480517, 36.328628 ], [ -86.480294, 36.331296 ], [ -86.485392, 36.331624 ], [ -86.486312, 36.331912 ], [ -86.489935, 36.334488 ], [ -86.491555, 36.334707 ], [ -86.494799, 36.337213 ], [ -86.496144, 36.33993 ], [ -86.496206, 36.34269 ], [ -86.499202, 36.345357 ], [ -86.503853, 36.34667 ], [ -86.510417, 36.347979 ], [ -86.510553, 36.347921 ], [ -86.511791, 36.348617 ], [ -86.512518, 36.349745 ], [ -86.514805, 36.348932 ], [ -86.519971, 36.347654 ], [ -86.524411, 36.346248 ], [ -86.52469, 36.346125 ], [ -86.530432, 36.343265 ], [ -86.53805, 36.338648 ], [ -86.538135, 36.338609 ], [ -86.546178, 36.335018 ], [ -86.548521, 36.333134 ], [ -86.548754, 36.332896 ], [ -86.549538, 36.33215 ], [ -86.551592, 36.330828 ], [ -86.553601, 36.330055 ], [ -86.558118, 36.328765 ], [ -86.558348, 36.32867 ], [ -86.561919, 36.326939 ], [ -86.564373, 36.325695 ], [ -86.565115, 36.325344 ], [ -86.565206, 36.325303 ], [ -86.570949, 36.322905 ], [ -86.573262, 36.321949 ], [ -86.578476, 36.31977 ], [ -86.577889, 36.318523 ], [ -86.577685, 36.31786 ], [ -86.575876, 36.315519 ], [ -86.575706, 36.314476 ], [ -86.576562, 36.315512 ], [ -86.576996, 36.313594 ], [ -86.578891, 36.313022 ], [ -86.575018, 36.31085 ], [ -86.570284, 36.306194 ], [ -86.570191, 36.305364 ], [ -86.571354, 36.304518 ], [ -86.574945, 36.304103 ], [ -86.576326, 36.304513 ], [ -86.578558, 36.304361 ], [ -86.576778, 36.303868 ], [ -86.573632, 36.302269 ], [ -86.572992, 36.298796 ], [ -86.572424, 36.295174 ], [ -86.569432, 36.290103 ], [ -86.568642, 36.288423 ], [ -86.569079, 36.287798 ], [ -86.571733, 36.289966 ], [ -86.572306, 36.290201 ], [ -86.571287, 36.287378 ], [ -86.569816, 36.286342 ], [ -86.570254, 36.285611 ], [ -86.568982, 36.285466 ], [ -86.569167, 36.284803 ], [ -86.569554, 36.283287 ], [ -86.568192, 36.282478 ], [ -86.569123, 36.282428 ], [ -86.569801, 36.281355 ], [ -86.570905, 36.2814 ], [ -86.571975, 36.282558 ], [ -86.572325, 36.281434 ], [ -86.573334, 36.280836 ], [ -86.574615, 36.280998 ], [ -86.576609, 36.282414 ], [ -86.577863, 36.281213 ], [ -86.575768, 36.280266 ], [ -86.574179, 36.2785 ], [ -86.574851, 36.2767 ], [ -86.572625, 36.278502 ], [ -86.570165, 36.277841 ], [ -86.568977, 36.276322 ], [ -86.569106, 36.273739 ], [ -86.57011, 36.273164 ], [ -86.56956, 36.272217 ], [ -86.570279, 36.270276 ], [ -86.571943, 36.27145 ], [ -86.572785, 36.269568 ], [ -86.570922, 36.269129 ], [ -86.572114, 36.266739 ], [ -86.573464, 36.268036 ], [ -86.574447, 36.268142 ], [ -86.573282, 36.266201 ], [ -86.573885, 36.264612 ], [ -86.57494, 36.264952 ], [ -86.574584, 36.263534 ], [ -86.575873, 36.263421 ], [ -86.576042, 36.262128 ], [ -86.578187, 36.260979 ], [ -86.579161, 36.25974 ], [ -86.580241, 36.259238 ], [ -86.581205, 36.261263 ], [ -86.58258, 36.262656 ], [ -86.58142, 36.260097 ], [ -86.581629, 36.258375 ], [ -86.583112, 36.258599 ], [ -86.582166, 36.257903 ], [ -86.582786, 36.256945 ], [ -86.584067, 36.256393 ], [ -86.586135, 36.256792 ], [ -86.585081, 36.255467 ], [ -86.586512, 36.254454 ], [ -86.58711, 36.255171 ], [ -86.587908, 36.253502 ], [ -86.589995, 36.252118 ], [ -86.591891, 36.251291 ], [ -86.593071, 36.251266 ], [ -86.594464, 36.252488 ], [ -86.592856, 36.253315 ], [ -86.594742, 36.254441 ], [ -86.595613, 36.253563 ], [ -86.596322, 36.254164 ], [ -86.595643, 36.255627 ], [ -86.594427, 36.256257 ], [ -86.594421, 36.257117 ], [ -86.595549, 36.257361 ], [ -86.597662, 36.255715 ], [ -86.599143, 36.257665 ], [ -86.601384, 36.258497 ], [ -86.603093, 36.25814 ], [ -86.603983, 36.25999 ], [ -86.602037, 36.264 ], [ -86.602219, 36.264773 ], [ -86.608618, 36.260618 ], [ -86.608951, 36.259625 ], [ -86.607095, 36.260351 ], [ -86.606663, 36.259041 ], [ -86.604449, 36.257405 ], [ -86.601547, 36.252912 ], [ -86.602834, 36.253252 ], [ -86.602994, 36.252021 ], [ -86.601696, 36.252025 ], [ -86.601446, 36.249883 ], [ -86.605727, 36.24904 ], [ -86.606846, 36.248199 ], [ -86.609085, 36.248314 ], [ -86.609468, 36.251942 ], [ -86.610161, 36.250953 ], [ -86.610259, 36.249489 ], [ -86.611338, 36.248621 ], [ -86.612579, 36.248395 ], [ -86.614543, 36.250283 ], [ -86.615689, 36.250093 ], [ -86.616231, 36.249866 ], [ -86.617954, 36.250367 ], [ -86.619855, 36.251754 ], [ -86.621001, 36.251524 ], [ -86.622169, 36.252235 ], [ -86.621385, 36.254139 ], [ -86.61954, 36.255029 ], [ -86.619405, 36.256362 ], [ -86.621592, 36.255088 ], [ -86.622502, 36.256219 ], [ -86.622476, 36.254809 ], [ -86.623479, 36.252988 ], [ -86.624035, 36.252898 ], [ -86.627445, 36.254858 ], [ -86.629928, 36.256596 ], [ -86.630232, 36.257454 ], [ -86.628807, 36.258233 ], [ -86.629254, 36.259701 ], [ -86.627881, 36.261508 ], [ -86.627929, 36.263049 ], [ -86.628647, 36.262828 ], [ -86.631595, 36.258482 ], [ -86.633915, 36.260538 ], [ -86.63506, 36.262715 ], [ -86.63451, 36.262748 ], [ -86.635337, 36.264309 ], [ -86.63514, 36.265573 ], [ -86.634447, 36.265809 ], [ -86.636407, 36.267689 ], [ -86.635871, 36.268547 ], [ -86.634304, 36.266782 ], [ -86.631854, 36.266902 ], [ -86.632967, 36.267386 ], [ -86.632157, 36.269891 ], [ -86.633039, 36.270837 ], [ -86.631789, 36.272073 ], [ -86.630262, 36.272616 ], [ -86.631781, 36.273628 ], [ -86.632221, 36.276354 ], [ -86.631296, 36.277871 ], [ -86.631527, 36.278767 ], [ -86.630827, 36.279668 ], [ -86.629463, 36.279749 ], [ -86.628004, 36.278798 ], [ -86.626748, 36.278825 ], [ -86.62404, 36.277413 ], [ -86.62444, 36.278313 ], [ -86.627105, 36.280208 ], [ -86.627575, 36.280661 ], [ -86.627554, 36.280979 ], [ -86.627086, 36.281243 ], [ -86.627221, 36.281392 ], [ -86.626997, 36.281804 ], [ -86.626522, 36.282226 ], [ -86.626127, 36.282869 ], [ -86.626942, 36.283106 ], [ -86.627003, 36.283249 ], [ -86.626445, 36.284353 ], [ -86.626133, 36.284727 ], [ -86.62654, 36.284749 ], [ -86.626261, 36.285645 ], [ -86.626498, 36.285656 ], [ -86.627253, 36.284343 ], [ -86.628014, 36.283892 ], [ -86.629168, 36.283552 ], [ -86.629779, 36.282855 ], [ -86.630268, 36.282454 ], [ -86.631029, 36.282108 ], [ -86.631341, 36.282124 ], [ -86.63147, 36.28257 ], [ -86.630844, 36.283383 ], [ -86.629514, 36.283855 ], [ -86.629119, 36.284591 ], [ -86.629044, 36.285053 ], [ -86.630001, 36.286042 ], [ -86.630136, 36.286663 ], [ -86.629728, 36.28718 ], [ -86.630556, 36.287565 ], [ -86.630882, 36.288367 ], [ -86.630698, 36.288587 ], [ -86.630433, 36.2894 ], [ -86.630942, 36.289571 ], [ -86.631342, 36.290434 ], [ -86.631505, 36.289786 ], [ -86.631988, 36.289022 ], [ -86.632382, 36.288621 ], [ -86.632605, 36.289154 ], [ -86.633318, 36.289121 ], [ -86.63359, 36.288929 ], [ -86.634045, 36.289006 ], [ -86.634465, 36.289336 ], [ -86.636242, 36.291316 ], [ -86.636412, 36.291272 ], [ -86.635958, 36.290123 ], [ -86.635897, 36.289683 ], [ -86.635585, 36.289128 ], [ -86.635823, 36.288897 ], [ -86.636502, 36.288942 ], [ -86.636577, 36.288167 ], [ -86.637928, 36.288689 ], [ -86.638593, 36.289013 ], [ -86.637266, 36.300986 ], [ -86.637683, 36.300903 ], [ -86.639446, 36.300962 ], [ -86.640582, 36.301101 ], [ -86.642058, 36.301289 ], [ -86.644294, 36.301545 ], [ -86.648379, 36.301206 ], [ -86.649123, 36.301471 ], [ -86.6512, 36.302834 ], [ -86.652174, 36.303592 ], [ -86.6544, 36.306191 ], [ -86.654277, 36.306614 ], [ -86.657235, 36.307877 ], [ -86.661814, 36.308858 ], [ -86.662567, 36.308944 ], [ -86.666075, 36.309344 ], [ -86.665632, 36.311085 ], [ -86.664909, 36.312484 ], [ -86.664837, 36.312593 ], [ -86.663913, 36.313912 ], [ -86.662036, 36.315987 ], [ -86.660024, 36.317397 ], [ -86.659552, 36.318996 ], [ -86.660225, 36.320291 ], [ -86.660301, 36.321759 ], [ -86.659059, 36.323792 ], [ -86.655664, 36.325648 ], [ -86.65704, 36.328015 ], [ -86.657153, 36.328929 ], [ -86.658421, 36.329566 ], [ -86.659444, 36.329624 ], [ -86.659133, 36.33298 ], [ -86.659964, 36.333105 ], [ -86.662194, 36.332406 ], [ -86.663821, 36.332036 ], [ -86.664502, 36.331969 ], [ -86.665016, 36.332432 ], [ -86.668465, 36.333866 ], [ -86.668504, 36.333887 ], [ -86.668546, 36.333909 ], [ -86.66856, 36.333917 ], [ -86.671916, 36.332128 ], [ -86.673992, 36.332339 ], [ -86.675735, 36.331649 ], [ -86.675252, 36.335388 ], [ -86.67539, 36.337031 ], [ -86.675649, 36.340107 ], [ -86.681267, 36.339377 ], [ -86.681299, 36.33927 ], [ -86.681459, 36.338715 ], [ -86.683538, 36.337018 ], [ -86.688429, 36.335159 ], [ -86.692301, 36.334905 ], [ -86.694275, 36.333908 ], [ -86.696648, 36.330903 ], [ -86.697092, 36.330383 ], [ -86.697758, 36.329606 ], [ -86.69784, 36.329509 ], [ -86.698422, 36.328825 ], [ -86.698944, 36.32813 ], [ -86.699271, 36.327749 ], [ -86.699304, 36.327723 ], [ -86.699705, 36.327249 ], [ -86.700579, 36.32623 ], [ -86.69953, 36.325196 ], [ -86.699445, 36.323081 ], [ -86.698699, 36.320479 ], [ -86.698931, 36.319284 ], [ -86.700527, 36.31831 ], [ -86.700158, 36.317557 ], [ -86.69936, 36.316065 ], [ -86.699021, 36.314633 ], [ -86.698821, 36.312446 ], [ -86.696479, 36.310861 ], [ -86.694845, 36.307602 ], [ -86.69459, 36.307666 ], [ -86.694587, 36.307528 ], [ -86.694563, 36.307422 ], [ -86.694407, 36.306847 ], [ -86.693844, 36.30591 ], [ -86.691853, 36.302757 ], [ -86.692722, 36.302142 ], [ -86.69478, 36.300787 ], [ -86.696606, 36.299795 ], [ -86.699187, 36.296936 ], [ -86.696462, 36.293835 ], [ -86.693899, 36.291017 ], [ -86.693424, 36.288941 ], [ -86.693754, 36.28877 ], [ -86.693387, 36.288737 ], [ -86.69313, 36.287746 ], [ -86.692848, 36.286285 ], [ -86.693457, 36.286919 ], [ -86.69681, 36.286963 ], [ -86.698629, 36.284164 ], [ -86.70192, 36.281816 ], [ -86.70694, 36.27863 ], [ -86.709719, 36.276128 ], [ -86.710045, 36.273448 ], [ -86.71016, 36.272784 ], [ -86.710367, 36.271092 ], [ -86.710478, 36.270209 ], [ -86.710612, 36.269323 ], [ -86.710776, 36.267932 ], [ -86.71091, 36.266908 ], [ -86.711041, 36.265852 ], [ -86.711354, 36.264651 ], [ -86.711926, 36.263071 ], [ -86.712044, 36.262713 ], [ -86.71221, 36.262211 ], [ -86.712531, 36.261242 ], [ -86.712865, 36.260369 ], [ -86.713051, 36.259893 ], [ -86.71356, 36.258441 ], [ -86.713977, 36.257265 ], [ -86.714387, 36.256191 ], [ -86.715236, 36.255011 ], [ -86.716828, 36.253242 ], [ -86.717257, 36.252558 ], [ -86.71769, 36.25192 ], [ -86.718263, 36.251116 ], [ -86.719416, 36.249398 ], [ -86.720301, 36.248092 ], [ -86.720357, 36.24801 ], [ -86.723056, 36.248187 ], [ -86.72364, 36.248225 ], [ -86.724704, 36.248294 ], [ -86.728628, 36.248599 ], [ -86.732331, 36.248962 ], [ -86.734463, 36.249178 ], [ -86.735535, 36.249282 ], [ -86.741285, 36.250033 ], [ -86.741455, 36.250094 ], [ -86.74397, 36.247077 ], [ -86.750265, 36.241935 ], [ -86.751652, 36.240867 ], [ -86.75186, 36.240703 ], [ -86.755052, 36.238846 ], [ -86.757898, 36.237795 ], [ -86.757934, 36.237544 ], [ -86.762919, 36.235997 ], [ -86.765349, 36.234919 ], [ -86.768322, 36.233038 ], [ -86.771251, 36.23016 ], [ -86.771549, 36.23012 ], [ -86.774392, 36.225789 ], [ -86.774563, 36.224229 ], [ -86.774915, 36.21938 ], [ -86.775206, 36.216825 ], [ -86.775466, 36.214562 ], [ -86.776481, 36.206508 ], [ -86.77684, 36.201309 ], [ -86.776122, 36.196592 ], [ -86.776148, 36.195587 ], [ -86.776168, 36.194682 ], [ -86.776269, 36.192947 ], [ -86.776261, 36.190694 ], [ -86.776137, 36.187965 ], [ -86.775971, 36.186233 ], [ -86.77505, 36.182209 ], [ -86.774283, 36.180071 ], [ -86.774232, 36.179945 ], [ -86.774182, 36.179819 ], [ -86.774093, 36.179599 ], [ -86.774011, 36.179394 ], [ -86.773496, 36.178196 ], [ -86.773296, 36.177729 ], [ -86.772688, 36.176755 ], [ -86.770982, 36.174433 ], [ -86.770807, 36.174503 ], [ -86.768206, 36.171749 ], [ -86.768383, 36.171674 ], [ -86.769038, 36.171432 ], [ -86.770412, 36.170941 ], [ -86.772395, 36.170297 ], [ -86.772796, 36.170143 ], [ -86.775325, 36.169055 ], [ -86.775698, 36.168894 ], [ -86.776358, 36.168612 ], [ -86.777013, 36.168331 ], [ -86.777418, 36.168157 ], [ -86.778611, 36.167609 ], [ -86.779616, 36.167154 ], [ -86.779435, 36.166882 ], [ -86.780696, 36.166357 ], [ -86.781908, 36.165859 ], [ -86.782616, 36.165554 ], [ -86.783149, 36.165315 ], [ -86.783798, 36.165037 ], [ -86.784373, 36.16479 ], [ -86.7856, 36.164269 ], [ -86.786343, 36.163996 ], [ -86.786415, 36.163968 ], [ -86.786463, 36.163945 ], [ -86.786626, 36.163872 ], [ -86.7878, 36.163379 ], [ -86.788542, 36.163033 ], [ -86.790035, 36.162373 ], [ -86.790614, 36.162117 ], [ -86.791758, 36.161606 ], [ -86.792679, 36.1612 ], [ -86.793003, 36.16275 ], [ -86.793322, 36.164239 ], [ -86.793766, 36.164041 ], [ -86.794222, 36.165166 ], [ -86.794364, 36.165106 ], [ -86.79485, 36.164904 ], [ -86.795226, 36.165495 ], [ -86.795237, 36.165513 ], [ -86.796081, 36.166737 ], [ -86.79637, 36.167156 ], [ -86.797015, 36.168087 ], [ -86.797307, 36.168524 ], [ -86.797626, 36.169002 ], [ -86.798207, 36.169843 ], [ -86.798813, 36.170742 ], [ -86.799206, 36.171335 ], [ -86.798912, 36.171428 ], [ -86.80058, 36.172901 ], [ -86.801244, 36.174422 ], [ -86.801036, 36.17734 ], [ -86.800523, 36.180272 ], [ -86.801567, 36.180586 ], [ -86.803048, 36.180442 ], [ -86.803206, 36.180431 ], [ -86.803815, 36.180397 ], [ -86.804041, 36.180372 ], [ -86.804477, 36.180344 ], [ -86.804819, 36.180316 ], [ -86.805133, 36.180291 ], [ -86.805623, 36.180261 ], [ -86.806126, 36.180225 ], [ -86.806324, 36.180211 ], [ -86.806608, 36.180191 ], [ -86.807086, 36.180161 ], [ -86.807654, 36.180129 ], [ -86.807906, 36.180109 ], [ -86.808702, 36.180057 ], [ -86.809511, 36.180026 ], [ -86.809776, 36.180035 ], [ -86.810421, 36.180051 ], [ -86.81104, 36.180074 ], [ -86.811845, 36.180112 ], [ -86.813132, 36.180158 ], [ -86.814464, 36.180214 ], [ -86.814602, 36.18022 ], [ -86.815953, 36.180281 ], [ -86.816262, 36.180303 ], [ -86.817908, 36.180353 ], [ -86.819489, 36.180405 ], [ -86.819608, 36.180409 ], [ -86.821977, 36.180652 ], [ -86.823395, 36.180816 ], [ -86.824261, 36.180955 ], [ -86.830755, 36.18274 ], [ -86.831645, 36.182977 ], [ -86.832779, 36.178437 ], [ -86.833489, 36.17606 ], [ -86.834499, 36.173872 ], [ -86.837765, 36.168904 ], [ -86.839103, 36.167608 ], [ -86.842019, 36.166614 ], [ -86.846112, 36.166889 ], [ -86.848977, 36.167717 ], [ -86.851391, 36.168742 ], [ -86.853339, 36.169924 ], [ -86.853362, 36.169016 ], [ -86.853262, 36.166166 ], [ -86.853213, 36.164753 ], [ -86.853228, 36.164159 ], [ -86.854481, 36.164128 ], [ -86.854517, 36.164678 ], [ -86.855768, 36.164635 ], [ -86.855803, 36.165178 ], [ -86.855841, 36.165764 ], [ -86.855824, 36.166259 ], [ -86.855964, 36.166338 ], [ -86.857132, 36.166238 ], [ -86.858308, 36.165813 ], [ -86.858629, 36.165403 ], [ -86.860171, 36.166235 ], [ -86.860537, 36.165847 ], [ -86.860876, 36.165407 ], [ -86.861279, 36.164993 ], [ -86.862804, 36.165839 ], [ -86.863135, 36.165423 ], [ -86.863493, 36.165003 ], [ -86.865079, 36.165878 ], [ -86.865392, 36.165436 ], [ -86.86576, 36.165012 ], [ -86.86643, 36.164481 ], [ -86.867669, 36.164044 ], [ -86.868185, 36.163892 ], [ -86.868365, 36.163838 ], [ -86.869215, 36.163589 ], [ -86.872416, 36.162621 ], [ -86.873051, 36.16245 ], [ -86.873828, 36.16209 ], [ -86.874667, 36.161388 ], [ -86.87591, 36.159635 ], [ -86.876077, 36.15944 ], [ -86.877011, 36.158064 ], [ -86.877683, 36.155761 ], [ -86.878099, 36.154678 ], [ -86.879263, 36.154335 ], [ -86.879877, 36.153646 ], [ -86.87902, 36.152227 ], [ -86.877377, 36.150935 ], [ -86.876194, 36.150106 ], [ -86.874496, 36.149046 ], [ -86.875119, 36.148779 ], [ -86.878456, 36.146749 ], [ -86.885213, 36.141729 ], [ -86.884998, 36.141689 ], [ -86.884254, 36.14152 ], [ -86.880563, 36.139069 ], [ -86.879414, 36.137752 ], [ -86.876837, 36.136198 ], [ -86.87471, 36.135163 ], [ -86.872608, 36.133924 ], [ -86.870068, 36.132689 ], [ -86.868459, 36.131083 ], [ -86.8698, 36.12987 ], [ -86.873271, 36.129394 ], [ -86.873647, 36.128702 ], [ -86.873982, 36.126409 ], [ -86.8721, 36.124068 ], [ -86.871944, 36.122902 ], [ -86.872851, 36.121556 ], [ -86.874494, 36.120119 ], [ -86.875927, 36.118611 ], [ -86.876494, 36.117259 ], [ -86.873248, 36.116942 ], [ -86.87058, 36.116501 ], [ -86.868334, 36.116143 ], [ -86.862788, 36.115289 ], [ -86.861625, 36.115074 ], [ -86.858472, 36.117399 ], [ -86.855582, 36.11952 ], [ -86.8552, 36.119426 ], [ -86.854941, 36.119608 ], [ -86.85132, 36.122313 ], [ -86.850189, 36.123134 ], [ -86.849643, 36.12356 ], [ -86.847638, 36.124985 ], [ -86.846494, 36.125824 ], [ -86.84568, 36.126367 ], [ -86.843884, 36.127573 ], [ -86.841646, 36.128767 ], [ -86.838656, 36.130016 ], [ -86.838481, 36.130072 ], [ -86.837784, 36.130308 ], [ -86.83679, 36.130643 ], [ -86.835617, 36.131017 ], [ -86.834575, 36.131354 ], [ -86.83432, 36.131431 ], [ -86.833558, 36.131652 ], [ -86.831516, 36.132329 ], [ -86.83069, 36.132634 ], [ -86.829424, 36.133088 ], [ -86.828289, 36.133495 ], [ -86.827717, 36.133729 ], [ -86.825812, 36.134384 ], [ -86.825283, 36.134577 ], [ -86.825066, 36.134657 ], [ -86.823548, 36.13531 ], [ -86.821594, 36.136896 ], [ -86.819409, 36.133462 ], [ -86.816672, 36.129353 ], [ -86.816625, 36.12976 ], [ -86.814209, 36.126079 ], [ -86.812642, 36.124633 ], [ -86.810511, 36.123957 ], [ -86.806739, 36.123216 ], [ -86.804081, 36.121886 ], [ -86.800594, 36.118142 ], [ -86.798196, 36.116386 ], [ -86.795783, 36.116124 ], [ -86.79171, 36.116334 ], [ -86.791793, 36.116073 ], [ -86.786848, 36.115973 ], [ -86.78343, 36.115831 ], [ -86.774851, 36.115706 ], [ -86.773785, 36.115839 ], [ -86.773427, 36.115894 ], [ -86.772114, 36.112223 ], [ -86.771777, 36.112199 ], [ -86.770697, 36.112112 ], [ -86.769045, 36.11228 ], [ -86.768018, 36.112395 ], [ -86.767018, 36.112333 ], [ -86.762922, 36.111929 ], [ -86.759308, 36.111579 ], [ -86.758005, 36.111442 ], [ -86.755232, 36.111164 ], [ -86.754468, 36.111082 ], [ -86.753504, 36.111012 ], [ -86.75172, 36.1112 ], [ -86.751541, 36.111225 ], [ -86.750988, 36.111282 ], [ -86.750945, 36.111285 ], [ -86.750888, 36.111289 ], [ -86.749959, 36.111239 ], [ -86.748887, 36.111173 ], [ -86.748728, 36.112519 ], [ -86.748203, 36.112488 ], [ -86.747502, 36.112561 ], [ -86.746907, 36.112627 ], [ -86.746167, 36.112713 ], [ -86.745218, 36.110942 ], [ -86.745905, 36.110967 ], [ -86.746801, 36.11103 ], [ -86.747361, 36.111059 ], [ -86.747422, 36.110135 ], [ -86.747478, 36.108776 ], [ -86.745536, 36.108563 ], [ -86.744074, 36.108703 ], [ -86.740962, 36.108642 ], [ -86.740845, 36.109631 ], [ -86.740732, 36.110561 ], [ -86.735922, 36.110077 ], [ -86.734605, 36.109933 ], [ -86.733525, 36.109832 ], [ -86.732161, 36.109707 ], [ -86.731089, 36.109714 ], [ -86.731083, 36.110569 ], [ -86.730565, 36.111081 ], [ -86.729605, 36.111058 ], [ -86.727324, 36.112006 ], [ -86.726409, 36.113105 ], [ -86.727713, 36.114568 ], [ -86.725912, 36.116719 ], [ -86.725475, 36.116567 ], [ -86.725267, 36.116475 ], [ -86.723516, 36.115937 ], [ -86.721827, 36.115432 ], [ -86.720458, 36.115003 ], [ -86.719563, 36.114859 ], [ -86.71924, 36.116735 ], [ -86.719066, 36.117426 ], [ -86.71898, 36.117696 ], [ -86.718634, 36.118871 ], [ -86.718013, 36.120975 ], [ -86.717619, 36.122331 ], [ -86.717029, 36.123561 ], [ -86.714825, 36.124735 ], [ -86.713362, 36.125489 ], [ -86.711092, 36.126708 ], [ -86.714032, 36.128971 ], [ -86.716871, 36.131189 ], [ -86.717919, 36.131897 ], [ -86.720965, 36.133102 ], [ -86.72256, 36.134026 ], [ -86.725044, 36.135803 ], [ -86.726761, 36.136815 ], [ -86.727129, 36.137002 ], [ -86.727133, 36.139054 ], [ -86.726446, 36.139861 ], [ -86.722507, 36.140209 ], [ -86.714397, 36.141549 ], [ -86.710232, 36.142254 ], [ -86.700766, 36.143787 ], [ -86.697454, 36.144183 ], [ -86.697251, 36.144349 ], [ -86.696993, 36.144372 ], [ -86.692838, 36.144257 ], [ -86.685015, 36.143106 ], [ -86.677137, 36.142136 ], [ -86.666647, 36.141402 ], [ -86.666423, 36.141386 ], [ -86.660587, 36.141035 ], [ -86.658041, 36.141076 ], [ -86.655619, 36.141366 ], [ -86.650441, 36.142941 ], [ -86.648932, 36.143691 ], [ -86.638598, 36.150092 ], [ -86.638611, 36.149794 ], [ -86.631288, 36.154342 ], [ -86.629091, 36.155699 ], [ -86.621241, 36.160571 ], [ -86.614587, 36.16469 ], [ -86.610347, 36.167331 ], [ -86.608041, 36.168444 ], [ -86.606692, 36.168982 ], [ -86.604746, 36.169536 ], [ -86.603579, 36.169803 ], [ -86.601298, 36.170098 ], [ -86.599183, 36.170191 ], [ -86.585372, 36.16954 ], [ -86.571162, 36.168849 ], [ -86.567917, 36.16869 ], [ -86.567688, 36.168312 ], [ -86.564859, 36.163649 ], [ -86.563296, 36.160373 ], [ -86.558862, 36.151301 ], [ -86.555759, 36.145381 ], [ -86.552559, 36.14515 ], [ -86.552683, 36.144568 ], [ -86.550937, 36.144315 ], [ -86.551254, 36.143262 ], [ -86.552285, 36.143211 ], [ -86.553083, 36.14325 ], [ -86.553484, 36.143307 ], [ -86.553856, 36.143359 ], [ -86.554563, 36.143458 ], [ -86.55458, 36.143461 ], [ -86.555275, 36.143521 ], [ -86.555323, 36.143212 ], [ -86.555406, 36.143217 ], [ -86.555735, 36.141344 ], [ -86.556865, 36.13496 ], [ -86.556609, 36.134928 ], [ -86.55473, 36.133886 ], [ -86.554138, 36.134191 ], [ -86.554398, 36.135755 ], [ -86.553145, 36.135814 ], [ -86.549545, 36.137823 ], [ -86.546957, 36.137054 ], [ -86.54272, 36.140594 ], [ -86.540291, 36.138853 ], [ -86.53996, 36.136733 ], [ -86.538597, 36.135395 ], [ -86.537272, 36.136887 ], [ -86.535789, 36.138513 ], [ -86.533649, 36.137501 ], [ -86.533354, 36.13736 ], [ -86.533363, 36.137389 ], [ -86.533381, 36.137446 ], [ -86.533396, 36.137504 ], [ -86.533418, 36.137603 ], [ -86.53343, 36.137679 ], [ -86.533447, 36.137792 ], [ -86.533443, 36.137902 ], [ -86.53342, 36.137982 ], [ -86.533353, 36.138095 ], [ -86.533297, 36.138153 ], [ -86.533228, 36.138206 ], [ -86.533144, 36.138263 ], [ -86.533007, 36.138366 ], [ -86.532899, 36.138436 ], [ -86.532839, 36.138472 ], [ -86.532513, 36.138439 ], [ -86.528438, 36.138009 ], [ -86.527841, 36.140769 ], [ -86.526049, 36.139619 ], [ -86.525559, 36.13854 ], [ -86.526492, 36.137797 ], [ -86.527391, 36.134585 ], [ -86.525789, 36.134386 ], [ -86.526437, 36.126479 ], [ -86.528868, 36.126704 ], [ -86.529688, 36.121505 ], [ -86.529718, 36.121318 ], [ -86.531183, 36.112049 ], [ -86.53529, 36.112496 ], [ -86.535634, 36.110104 ], [ -86.535943, 36.108166 ], [ -86.527737, 36.107167 ], [ -86.523355, 36.106633 ], [ -86.519566, 36.103831 ], [ -86.515589, 36.10061 ], [ -86.512171, 36.098306 ], [ -86.510366, 36.097077 ], [ -86.502285, 36.091754 ], [ -86.492966, 36.086031 ], [ -86.478663, 36.076517 ], [ -86.476778, 36.075255 ], [ -86.472, 36.072079 ], [ -86.471848, 36.072515 ], [ -86.469118, 36.072157 ], [ -86.469293, 36.070865 ], [ -86.463125, 36.070244 ], [ -86.463496, 36.068676 ], [ -86.452016, 36.062697 ], [ -86.452081, 36.06256 ], [ -86.442217, 36.057074 ], [ -86.437304, 36.054036 ], [ -86.43828, 36.051776 ], [ -86.439792, 36.051408 ], [ -86.43628, 36.05082 ], [ -86.435008, 36.049888 ], [ -86.433592, 36.04966 ], [ -86.432544, 36.051016 ], [ -86.43103, 36.050066 ], [ -86.43076, 36.049897 ], [ -86.430403, 36.049673 ], [ -86.427097, 36.047608 ], [ -86.426729, 36.047403 ], [ -86.418092, 36.041961 ], [ -86.417277, 36.04156 ], [ -86.417189, 36.041517 ], [ -86.413529, 36.039707 ], [ -86.400306, 36.033469 ], [ -86.39512, 36.03103 ], [ -86.394136, 36.036448 ], [ -86.393772, 36.03641 ], [ -86.382528, 36.035251 ], [ -86.383181, 36.030261 ], [ -86.383847, 36.026697 ], [ -86.388359, 36.027193 ], [ -86.385745, 36.02371 ], [ -86.376999, 36.012043 ], [ -86.375851, 36.012813 ], [ -86.374909, 36.014813 ], [ -86.373951, 36.018007 ], [ -86.372267, 36.018821 ], [ -86.371232, 36.018822 ], [ -86.36994, 36.0187 ], [ -86.367165, 36.017674 ], [ -86.366695, 36.016816 ], [ -86.366529, 36.016428 ], [ -86.365824, 36.015027 ], [ -86.364372, 36.014319 ], [ -86.364685, 36.012494 ], [ -86.364882, 36.010586 ], [ -86.364201, 36.010172 ], [ -86.353137, 36.003798 ], [ -86.35293, 36.003679 ], [ -86.346266, 36.000062 ], [ -86.339812, 35.995329 ], [ -86.326252, 35.985008 ], [ -86.324123, 35.987208 ], [ -86.323162, 35.98655 ], [ -86.322555, 35.987348 ], [ -86.319457, 35.985965 ], [ -86.317888, 35.986736 ], [ -86.309967, 35.986146 ], [ -86.311036, 35.980622 ], [ -86.310954, 35.980507 ], [ -86.310441, 35.98086 ], [ -86.309725, 35.981176 ], [ -86.310363, 35.978563 ], [ -86.287112, 35.974985 ], [ -86.287596, 35.972695 ], [ -86.256786, 35.968469 ], [ -86.256873, 35.9676 ], [ -86.255957, 35.967369 ], [ -86.255838, 35.968322 ], [ -86.250608, 35.967681 ], [ -86.251731, 35.961141 ], [ -86.246444, 35.960245 ], [ -86.23776, 35.959424 ], [ -86.236949, 35.963285 ], [ -86.23069, 35.963091 ], [ -86.22516, 35.96292 ], [ -86.224483, 35.964607 ], [ -86.223219, 35.965107 ], [ -86.223369, 35.968211 ], [ -86.222588, 35.968171 ], [ -86.222995, 35.969276 ], [ -86.217565, 35.969303 ], [ -86.216868, 35.969366 ], [ -86.216909, 35.967654 ], [ -86.209846, 35.966952 ], [ -86.210327, 35.962945 ], [ -86.205534, 35.962562 ], [ -86.202505, 35.962318 ], [ -86.202435, 35.963415 ], [ -86.195231, 35.962879 ], [ -86.185922, 35.962184 ], [ -86.186495, 35.957877 ], [ -86.176951, 35.957508 ], [ -86.170476, 35.957262 ], [ -86.170358, 35.958116 ], [ -86.175286, 35.958931 ], [ -86.175406, 35.960348 ], [ -86.173266, 35.960477 ], [ -86.169351, 35.959721 ], [ -86.167774, 35.958828 ], [ -86.16774, 35.960281 ], [ -86.165062, 35.960143 ], [ -86.165347, 35.96185 ], [ -86.164953, 35.963522 ], [ -86.161094, 35.963214 ], [ -86.161625, 35.959235 ], [ -86.16126, 35.956751 ], [ -86.156601, 35.956524 ], [ -86.156612, 35.954549 ], [ -86.153214, 35.954399 ], [ -86.151545, 35.958608 ], [ -86.154845, 35.960034 ], [ -86.154505, 35.963097 ], [ -86.149792, 35.962604 ], [ -86.14986, 35.962257 ], [ -86.139529, 35.961273 ], [ -86.125008, 35.959845 ], [ -86.119514, 35.959163 ], [ -86.095732, 35.960886 ], [ -86.09508, 35.965451 ], [ -86.091925, 35.965214 ], [ -86.091491, 35.968029 ], [ -86.090502, 35.974451 ], [ -86.087485, 35.974077 ], [ -86.088323, 35.96721 ], [ -86.088348, 35.96699 ], [ -86.085903, 35.966125 ], [ -86.083448, 35.965674 ], [ -86.083421, 35.964969 ], [ -86.078136, 35.964943 ], [ -86.076427, 35.964935 ], [ -86.074994, 35.964928 ], [ -86.022675, 35.964679 ], [ -86.014849, 35.96106 ], [ -85.999988, 35.954023 ], [ -85.997389, 35.952983 ], [ -85.99721, 35.952926 ], [ -85.994626, 35.950945 ], [ -85.992132, 35.948946 ], [ -85.979989, 35.937241 ], [ -85.962001, 35.919903 ], [ -85.953498, 35.911707 ], [ -85.945177, 35.903683 ], [ -85.943961, 35.902511 ], [ -85.938462, 35.89794 ], [ -85.932373, 35.892899 ], [ -85.930697, 35.891504 ], [ -85.925497, 35.887154 ], [ -85.92524, 35.886944 ], [ -85.923493, 35.885486 ], [ -85.922548, 35.884709 ], [ -85.91612, 35.879254 ], [ -85.909321, 35.873562 ], [ -85.906757, 35.870929 ], [ -85.897502, 35.859618 ], [ -85.893909, 35.855596 ], [ -85.892437, 35.859093 ], [ -85.89107, 35.858689 ], [ -85.89062, 35.857544 ], [ -85.88921, 35.857543 ], [ -85.88923, 35.854176 ], [ -85.890631, 35.852794 ], [ -85.893524, 35.849938 ], [ -85.896166, 35.851135 ], [ -85.896793, 35.848881 ], [ -85.897178, 35.846822 ], [ -85.895294, 35.846119 ], [ -85.894269, 35.844095 ], [ -85.891741, 35.843584 ], [ -85.889589, 35.842771 ], [ -85.885768, 35.84283 ], [ -85.885156, 35.839658 ], [ -85.879803, 35.839224 ], [ -85.873387, 35.840425 ], [ -85.873391, 35.843897 ], [ -85.875885, 35.844497 ], [ -85.87588, 35.845208 ], [ -85.875877, 35.845776 ], [ -85.873162, 35.845818 ], [ -85.872935, 35.846447 ], [ -85.867353, 35.846346 ], [ -85.867485, 35.845 ], [ -85.866665, 35.845066 ], [ -85.863939, 35.844785 ], [ -85.863784, 35.846158 ], [ -85.859038, 35.846684 ], [ -85.846224, 35.845475 ], [ -85.846601, 35.840966 ], [ -85.842943, 35.840419 ], [ -85.842506, 35.843896 ], [ -85.842398, 35.845043 ], [ -85.842082, 35.846912 ], [ -85.832226, 35.84714 ], [ -85.824411, 35.847381 ], [ -85.824402, 35.846816 ], [ -85.820671, 35.84649 ], [ -85.818905, 35.846317 ], [ -85.813624, 35.845816 ], [ -85.811329, 35.848613 ], [ -85.811546, 35.850179 ], [ -85.806994, 35.850403 ], [ -85.802544, 35.850636 ], [ -85.802276, 35.850659 ], [ -85.796925, 35.851131 ], [ -85.793851, 35.85091 ], [ -85.792096, 35.85074 ], [ -85.791923, 35.852162 ], [ -85.78957, 35.852051 ], [ -85.788523, 35.852002 ], [ -85.788657, 35.846536 ], [ -85.787115, 35.846407 ], [ -85.787534, 35.843036 ], [ -85.783941, 35.842862 ], [ -85.77421, 35.842548 ], [ -85.776027, 35.845536 ], [ -85.767718, 35.848737 ], [ -85.766206, 35.848691 ], [ -85.76249, 35.848617 ], [ -85.761318, 35.848606 ], [ -85.757051, 35.848519 ], [ -85.757206, 35.846746 ], [ -85.757341, 35.84518 ], [ -85.751467, 35.84524 ], [ -85.751597, 35.847759 ], [ -85.751785, 35.850027 ], [ -85.747257, 35.849369 ], [ -85.744804, 35.84857 ], [ -85.734988, 35.844055 ], [ -85.734501, 35.843826 ], [ -85.719645, 35.8428 ], [ -85.714723, 35.838753 ], [ -85.713633, 35.838515 ], [ -85.704664, 35.836082 ], [ -85.687415, 35.832512 ], [ -85.685095, 35.83196 ], [ -85.682095, 35.831254 ], [ -85.682886, 35.829359 ], [ -85.682602, 35.827246 ], [ -85.671427, 35.820708 ], [ -85.665561, 35.820019 ], [ -85.663609, 35.819589 ], [ -85.653072, 35.816431 ], [ -85.649756, 35.816203 ], [ -85.646702, 35.817007 ], [ -85.641655, 35.816717 ], [ -85.639917, 35.815191 ], [ -85.635737, 35.813353 ], [ -85.634804, 35.810455 ], [ -85.634903, 35.8094 ], [ -85.634845, 35.808616 ], [ -85.634035, 35.807825 ], [ -85.633768, 35.807215 ], [ -85.633384, 35.806969 ], [ -85.632593, 35.806675 ], [ -85.631601, 35.80613 ], [ -85.630725, 35.805773 ], [ -85.630004, 35.805248 ], [ -85.628146, 35.804737 ], [ -85.62498, 35.803632 ], [ -85.622177, 35.801803 ], [ -85.6203, 35.801247 ], [ -85.618425, 35.801086 ], [ -85.615385, 35.801726 ], [ -85.610759, 35.804558 ], [ -85.608582, 35.804265 ], [ -85.607429, 35.802499 ], [ -85.606537, 35.798904 ], [ -85.604374, 35.796275 ], [ -85.602876, 35.794996 ], [ -85.602083, 35.794446 ], [ -85.600215, 35.793888 ], [ -85.597997, 35.793843 ], [ -85.59727, 35.794253 ], [ -85.597141, 35.794948 ], [ -85.597309, 35.79644 ], [ -85.598257, 35.798555 ], [ -85.599603, 35.800731 ], [ -85.600815, 35.802602 ], [ -85.601521, 35.80434 ], [ -85.601422, 35.805786 ], [ -85.601085, 35.806515 ], [ -85.600294, 35.806627 ], [ -85.599215, 35.806588 ], [ -85.598389, 35.806304 ], [ -85.597476, 35.805335 ], [ -85.596269, 35.803884 ], [ -85.594906, 35.802596 ], [ -85.592931, 35.80145 ], [ -85.590949, 35.801241 ], [ -85.589647, 35.801615 ], [ -85.588359, 35.80232 ], [ -85.587678, 35.803174 ], [ -85.58705, 35.804366 ], [ -85.5864, 35.805412 ], [ -85.585629, 35.806257 ], [ -85.58436, 35.806817 ], [ -85.582757, 35.806863 ], [ -85.57833, 35.806682 ], [ -85.575875, 35.806726 ], [ -85.571577, 35.806576 ], [ -85.570593, 35.806342 ], [ -85.567935, 35.804597 ], [ -85.567729, 35.804462 ], [ -85.563979, 35.801529 ], [ -85.559616, 35.798618 ], [ -85.556712, 35.797479 ], [ -85.555145, 35.796459 ], [ -85.553406, 35.795908 ], [ -85.550841, 35.796494 ], [ -85.549227, 35.798041 ], [ -85.5488, 35.801215 ], [ -85.547855, 35.802389 ], [ -85.546309, 35.8021 ], [ -85.545439, 35.800871 ], [ -85.544728, 35.798158 ], [ -85.543209, 35.797325 ], [ -85.540782, 35.797678 ], [ -85.536977, 35.799263 ], [ -85.535043, 35.799352 ], [ -85.531663, 35.797281 ], [ -85.528395, 35.793557 ], [ -85.526677, 35.792413 ], [ -85.524109, 35.791531 ], [ -85.521336, 35.79168 ], [ -85.519775, 35.792077 ], [ -85.519043, 35.793735 ], [ -85.521907, 35.795973 ], [ -85.522205, 35.797039 ], [ -85.521482, 35.800213 ], [ -85.521607, 35.801277 ], [ -85.523032, 35.802905 ], [ -85.526451, 35.804847 ], [ -85.527045, 35.805858 ], [ -85.526581, 35.807283 ], [ -85.520581, 35.81312 ], [ -85.518761, 35.815169 ], [ -85.517695, 35.81565 ], [ -85.517326, 35.815815 ], [ -85.512614, 35.815018 ], [ -85.508458, 35.813113 ], [ -85.505064, 35.811279 ], [ -85.500019, 35.807292 ], [ -85.499606, 35.806699 ], [ -85.499398, 35.806515 ], [ -85.498875, 35.806426 ], [ -85.498389, 35.80641 ], [ -85.498026, 35.806458 ], [ -85.497769, 35.806755 ], [ -85.49774, 35.80683 ], [ -85.497644, 35.807109 ], [ -85.497518, 35.8075 ], [ -85.4975, 35.807555 ], [ -85.497508, 35.808128 ], [ -85.497544, 35.808585 ], [ -85.497758, 35.809088 ], [ -85.497823, 35.809238 ], [ -85.49792, 35.809941 ], [ -85.498032, 35.810292 ], [ -85.49806, 35.810383 ], [ -85.498009, 35.810685 ], [ -85.497871, 35.81083 ], [ -85.497729, 35.810979 ], [ -85.497461, 35.811376 ], [ -85.497428, 35.811422 ], [ -85.497027, 35.811883 ], [ -85.496533, 35.812249 ], [ -85.495626, 35.812632 ], [ -85.49499, 35.813035 ], [ -85.494354, 35.813231 ], [ -85.492684, 35.813739 ], [ -85.491599, 35.814084 ], [ -85.490901, 35.81426 ], [ -85.49012, 35.81445 ], [ -85.489088, 35.814648 ], [ -85.488228, 35.814873 ], [ -85.487486, 35.815127 ], [ -85.487339, 35.815178 ], [ -85.486721, 35.815522 ], [ -85.486647, 35.815574 ], [ -85.486227, 35.815882 ], [ -85.485957, 35.816177 ], [ -85.485795, 35.816356 ], [ -85.485709, 35.816462 ], [ -85.485338, 35.816928 ], [ -85.48532, 35.816943 ], [ -85.484692, 35.817429 ], [ -85.484245, 35.817898 ], [ -85.483841, 35.818195 ], [ -85.482976, 35.818488 ], [ -85.482867, 35.818524 ], [ -85.482684, 35.818615 ], [ -85.482312, 35.818801 ], [ -85.48136, 35.819064 ], [ -85.479951, 35.819616 ], [ -85.478693, 35.820377 ], [ -85.476855, 35.821626 ], [ -85.475223, 35.822405 ], [ -85.474213, 35.822656 ], [ -85.472943, 35.822126 ], [ -85.472167, 35.821353 ], [ -85.471867, 35.820924 ], [ -85.471202, 35.819633 ], [ -85.470655, 35.818136 ], [ -85.470478, 35.817064 ], [ -85.469995, 35.816122 ], [ -85.46962, 35.815727 ], [ -85.468633, 35.81509 ], [ -85.467525, 35.814703 ], [ -85.465815, 35.814557 ], [ -85.464748, 35.814726 ], [ -85.464154, 35.815161 ], [ -85.463847, 35.81612 ], [ -85.463903, 35.816683 ], [ -85.46422, 35.817634 ], [ -85.464959, 35.818795 ], [ -85.465362, 35.819737 ], [ -85.465253, 35.820421 ], [ -85.465034, 35.821001 ], [ -85.464391, 35.821783 ], [ -85.462996, 35.822209 ], [ -85.461553, 35.822028 ], [ -85.461157, 35.821957 ], [ -85.45534, 35.820474 ], [ -85.451693, 35.820803 ], [ -85.44936, 35.821559 ], [ -85.447454, 35.82097 ], [ -85.44248, 35.817495 ], [ -85.439527, 35.815866 ], [ -85.438148, 35.815567 ], [ -85.436157, 35.816351 ], [ -85.433652, 35.818577 ], [ -85.431676, 35.818818 ], [ -85.42895, 35.818155 ], [ -85.424536, 35.816259 ], [ -85.424327, 35.815891 ], [ -85.423179, 35.814691 ], [ -85.420862, 35.815306 ], [ -85.42046, 35.813991 ], [ -85.374971, 35.799771 ], [ -85.363021, 35.79689 ], [ -85.362267, 35.796774 ], [ -85.350566, 35.799792 ], [ -85.338413, 35.802926 ], [ -85.334577, 35.803916 ], [ -85.320371, 35.80758 ], [ -85.311343, 35.80991 ], [ -85.31038, 35.810165 ], [ -85.308847, 35.810558 ], [ -85.295159, 35.814085 ], [ -85.277093, 35.818752 ], [ -85.274379, 35.81965 ], [ -85.265065, 35.82217 ], [ -85.265651, 35.820255 ], [ -85.268059, 35.816999 ], [ -85.270425, 35.814769 ], [ -85.2707, 35.813586 ], [ -85.271923, 35.812129 ], [ -85.273904, 35.811084 ], [ -85.274601, 35.81011 ], [ -85.276735, 35.809984 ], [ -85.27749, 35.809077 ], [ -85.27735, 35.806992 ], [ -85.277535, 35.805095 ], [ -85.276982, 35.804129 ], [ -85.276984, 35.80179 ], [ -85.276126, 35.799069 ], [ -85.274029, 35.797861 ], [ -85.271727, 35.798344 ], [ -85.268453, 35.79697 ], [ -85.268166, 35.796157 ], [ -85.269359, 35.793388 ], [ -85.273288, 35.787948 ], [ -85.272664, 35.787718 ], [ -85.273533, 35.787037 ], [ -85.274319, 35.784433 ], [ -85.27296, 35.783168 ], [ -85.270213, 35.78227 ], [ -85.269086, 35.780457 ], [ -85.268056, 35.779556 ], [ -85.266535, 35.780011 ], [ -85.26294, 35.778764 ], [ -85.260971, 35.779112 ], [ -85.259354, 35.779971 ], [ -85.257667, 35.781476 ], [ -85.256846, 35.780818 ], [ -85.256585, 35.779418 ], [ -85.255304, 35.777754 ], [ -85.258988, 35.777206 ], [ -85.259497, 35.775945 ], [ -85.2586, 35.774874 ], [ -85.25678, 35.775167 ], [ -85.255871, 35.774128 ], [ -85.257842, 35.771483 ], [ -85.257286, 35.770302 ], [ -85.256125, 35.768277 ], [ -85.25429, 35.768218 ], [ -85.253518, 35.766927 ], [ -85.254062, 35.765611 ], [ -85.249943, 35.765516 ], [ -85.249474, 35.765715 ], [ -85.246768, 35.765798 ], [ -85.235559, 35.766139 ], [ -85.226503, 35.766419 ], [ -85.193072, 35.767443 ], [ -85.187667, 35.767609 ], [ -85.178052, 35.767906 ], [ -85.165357, 35.768288 ], [ -85.165106, 35.768298 ], [ -85.162323, 35.768386 ], [ -85.158478, 35.76851 ], [ -85.148912, 35.768796 ], [ -85.142743, 35.769104 ], [ -85.133331, 35.769284 ], [ -85.122979, 35.769647 ], [ -85.110437, 35.769924 ], [ -85.103406, 35.769921 ], [ -85.10201, 35.76918 ], [ -85.093558, 35.764702 ], [ -85.093533, 35.76469 ], [ -85.091892, 35.763816 ], [ -85.091277, 35.763491 ], [ -85.090136, 35.762894 ], [ -85.086841, 35.761399 ], [ -85.08631, 35.761158 ], [ -85.083814, 35.760538 ], [ -85.073831, 35.760472 ], [ -85.061842, 35.767407 ], [ -85.061126, 35.76763 ], [ -85.056856, 35.767597 ], [ -85.052969, 35.76757 ], [ -85.0515, 35.767562 ], [ -85.048738, 35.767466 ], [ -85.042703, 35.77078 ], [ -85.04114, 35.77177 ], [ -85.040067, 35.770194 ], [ -85.032616, 35.75928 ], [ -85.032122, 35.75599 ], [ -85.034294, 35.75268 ], [ -85.034135, 35.752149 ], [ -85.032567, 35.746954 ], [ -85.031268, 35.746725 ], [ -85.028888, 35.746302 ], [ -85.026129, 35.746888 ], [ -85.01473, 35.749446 ], [ -85.010891, 35.75031 ], [ -84.999944, 35.75301 ], [ -84.993885, 35.754043 ], [ -84.991756, 35.754513 ], [ -84.981205, 35.75686 ], [ -84.980258, 35.757071 ], [ -84.948942, 35.76403 ], [ -84.938299, 35.766394 ], [ -84.936486, 35.766804 ], [ -84.931038, 35.768012 ], [ -84.930803, 35.768062 ], [ -84.930098, 35.768214 ], [ -84.929864, 35.768265 ], [ -84.928536, 35.768549 ], [ -84.928401, 35.766556 ], [ -84.926086, 35.766433 ], [ -84.926086, 35.765572 ], [ -84.924243, 35.765203 ], [ -84.922536, 35.763726 ], [ -84.921614, 35.76471 ], [ -84.921614, 35.765694 ], [ -84.918986, 35.765202 ], [ -84.920673, 35.76471 ], [ -84.920538, 35.761881 ], [ -84.917641, 35.761502 ], [ -84.916062, 35.761939 ], [ -84.910705, 35.767699 ], [ -84.905133, 35.773738 ], [ -84.895335, 35.775913 ], [ -84.893212, 35.776383 ], [ -84.88675, 35.77782 ], [ -84.882387, 35.778793 ], [ -84.882101, 35.777385 ], [ -84.879944, 35.774922 ], [ -84.878011, 35.773163 ], [ -84.878915, 35.769998 ], [ -84.876493, 35.769048 ], [ -84.875865, 35.769188 ], [ -84.874892, 35.767838 ], [ -84.873301, 35.766645 ], [ -84.874464, 35.768231 ], [ -84.873683, 35.769572 ], [ -84.869867, 35.768991 ], [ -84.867441, 35.76997 ], [ -84.865211, 35.772685 ], [ -84.862522, 35.773395 ], [ -84.861983, 35.773934 ], [ -84.860276, 35.771303 ], [ -84.858205, 35.769963 ], [ -84.855677, 35.768953 ], [ -84.852534, 35.767097 ], [ -84.85097, 35.765785 ], [ -84.849, 35.76306 ], [ -84.847173, 35.761067 ], [ -84.844441, 35.760942 ], [ -84.841899, 35.759541 ], [ -84.84124, 35.758714 ], [ -84.840804, 35.757344 ], [ -84.838381, 35.751868 ], [ -84.837219, 35.752508 ], [ -84.835091, 35.752546 ], [ -84.835839, 35.750763 ], [ -84.837444, 35.749095 ], [ -84.839327, 35.748842 ], [ -84.839776, 35.747195 ], [ -84.83945, 35.744306 ], [ -84.838471, 35.744058 ], [ -84.835896, 35.744823 ], [ -84.833854, 35.746712 ], [ -84.83188, 35.746766 ], [ -84.830009, 35.747959 ], [ -84.828845, 35.747937 ], [ -84.825615, 35.750198 ], [ -84.825209, 35.750801 ], [ -84.826434, 35.754973 ], [ -84.826158, 35.756066 ], [ -84.824328, 35.757451 ], [ -84.820921, 35.758409 ], [ -84.817905, 35.758934 ], [ -84.816354, 35.760629 ], [ -84.816476, 35.76137 ], [ -84.819327, 35.763017 ], [ -84.821152, 35.764746 ], [ -84.821537, 35.766112 ], [ -84.821219, 35.768107 ], [ -84.819528, 35.770355 ], [ -84.819421, 35.7712 ], [ -84.820304, 35.772677 ], [ -84.819516, 35.773237 ], [ -84.816573, 35.773622 ], [ -84.814282, 35.776143 ], [ -84.813743, 35.777027 ], [ -84.813545, 35.779417 ], [ -84.811609, 35.784212 ], [ -84.809707, 35.786287 ], [ -84.808942, 35.787575 ], [ -84.807683, 35.791636 ], [ -84.807769, 35.79266 ], [ -84.809422, 35.794327 ], [ -84.8104, 35.796058 ], [ -84.811709, 35.797068 ], [ -84.81256, 35.796405 ], [ -84.814164, 35.796247 ], [ -84.81922, 35.797623 ], [ -84.822202, 35.799551 ], [ -84.824213, 35.799304 ], [ -84.827174, 35.800841 ], [ -84.828293, 35.800484 ], [ -84.830074, 35.801071 ], [ -84.832758, 35.802637 ], [ -84.833824, 35.804417 ], [ -84.835141, 35.804699 ], [ -84.831938, 35.806456 ], [ -84.81464, 35.815935 ], [ -84.797941, 35.825039 ], [ -84.79783, 35.825151 ], [ -84.789924, 35.825077 ], [ -84.781901, 35.825 ], [ -84.781191, 35.826242 ], [ -84.779774, 35.826863 ], [ -84.77714, 35.82646 ], [ -84.776059, 35.826755 ], [ -84.773347, 35.828755 ], [ -84.770412, 35.829596 ], [ -84.768195, 35.831002 ], [ -84.766462, 35.833195 ], [ -84.763687, 35.833686 ], [ -84.76281, 35.835291 ], [ -84.762842, 35.83645 ], [ -84.764279, 35.836788 ], [ -84.764844, 35.838426 ], [ -84.762016, 35.838826 ], [ -84.760991, 35.840951 ], [ -84.758774, 35.841765 ], [ -84.758051, 35.843015 ], [ -84.756563, 35.843492 ], [ -84.754873, 35.842105 ], [ -84.752959, 35.84493 ], [ -84.7515, 35.847549 ], [ -84.74994, 35.84931 ], [ -84.74882, 35.849409 ], [ -84.748368, 35.848585 ], [ -84.746108, 35.849213 ], [ -84.745757, 35.850213 ], [ -84.743167, 35.851236 ], [ -84.741453, 35.850676 ], [ -84.740462, 35.852259 ], [ -84.739088, 35.850985 ], [ -84.737949, 35.85139 ], [ -84.737855, 35.853936 ], [ -84.737604, 35.854418 ], [ -84.736942, 35.855608 ], [ -84.736051, 35.856672 ], [ -84.734364, 35.857123 ], [ -84.733508, 35.858343 ], [ -84.730876, 35.85786 ], [ -84.728771, 35.859223 ], [ -84.728745, 35.86047 ], [ -84.727693, 35.863811 ], [ -84.726189, 35.864179 ], [ -84.72555, 35.86497 ], [ -84.718873, 35.873627 ], [ -84.717406, 35.875847 ], [ -84.708115, 35.89258 ], [ -84.706181, 35.896066 ], [ -84.704265, 35.893942 ], [ -84.702019, 35.895848 ], [ -84.701811, 35.896014 ], [ -84.700918, 35.89677 ], [ -84.700864, 35.896818 ], [ -84.698877, 35.898495 ], [ -84.697313, 35.899943 ], [ -84.69173, 35.901448 ], [ -84.690717, 35.901459 ], [ -84.688509, 35.902432 ], [ -84.686517, 35.90241 ], [ -84.685113, 35.902871 ], [ -84.684262, 35.903986 ], [ -84.68306, 35.904113 ], [ -84.682445, 35.9057 ], [ -84.681385, 35.907804 ], [ -84.680633, 35.908454 ], [ -84.679177, 35.909144 ], [ -84.677063, 35.909424 ], [ -84.676064, 35.910759 ], [ -84.675308, 35.910182 ], [ -84.674538, 35.911501 ], [ -84.673251, 35.912403 ], [ -84.672471, 35.913868 ], [ -84.674112, 35.914703 ], [ -84.674429, 35.915582 ], [ -84.672896, 35.91667 ], [ -84.670356, 35.917614 ], [ -84.668587, 35.917032 ], [ -84.667817, 35.916219 ], [ -84.666386, 35.9159 ], [ -84.665319, 35.916553 ], [ -84.662922, 35.916388 ], [ -84.66197, 35.915805 ], [ -84.660442, 35.920535 ], [ -84.659476, 35.92054 ], [ -84.656721, 35.91954 ], [ -84.656208, 35.920001 ], [ -84.656227, 35.921748 ], [ -84.654963, 35.924241 ], [ -84.653538, 35.923862 ], [ -84.652051, 35.926334 ], [ -84.652294, 35.927289 ], [ -84.651598, 35.928652 ], [ -84.648897, 35.927019 ], [ -84.64737, 35.927782 ], [ -84.643102, 35.927308 ], [ -84.642622, 35.92772 ], [ -84.643114, 35.9295 ], [ -84.638547, 35.931459 ], [ -84.637575, 35.931481 ], [ -84.633658, 35.930161 ], [ -84.633009, 35.931413 ], [ -84.631503, 35.931226 ], [ -84.630247, 35.930522 ], [ -84.628423, 35.930812 ], [ -84.628867, 35.933444 ], [ -84.62784, 35.93424 ], [ -84.626806, 35.934376 ], [ -84.624403, 35.932941 ], [ -84.620887, 35.932199 ], [ -84.619613, 35.933071 ], [ -84.619824, 35.934478 ], [ -84.618606, 35.936066 ], [ -84.618665, 35.93722 ], [ -84.617883, 35.938076 ], [ -84.616023, 35.938866 ], [ -84.615638, 35.940672 ], [ -84.613763, 35.940723 ], [ -84.611925, 35.941468 ], [ -84.609813, 35.941047 ], [ -84.609797, 35.943088 ], [ -84.607758, 35.943197 ], [ -84.606036, 35.944592 ], [ -84.606836, 35.947886 ], [ -84.606659, 35.951145 ], [ -84.605119, 35.952008 ], [ -84.603763, 35.954009 ], [ -84.602818, 35.954226 ], [ -84.601025, 35.954115 ], [ -84.601293, 35.953203 ], [ -84.602707, 35.952322 ], [ -84.601652, 35.951521 ], [ -84.599091, 35.951669 ], [ -84.598684, 35.950262 ], [ -84.596599, 35.950286 ], [ -84.595559, 35.949632 ], [ -84.595582, 35.94833 ], [ -84.596783, 35.947311 ], [ -84.596391, 35.946685 ], [ -84.594957, 35.947001 ], [ -84.59396, 35.949437 ], [ -84.592798, 35.950484 ], [ -84.590499, 35.949409 ], [ -84.589819, 35.948046 ], [ -84.588299, 35.947319 ], [ -84.585484, 35.947507 ], [ -84.584804, 35.948267 ], [ -84.586185, 35.950553 ], [ -84.582696, 35.950725 ], [ -84.580722, 35.951578 ], [ -84.577433, 35.950524 ], [ -84.577247, 35.950503 ], [ -84.575412, 35.949858 ], [ -84.574884, 35.949835 ], [ -84.574704, 35.949828 ], [ -84.570358, 35.949658 ], [ -84.563177, 35.949612 ], [ -84.55573, 35.950318 ], [ -84.554969, 35.950361 ], [ -84.554189, 35.952918 ], [ -84.554885, 35.954304 ], [ -84.554631, 35.95676 ], [ -84.554931, 35.958988 ], [ -84.555844, 35.960892 ], [ -84.554021, 35.964521 ], [ -84.550433, 35.966489 ], [ -84.545662, 35.968883 ], [ -84.542686, 35.9696 ], [ -84.542025, 35.970303 ], [ -84.537724, 35.970918 ], [ -84.536064, 35.971761 ], [ -84.533266, 35.97217 ], [ -84.531962, 35.97298 ], [ -84.528431, 35.972664 ], [ -84.526533, 35.97354 ], [ -84.526277, 35.974211 ], [ -84.522965, 35.97496 ], [ -84.520552, 35.974884 ], [ -84.518634, 35.975509 ], [ -84.509478, 35.977738 ], [ -84.506156, 35.978915 ], [ -84.502637, 35.980448 ], [ -84.501371, 35.980281 ], [ -84.498208, 35.982034 ], [ -84.494988, 35.982989 ], [ -84.49408, 35.98428 ], [ -84.489556, 35.984564 ], [ -84.487147, 35.985183 ], [ -84.483408, 35.983858 ], [ -84.481805, 35.983773 ], [ -84.481061, 35.983782 ], [ -84.478589, 35.98403 ], [ -84.476498, 35.984639 ], [ -84.470549, 35.983586 ], [ -84.467792, 35.983635 ], [ -84.465286, 35.984132 ], [ -84.463564, 35.984932 ], [ -84.460556, 35.985377 ], [ -84.456591, 35.984099 ], [ -84.453418, 35.985151 ], [ -84.449986, 35.985707 ], [ -84.446054, 35.985984 ], [ -84.442721, 35.987391 ], [ -84.440135, 35.988867 ], [ -84.434285, 35.993726 ], [ -84.425294, 35.998552 ], [ -84.42023, 36.001176 ], [ -84.41543, 36.004377 ], [ -84.41413, 36.004377 ], [ -84.41143, 36.005277 ], [ -84.407829, 36.007677 ], [ -84.406441, 36.008189 ], [ -84.405102, 36.009366 ], [ -84.404429, 36.010177 ], [ -84.400029, 36.013377 ], [ -84.398329, 36.015177 ], [ -84.394829, 36.017377 ], [ -84.393629, 36.017577 ], [ -84.390129, 36.019377 ], [ -84.387842, 36.020837 ], [ -84.384028, 36.023677 ], [ -84.382628, 36.024277 ], [ -84.378528, 36.028677 ], [ -84.373128, 36.033977 ], [ -84.372146, 36.034518 ], [ -84.370028, 36.035977 ], [ -84.368928, 36.037477 ], [ -84.366841, 36.039001 ], [ -84.364928, 36.041077 ], [ -84.362328, 36.042977 ], [ -84.360628, 36.043877 ], [ -84.357528, 36.044177 ], [ -84.352327, 36.046877 ], [ -84.348301, 36.048076 ], [ -84.347796, 36.048291 ], [ -84.346025, 36.049054 ], [ -84.343882, 36.049306 ], [ -84.341812, 36.048977 ], [ -84.34321, 36.050496 ], [ -84.343522, 36.050841 ], [ -84.345086, 36.052538 ], [ -84.345511, 36.053001 ], [ -84.346872, 36.054479 ], [ -84.347916, 36.055614 ], [ -84.348259, 36.055986 ], [ -84.348326, 36.05606 ], [ -84.348394, 36.056134 ], [ -84.348803, 36.056579 ], [ -84.34894, 36.056728 ], [ -84.353834, 36.062047 ], [ -84.358807, 36.067454 ], [ -84.360643, 36.06945 ], [ -84.361128, 36.069977 ], [ -84.376189, 36.09129 ], [ -84.37903, 36.095377 ], [ -84.38063, 36.096477 ], [ -84.38183, 36.096577 ], [ -84.38463, 36.097677 ], [ -84.38693, 36.098877 ], [ -84.38883, 36.098677 ], [ -84.38933, 36.099277 ], [ -84.391131, 36.099277 ], [ -84.393231, 36.100477 ], [ -84.393531, 36.102477 ], [ -84.395031, 36.104377 ], [ -84.396431, 36.105077 ], [ -84.397131, 36.104777 ], [ -84.400131, 36.104677 ], [ -84.403331, 36.103877 ], [ -84.406031, 36.103577 ], [ -84.408132, 36.105077 ], [ -84.413532, 36.107177 ], [ -84.414532, 36.107877 ], [ -84.416432, 36.108277 ], [ -84.420432, 36.108377 ], [ -84.421732, 36.115277 ], [ -84.425542, 36.122992 ], [ -84.425491, 36.123657 ], [ -84.425452, 36.124612 ], [ -84.425532, 36.125078 ], [ -84.429676, 36.131352 ], [ -84.430033, 36.131877 ], [ -84.432433, 36.131677 ], [ -84.435733, 36.133977 ], [ -84.439934, 36.135277 ], [ -84.442134, 36.135477 ], [ -84.442534, 36.137477 ], [ -84.442534, 36.139977 ], [ -84.442963, 36.139901 ], [ -84.444434, 36.138477 ], [ -84.446234, 36.138477 ], [ -84.449034, 36.139577 ], [ -84.449834, 36.142277 ], [ -84.449881, 36.151046 ], [ -84.448234, 36.152478 ], [ -84.446534, 36.152478 ], [ -84.445327, 36.151878 ], [ -84.443834, 36.153078 ], [ -84.442034, 36.155178 ], [ -84.440834, 36.155978 ], [ -84.442334, 36.158278 ], [ -84.442434, 36.160778 ], [ -84.441134, 36.162478 ], [ -84.441034, 36.163478 ], [ -84.435334, 36.164778 ], [ -84.433734, 36.164778 ], [ -84.432734, 36.165378 ], [ -84.426434, 36.164678 ], [ -84.425434, 36.165278 ], [ -84.423634, 36.168678 ], [ -84.421634, 36.169278 ], [ -84.419233, 36.169178 ], [ -84.415333, 36.167978 ], [ -84.413633, 36.169578 ], [ -84.411633, 36.169978 ], [ -84.408433, 36.173878 ], [ -84.406233, 36.174978 ], [ -84.404233, 36.174478 ], [ -84.402033, 36.176078 ], [ -84.400833, 36.178478 ], [ -84.401333, 36.180078 ], [ -84.402433, 36.180778 ], [ -84.403533, 36.184478 ], [ -84.403133, 36.185778 ], [ -84.401233, 36.186778 ], [ -84.397433, 36.189278 ], [ -84.396633, 36.190678 ], [ -84.393933, 36.192378 ], [ -84.392792, 36.193887 ], [ -84.390833, 36.196478 ], [ -84.390933, 36.199378 ], [ -84.392433, 36.201678 ], [ -84.391933, 36.202878 ], [ -84.390333, 36.204278 ], [ -84.386733, 36.205578 ], [ -84.385633, 36.206678 ], [ -84.383333, 36.206878 ], [ -84.382133, 36.207678 ], [ -84.380233, 36.209778 ], [ -84.378233, 36.211478 ], [ -84.375832, 36.212278 ], [ -84.374332, 36.214378 ], [ -84.374332, 36.215678 ], [ -84.372731, 36.216778 ], [ -84.370632, 36.214978 ], [ -84.366932, 36.212878 ], [ -84.365732, 36.212478 ], [ -84.363432, 36.213078 ], [ -84.357732, 36.214178 ], [ -84.355832, 36.214378 ], [ -84.353932, 36.214078 ], [ -84.351831, 36.214278 ], [ -84.349531, 36.215178 ], [ -84.346731, 36.215078 ], [ -84.344231, 36.214378 ], [ -84.343631, 36.213678 ], [ -84.339031, 36.212278 ], [ -84.337585, 36.210921 ], [ -84.333931, 36.210278 ], [ -84.33273, 36.208578 ], [ -84.33073, 36.208078 ], [ -84.32833, 36.208778 ], [ -84.32633, 36.208578 ], [ -84.32165, 36.210157 ], [ -84.321122, 36.210332 ], [ -84.321587, 36.210812 ], [ -84.324996, 36.211713 ], [ -84.324867, 36.2123 ], [ -84.324747, 36.212461 ], [ -84.32303, 36.213578 ], [ -84.31973, 36.213178 ], [ -84.31783, 36.213378 ], [ -84.31633, 36.214678 ], [ -84.31273, 36.215178 ], [ -84.31113, 36.216278 ], [ -84.30973, 36.216078 ], [ -84.306907, 36.217924 ], [ -84.304029, 36.218878 ], [ -84.301429, 36.220978 ], [ -84.299929, 36.220878 ], [ -84.296929, 36.219478 ], [ -84.294929, 36.217678 ], [ -84.291029, 36.215278 ], [ -84.290554, 36.213319 ], [ -84.289529, 36.211978 ], [ -84.287328, 36.210378 ], [ -84.285428, 36.207578 ], [ -84.282328, 36.206578 ], [ -84.278528, 36.204078 ], [ -84.274528, 36.201878 ], [ -84.272628, 36.200278 ], [ -84.271927, 36.199078 ], [ -84.271427, 36.196078 ], [ -84.270227, 36.194878 ], [ -84.268027, 36.193778 ], [ -84.265627, 36.191078 ], [ -84.264127, 36.188178 ], [ -84.260627, 36.189078 ], [ -84.259027, 36.190078 ], [ -84.258127, 36.189878 ], [ -84.255626, 36.187878 ], [ -84.253326, 36.186578 ], [ -84.251626, 36.182878 ], [ -84.249426, 36.181978 ], [ -84.248526, 36.181078 ], [ -84.246126, 36.180278 ], [ -84.244726, 36.178978 ], [ -84.243026, 36.178978 ], [ -84.241925, 36.177678 ], [ -84.241325, 36.177578 ], [ -84.237325, 36.178478 ], [ -84.235225, 36.180578 ], [ -84.232525, 36.181578 ], [ -84.230325, 36.182078 ], [ -84.229225, 36.183878 ], [ -84.228991, 36.185014 ], [ -84.228725, 36.187378 ], [ -84.229325, 36.189878 ], [ -84.231525, 36.191778 ], [ -84.230525, 36.193778 ], [ -84.229742, 36.197247 ], [ -84.230626, 36.198779 ], [ -84.229726, 36.201679 ], [ -84.230226, 36.203679 ], [ -84.231226, 36.204379 ], [ -84.233673, 36.207333 ], [ -84.234226, 36.208379 ], [ -84.233326, 36.210079 ], [ -84.232526, 36.214579 ], [ -84.229526, 36.215179 ], [ -84.226326, 36.216479 ], [ -84.225726, 36.217179 ], [ -84.225626, 36.219579 ], [ -84.226366, 36.2206 ], [ -84.228526, 36.223579 ], [ -84.229926, 36.224879 ], [ -84.229326, 36.225579 ], [ -84.227526, 36.232879 ], [ -84.228926, 36.234279 ], [ -84.228126, 36.236579 ], [ -84.228727, 36.238779 ], [ -84.228427, 36.239779 ], [ -84.226727, 36.239979 ], [ -84.226127, 36.241479 ], [ -84.228327, 36.242479 ], [ -84.228527, 36.243679 ], [ -84.227627, 36.244779 ], [ -84.227527, 36.244879 ], [ -84.210518, 36.24288 ], [ -84.192087, 36.240736 ], [ -84.190313, 36.240529 ], [ -84.183762, 36.239775 ], [ -84.182924, 36.239678 ], [ -84.174727, 36.240015 ], [ -84.17348, 36.240068 ], [ -84.173217, 36.240079 ], [ -84.17293, 36.240091 ], [ -84.170824, 36.240178 ], [ -84.165521, 36.238713 ], [ -84.165415, 36.238684 ], [ -84.165398, 36.238679 ], [ -84.163645, 36.238187 ], [ -84.162676, 36.237914 ], [ -84.161454, 36.237571 ], [ -84.161265, 36.237518 ], [ -84.15199, 36.237391 ], [ -84.151971, 36.237391 ], [ -84.150323, 36.237378 ], [ -84.145643, 36.23596 ], [ -84.142837, 36.23511 ], [ -84.140125, 36.233676 ], [ -84.137526, 36.234473 ], [ -84.137005, 36.234219 ], [ -84.135319, 36.233766 ], [ -84.133118, 36.234767 ], [ -84.130868, 36.233987 ], [ -84.128885, 36.234697 ], [ -84.128435, 36.234659 ], [ -84.126777, 36.233874 ], [ -84.125009, 36.234293 ], [ -84.122788, 36.233778 ], [ -84.119421, 36.233678 ], [ -84.117184, 36.233878 ], [ -84.114521, 36.234078 ], [ -84.110421, 36.233878 ], [ -84.107121, 36.232678 ], [ -84.104521, 36.232078 ], [ -84.10392, 36.229478 ], [ -84.103087, 36.228645 ], [ -84.103535, 36.225842 ], [ -84.103463, 36.225368 ], [ -84.102691, 36.224424 ], [ -84.100991, 36.224102 ], [ -84.098037, 36.223276 ], [ -84.097061, 36.223334 ], [ -84.09321, 36.222459 ], [ -84.092746, 36.2224 ], [ -84.092264, 36.222494 ], [ -84.09196, 36.222613 ], [ -84.091755, 36.222931 ], [ -84.09251, 36.22426 ], [ -84.09302, 36.226778 ], [ -84.09152, 36.229278 ], [ -84.08832, 36.229878 ], [ -84.085775, 36.229846 ], [ -84.083419, 36.229478 ], [ -84.079818, 36.228178 ], [ -84.076818, 36.227678 ], [ -84.073718, 36.227878 ], [ -84.072018, 36.228578 ], [ -84.069918, 36.230378 ], [ -84.069218, 36.233578 ], [ -84.069819, 36.236678 ], [ -84.071219, 36.238478 ], [ -84.073819, 36.239978 ], [ -84.07592, 36.241878 ], [ -84.07632, 36.244078 ], [ -84.07602, 36.247878 ], [ -84.07492, 36.250078 ], [ -84.07309, 36.251652 ], [ -84.072698, 36.251989 ], [ -84.073419, 36.252718 ], [ -84.077168, 36.253627 ], [ -84.079044, 36.255632 ], [ -84.07759, 36.259583 ], [ -84.077601, 36.260882 ], [ -84.078584, 36.263405 ], [ -84.078908, 36.265277 ], [ -84.079862, 36.266004 ], [ -84.080577, 36.266459 ], [ -84.0833, 36.266492 ], [ -84.083992, 36.267796 ], [ -84.081656, 36.270179 ], [ -84.077885, 36.271032 ], [ -84.077769, 36.272584 ], [ -84.078987, 36.274151 ], [ -84.07954, 36.275739 ], [ -84.07997, 36.277662 ], [ -84.0814, 36.278427 ], [ -84.082194, 36.280076 ], [ -84.084212, 36.281985 ], [ -84.085196, 36.283853 ], [ -84.087791, 36.285852 ], [ -84.09175, 36.285503 ], [ -84.093939, 36.283977 ], [ -84.096366, 36.283237 ], [ -84.097661, 36.283224 ], [ -84.100284, 36.2839 ], [ -84.101132, 36.285927 ], [ -84.104968, 36.287824 ], [ -84.106523, 36.28978 ], [ -84.107775, 36.290429 ], [ -84.109908, 36.290156 ], [ -84.112357, 36.288544 ], [ -84.114687, 36.289296 ], [ -84.115934, 36.290371 ], [ -84.117778, 36.292796 ], [ -84.11856, 36.295068 ], [ -84.118513, 36.297145 ], [ -84.11694, 36.298231 ], [ -84.115561, 36.30036 ], [ -84.114917, 36.305376 ], [ -84.114621, 36.306349 ], [ -84.115502, 36.310895 ], [ -84.113734, 36.311508 ], [ -84.111264, 36.311145 ], [ -84.109033, 36.311295 ], [ -84.109629, 36.313148 ], [ -84.111675, 36.315558 ], [ -84.113072, 36.316272 ], [ -84.116277, 36.316525 ], [ -84.118149, 36.317823 ], [ -84.119189, 36.320133 ], [ -84.119336, 36.321443 ], [ -84.118717, 36.32177 ], [ -84.115728, 36.321907 ], [ -84.113698, 36.321624 ], [ -84.109878, 36.319548 ], [ -84.107901, 36.318817 ], [ -84.106718, 36.319814 ], [ -84.108198, 36.323068 ], [ -84.110122, 36.326075 ], [ -84.11465, 36.330457 ], [ -84.117233, 36.331504 ], [ -84.118594, 36.332481 ], [ -84.120827, 36.33479 ], [ -84.122366, 36.335717 ], [ -84.125211, 36.336164 ], [ -84.126291, 36.336586 ], [ -84.125493, 36.337141 ], [ -84.125079, 36.33722 ], [ -84.122972, 36.337709 ], [ -84.122409, 36.338369 ], [ -84.123227, 36.339254 ], [ -84.124921, 36.339464 ], [ -84.126092, 36.339759 ], [ -84.127822, 36.342517 ], [ -84.129333, 36.343639 ], [ -84.129919, 36.345506 ], [ -84.126858, 36.345636 ], [ -84.124922, 36.346084 ], [ -84.123883, 36.346654 ], [ -84.124406, 36.348089 ], [ -84.123664, 36.348769 ], [ -84.125745, 36.35113 ], [ -84.126417, 36.352811 ], [ -84.125779, 36.354006 ], [ -84.124921, 36.354291 ], [ -84.12323, 36.354503 ], [ -84.122949, 36.355593 ], [ -84.120866, 36.356198 ], [ -84.120152, 36.356955 ], [ -84.119237, 36.359734 ], [ -84.117761, 36.359751 ], [ -84.116013, 36.358217 ], [ -84.1157, 36.359488 ], [ -84.115227, 36.360099 ], [ -84.11335, 36.359645 ], [ -84.112338, 36.359854 ], [ -84.111713, 36.361321 ], [ -84.111773, 36.362279 ], [ -84.111839, 36.363134 ], [ -84.112268, 36.364309 ], [ -84.112918, 36.364146 ], [ -84.113765, 36.366254 ], [ -84.114613, 36.365866 ], [ -84.114932, 36.367585 ], [ -84.118425, 36.365896 ], [ -84.120421, 36.364549 ], [ -84.122501, 36.364413 ], [ -84.124142, 36.366236 ], [ -84.123962, 36.366861 ], [ -84.121676, 36.367165 ], [ -84.121377, 36.367871 ], [ -84.122424, 36.369155 ], [ -84.122749, 36.370895 ], [ -84.123635, 36.370197 ], [ -84.124733, 36.370744 ], [ -84.123575, 36.371618 ], [ -84.122494, 36.372458 ], [ -84.121396, 36.373321 ], [ -84.120263, 36.374201 ], [ -84.118143, 36.376049 ], [ -84.118909, 36.376684 ], [ -84.119774, 36.377391 ], [ -84.120627, 36.378101 ], [ -84.121275, 36.378968 ], [ -84.121903, 36.379869 ], [ -84.120799, 36.379351 ], [ -84.119778, 36.380147 ], [ -84.11961, 36.380283 ], [ -84.118337, 36.381304 ], [ -84.11919, 36.381998 ], [ -84.119209, 36.382014 ], [ -84.119279, 36.382072 ], [ -84.119548, 36.382294 ], [ -84.119638, 36.382369 ], [ -84.12008, 36.382761 ], [ -84.120979, 36.383513 ], [ -84.121823, 36.384208 ], [ -84.122301, 36.384605 ], [ -84.123476, 36.384007 ], [ -84.124469, 36.383565 ], [ -84.124729, 36.384614 ], [ -84.125677, 36.384584 ], [ -84.126263, 36.387378 ], [ -84.127663, 36.389527 ], [ -84.128069, 36.391182 ], [ -84.127313, 36.394436 ], [ -84.127156, 36.395474 ], [ -84.127831, 36.395702 ], [ -84.128438, 36.395518 ], [ -84.130261, 36.395166 ], [ -84.131426, 36.39456 ], [ -84.13163, 36.394467 ], [ -84.131341, 36.393673 ], [ -84.131597, 36.393147 ], [ -84.132728, 36.392808 ], [ -84.134032, 36.392083 ], [ -84.134769, 36.3914 ], [ -84.135054, 36.390968 ], [ -84.135395, 36.390694 ], [ -84.13763, 36.389928 ], [ -84.139357, 36.389204 ], [ -84.140743, 36.389072 ], [ -84.141536, 36.388824 ], [ -84.142471, 36.388257 ], [ -84.14355, 36.387323 ], [ -84.144229, 36.387029 ], [ -84.144795, 36.386643 ], [ -84.145222, 36.386005 ], [ -84.145451, 36.38523 ], [ -84.146585, 36.384411 ], [ -84.146588, 36.38384 ], [ -84.146729, 36.383681 ], [ -84.147947, 36.383228 ], [ -84.148627, 36.382867 ], [ -84.149081, 36.382388 ], [ -84.149224, 36.381909 ], [ -84.149424, 36.381567 ], [ -84.15118, 36.380248 ], [ -84.151719, 36.379633 ], [ -84.152855, 36.378678 ], [ -84.15328, 36.378245 ], [ -84.154074, 36.377793 ], [ -84.155346, 36.377432 ], [ -84.15563, 36.377181 ], [ -84.156199, 36.376246 ], [ -84.157275, 36.375656 ], [ -84.158546, 36.375182 ], [ -84.160692, 36.374208 ], [ -84.162674, 36.373531 ], [ -84.162873, 36.373326 ], [ -84.163615, 36.371684 ], [ -84.164041, 36.37116 ], [ -84.1652, 36.370822 ], [ -84.166444, 36.370644 ], [ -84.167548, 36.370329 ], [ -84.167802, 36.370147 ], [ -84.168854, 36.368781 ], [ -84.169165, 36.368553 ], [ -84.169634, 36.368494 ], [ -84.172311, 36.369517 ], [ -84.172912, 36.37024 ], [ -84.173191, 36.370932 ], [ -84.174977, 36.370603 ], [ -84.176627, 36.37169 ], [ -84.175852, 36.373623 ], [ -84.176218, 36.374502 ], [ -84.175457, 36.374944 ], [ -84.175253, 36.37642 ], [ -84.176705, 36.375099 ], [ -84.177418, 36.374117 ], [ -84.178246, 36.373731 ], [ -84.179167, 36.372927 ], [ -84.179337, 36.372601 ], [ -84.178918, 36.372162 ], [ -84.179086, 36.37196 ], [ -84.180863, 36.371481 ], [ -84.181491, 36.370869 ], [ -84.182162, 36.370379 ], [ -84.184143, 36.370002 ], [ -84.184681, 36.369632 ], [ -84.186065, 36.368291 ], [ -84.186659, 36.367855 ], [ -84.187197, 36.367077 ], [ -84.186914, 36.365109 ], [ -84.187254, 36.364995 ], [ -84.188357, 36.365521 ], [ -84.188612, 36.365933 ], [ -84.189743, 36.366185 ], [ -84.190903, 36.367238 ], [ -84.191328, 36.367489 ], [ -84.192091, 36.36829 ], [ -84.192884, 36.369617 ], [ -84.193317, 36.370954 ], [ -84.193421, 36.371768 ], [ -84.194128, 36.372546 ], [ -84.194496, 36.373233 ], [ -84.194977, 36.373576 ], [ -84.196789, 36.374056 ], [ -84.197242, 36.374354 ], [ -84.197921, 36.374514 ], [ -84.198911, 36.374514 ], [ -84.19942, 36.374422 ], [ -84.200241, 36.374056 ], [ -84.200722, 36.374125 ], [ -84.201854, 36.374033 ], [ -84.202108, 36.373667 ], [ -84.202846, 36.373373 ], [ -84.203178, 36.372796 ], [ -84.204633, 36.371953 ], [ -84.203778, 36.370888 ], [ -84.205318, 36.370213 ], [ -84.206454, 36.37056 ], [ -84.209938, 36.369637 ], [ -84.213058, 36.367092 ], [ -84.214422, 36.364267 ], [ -84.214303, 36.362181 ], [ -84.214766, 36.361508 ], [ -84.21634, 36.360989 ], [ -84.21852, 36.359388 ], [ -84.220354, 36.359432 ], [ -84.223756, 36.360508 ], [ -84.224782, 36.362516 ], [ -84.225875, 36.363011 ], [ -84.227006, 36.364846 ], [ -84.229261, 36.365814 ], [ -84.231509, 36.368139 ], [ -84.235092, 36.371076 ], [ -84.244211, 36.380885 ], [ -84.253969, 36.391429 ], [ -84.254942, 36.391522 ], [ -84.25523, 36.391547 ], [ -84.256124, 36.391703 ], [ -84.258604, 36.390617 ], [ -84.258763, 36.389895 ], [ -84.262357, 36.391354 ], [ -84.265698, 36.39492 ], [ -84.268041, 36.396173 ], [ -84.272872, 36.397124 ], [ -84.274529, 36.397181 ], [ -84.276428, 36.396548 ], [ -84.278149, 36.395772 ], [ -84.27979, 36.395743 ], [ -84.281322, 36.396853 ], [ -84.283356, 36.399777 ], [ -84.285622, 36.402379 ], [ -84.28832, 36.404257 ], [ -84.290696, 36.406287 ], [ -84.294207, 36.408457 ], [ -84.297981, 36.412654 ], [ -84.299495, 36.414059 ], [ -84.301119, 36.41467 ], [ -84.302579, 36.414524 ], [ -84.304241, 36.412893 ], [ -84.306986, 36.405966 ], [ -84.309067, 36.402603 ], [ -84.310802, 36.398666 ], [ -84.31266, 36.396648 ], [ -84.314297, 36.395868 ], [ -84.316829, 36.394929 ], [ -84.318932, 36.393675 ], [ -84.322211, 36.392865 ], [ -84.323469, 36.395527 ], [ -84.324351, 36.395972 ], [ -84.32642, 36.399357 ], [ -84.326811, 36.396335 ], [ -84.326959, 36.39494 ], [ -84.32755, 36.395167 ], [ -84.327518, 36.400154 ], [ -84.327373, 36.403135 ], [ -84.331121, 36.406329 ], [ -84.336577, 36.411741 ], [ -84.33816, 36.41275 ], [ -84.344701, 36.415677 ], [ -84.345336, 36.426689 ], [ -84.345535, 36.42956 ], [ -84.346219, 36.438355 ], [ -84.343674, 36.440876 ], [ -84.343299, 36.442188 ], [ -84.343926, 36.444373 ], [ -84.344971, 36.445382 ], [ -84.345724, 36.448609 ], [ -84.346411, 36.450277 ], [ -84.349066, 36.453854 ], [ -84.351863, 36.454661 ], [ -84.353742, 36.456409 ], [ -84.355746, 36.456678 ], [ -84.355414, 36.459636 ], [ -84.353871, 36.462696 ], [ -84.353913, 36.463469 ], [ -84.352915, 36.464638 ], [ -84.350923, 36.465812 ], [ -84.349149, 36.466425 ], [ -84.348439, 36.466127 ], [ -84.347193, 36.466242 ], [ -84.346059, 36.465395 ], [ -84.344473, 36.466128 ], [ -84.341329, 36.465579 ], [ -84.340479, 36.466472 ], [ -84.341896, 36.469881 ], [ -84.341529, 36.471918 ], [ -84.340254, 36.472307 ], [ -84.338533, 36.473889 ], [ -84.337507, 36.475855 ], [ -84.338553, 36.477825 ], [ -84.338972, 36.480481 ], [ -84.337761, 36.481893 ], [ -84.336592, 36.48465 ], [ -84.335548, 36.485255 ], [ -84.336635, 36.486432 ], [ -84.338347, 36.487138 ], [ -84.338514, 36.488147 ], [ -84.337054, 36.491273 ], [ -84.334632, 36.493189 ], [ -84.334715, 36.493828 ], [ -84.336859, 36.495649 ], [ -84.337143, 36.496497 ], [ -84.339645, 36.498469 ], [ -84.339311, 36.499847 ], [ -84.336928, 36.499598 ], [ -84.335328, 36.500367 ], [ -84.334737, 36.501365 ], [ -84.332578, 36.502161 ], [ -84.329434, 36.50358 ], [ -84.331634, 36.50628 ], [ -84.330434, 36.50948 ], [ -84.328234, 36.50918 ], [ -84.325334, 36.50938 ], [ -84.323734, 36.50818 ], [ -84.318433, 36.50738 ], [ -84.314933, 36.50788 ], [ -84.313133, 36.50568 ], [ -84.309533, 36.50568 ], [ -84.306333, 36.50688 ], [ -84.303333, 36.50728 ], [ -84.300533, 36.50708 ], [ -84.297333, 36.50618 ], [ -84.295033, 36.50688 ], [ -84.291333, 36.50508 ], [ -84.290233, 36.50508 ], [ -84.286533, 36.50388 ], [ -84.285033, 36.50468 ], [ -84.283132, 36.50468 ], [ -84.280532, 36.50618 ], [ -84.279632, 36.50638 ], [ -84.278332, 36.50758 ], [ -84.274032, 36.50958 ], [ -84.271432, 36.51168 ], [ -84.267751, 36.51188 ], [ -84.266877, 36.511698 ], [ -84.265878, 36.511163 ], [ -84.263779, 36.510971 ], [ -84.261684, 36.511978 ], [ -84.259593, 36.513985 ], [ -84.259, 36.515586 ], [ -84.258413, 36.519086 ], [ -84.257917, 36.519988 ], [ -84.258125, 36.521985 ], [ -84.259432, 36.52408 ], [ -84.260332, 36.52688 ], [ -84.257632, 36.52818 ], [ -84.254532, 36.52898 ], [ -84.252826, 36.529885 ], [ -84.251932, 36.53128 ], [ -84.251132, 36.53418 ], [ -84.251632, 36.53808 ], [ -84.252432, 36.53958 ], [ -84.251432, 36.54198 ], [ -84.252132, 36.54248 ], [ -84.252832, 36.544281 ], [ -84.252732, 36.545481 ], [ -84.249931, 36.548081 ], [ -84.249331, 36.549981 ], [ -84.250732, 36.552483 ], [ -84.249632, 36.554483 ], [ -84.249932, 36.555183 ], [ -84.252232, 36.555783 ], [ -84.252232, 36.557483 ], [ -84.250532, 36.560284 ], [ -84.250531, 36.562684 ], [ -84.249231, 36.564684 ], [ -84.256265, 36.56568 ], [ -84.263733, 36.56668 ], [ -84.264533, 36.568981 ], [ -84.263333, 36.569381 ], [ -84.263033, 36.571181 ], [ -84.261733, 36.572281 ], [ -84.261538, 36.581825 ], [ -84.261533, 36.582138 ], [ -84.261337, 36.591784 ], [ -84.270904, 36.591708 ], [ -84.291025, 36.592217 ], [ -84.320304, 36.593071 ], [ -84.376548, 36.594598 ], [ -84.393169, 36.595021 ], [ -84.417982, 36.595592 ], [ -84.426448, 36.595762 ], [ -84.434938, 36.595931 ], [ -84.435937, 36.595951 ], [ -84.439102, 36.596015 ], [ -84.443183, 36.596097 ], [ -84.450175, 36.596223 ], [ -84.458684, 36.596304 ], [ -84.478354, 36.596486 ], [ -84.490822, 36.596582 ], [ -84.500093, 36.596575 ], [ -84.520921, 36.596423 ], [ -84.536447, 36.596328 ], [ -84.540474, 36.596304 ], [ -84.5587, 36.59699 ], [ -84.562599, 36.597133 ], [ -84.582562, 36.597903 ], [ -84.604903, 36.598767 ], [ -84.605472, 36.598789 ], [ -84.624902, 36.599539 ], [ -84.642153, 36.600108 ], [ -84.651255, 36.600408 ], [ -84.685446, 36.601363 ], [ -84.729347, 36.602194 ], [ -84.739982, 36.602387 ], [ -84.749949, 36.60257 ], [ -84.778605, 36.603279 ], [ -84.78545, 36.603444 ] ] ] ] } }
]
}
