{
"type": "FeatureCollection",
"name": "id_7",
"crs": { "type": "name", "properties": { "name": "urn:ogc:def:crs:OGC:1.3:CRS84" } },
"xy_coordinate_resolution": 1e-15,
"features": [
{ "type": "Feature", "properties": { "id": 7.0, "NAME": "7.0", "TotalPop": 767871.0, "PopDevPct": -0.0, "DemPct": 0.405, "RepPct": 0.571, "WhitePct": 0.749, "MinorityPc": 0.251, "BlackPct": 0.144, "HispanicPc": 0.058, "PacificPct": 0.002, "AsianPct": 0.025, "NativePct": 0.023, "TotalVAP": 593732.0, "Margin": -0.095, "color": "#ff5700", "opacity": "0.5" }, "geometry": { "type": "MultiPolygon", "coordinates": [ [ [ [ -87.552372, 36.016007 ], [ -87.552312, 36.015978 ], [ -87.55054, 36.015285 ], [ -87.550337, 36.014255 ], [ -87.548803, 36.013421 ], [ -87.546533, 36.011472 ], [ -87.546287, 36.011112 ], [ -87.54613, 36.010934 ], [ -87.546065, 36.010651 ], [ -87.545909, 36.010392 ], [ -87.545515, 36.010227 ], [ -87.545306, 36.010178 ], [ -87.544247, 36.008933 ], [ -87.543126, 36.008674 ], [ -87.54291, 36.008487 ], [ -87.542637, 36.008089 ], [ -87.542514, 36.007677 ], [ -87.542395, 36.006942 ], [ -87.542425, 36.006136 ], [ -87.542654, 36.005324 ], [ -87.542681, 36.005044 ], [ -87.541062, 36.003521 ], [ -87.5405, 36.002438 ], [ -87.541218, 36.000708 ], [ -87.540202, 35.998744 ], [ -87.540012, 35.996471 ], [ -87.536742, 35.996217 ], [ -87.534802, 35.995245 ], [ -87.53453, 35.993074 ], [ -87.517306, 35.991412 ], [ -87.513992, 35.991029 ], [ -87.513881, 35.990775 ], [ -87.497491, 35.989161 ], [ -87.49373, 35.988777 ], [ -87.490561, 35.988439 ], [ -87.490133, 35.988369 ], [ -87.489874, 35.98529 ], [ -87.48971, 35.984079 ], [ -87.48969, 35.983865 ], [ -87.477719, 35.984848 ], [ -87.477686, 35.985959 ], [ -87.482115, 35.985401 ], [ -87.482378, 35.987566 ], [ -87.476449, 35.986944 ], [ -87.475502, 35.986845 ], [ -87.46353, 35.985591 ], [ -87.445527, 35.983697 ], [ -87.443328, 35.983466 ], [ -87.435043, 35.982596 ], [ -87.428833, 35.981946 ], [ -87.408988, 35.979917 ], [ -87.399405, 35.978938 ], [ -87.381587, 35.977118 ], [ -87.376555, 35.976605 ], [ -87.375304, 35.976453 ], [ -87.361277, 35.974996 ], [ -87.355457, 35.974335 ], [ -87.353127, 35.974082 ], [ -87.336542, 35.972268 ], [ -87.320658, 35.970531 ], [ -87.319891, 35.970448 ], [ -87.314036, 35.969809 ], [ -87.301916, 35.96837 ], [ -87.302237, 35.966407 ], [ -87.296658, 35.965887 ], [ -87.293924, 35.965633 ], [ -87.285765, 35.964875 ], [ -87.285853, 35.963968 ], [ -87.281823, 35.963676 ], [ -87.280165, 35.962822 ], [ -87.279901, 35.961429 ], [ -87.276845, 35.961315 ], [ -87.274509, 35.962567 ], [ -87.274235, 35.964595 ], [ -87.272731, 35.964475 ], [ -87.262439, 35.963819 ], [ -87.258127, 35.963546 ], [ -87.246802, 35.962756 ], [ -87.242261, 35.962375 ], [ -87.22653, 35.961126 ], [ -87.224771, 35.960966 ], [ -87.224309, 35.960924 ], [ -87.216193, 35.960187 ], [ -87.212045, 35.959839 ], [ -87.206501, 35.959375 ], [ -87.204242, 35.959186 ], [ -87.203933, 35.962321 ], [ -87.208994, 35.962723 ], [ -87.208499, 35.967915 ], [ -87.21073, 35.967927 ], [ -87.21199, 35.970082 ], [ -87.209774, 35.971978 ], [ -87.204629, 35.971848 ], [ -87.199805, 35.971694 ], [ -87.199442, 35.97564 ], [ -87.196863, 35.976255 ], [ -87.190826, 35.975884 ], [ -87.190562, 35.977424 ], [ -87.19051, 35.979175 ], [ -87.196636, 35.979886 ], [ -87.197406, 35.979967 ], [ -87.196746, 35.985576 ], [ -87.192543, 35.985318 ], [ -87.192248, 35.987594 ], [ -87.191976, 35.989694 ], [ -87.192923, 35.989774 ], [ -87.194271, 35.98989 ], [ -87.19319, 35.996781 ], [ -87.193055, 35.997648 ], [ -87.190786, 36.009808 ], [ -87.189603, 36.016341 ], [ -87.18848, 36.022214 ], [ -87.188252, 36.023444 ], [ -87.188208, 36.023686 ], [ -87.18736, 36.02771 ], [ -87.18714, 36.028814 ], [ -87.186578, 36.031393 ], [ -87.186094, 36.03361 ], [ -87.184569, 36.040701 ], [ -87.184207, 36.042246 ], [ -87.182573, 36.049726 ], [ -87.170221, 36.049172 ], [ -87.167712, 36.049168 ], [ -87.149727, 36.048317 ], [ -87.143979, 36.048093 ], [ -87.143333, 36.048067 ], [ -87.140978, 36.047931 ], [ -87.127299, 36.046814 ], [ -87.123798, 36.046352 ], [ -87.110641, 36.045459 ], [ -87.106124, 36.045167 ], [ -87.092814, 36.044249 ], [ -87.084916, 36.043805 ], [ -87.084008, 36.043874 ], [ -87.077616, 36.044083 ], [ -87.071066, 36.044307 ], [ -87.066897, 36.044499 ], [ -87.053722, 36.045582 ], [ -87.051917, 36.038439 ], [ -87.048335, 36.024842 ], [ -87.045351, 36.012597 ], [ -87.042946, 36.002727 ], [ -87.04155, 35.997062 ], [ -87.040749, 35.993825 ], [ -87.040288, 35.991944 ], [ -87.039386, 35.989242 ], [ -87.039223, 35.989286 ], [ -87.03197, 35.989752 ], [ -87.028336, 35.989857 ], [ -87.026471, 35.991078 ], [ -87.024785, 35.992078 ], [ -87.023023, 35.993202 ], [ -87.022766, 35.993368 ], [ -87.018781, 35.995913 ], [ -87.016437, 35.997617 ], [ -87.016082, 35.997874 ], [ -87.00728, 36.003433 ], [ -87.001496, 36.007057 ], [ -86.987551, 36.015781 ], [ -86.980605, 36.020184 ], [ -86.97964, 36.020799 ], [ -86.976824, 36.02258 ], [ -86.974663, 36.023965 ], [ -86.968487, 36.027906 ], [ -86.962984, 36.031386 ], [ -86.953413, 36.037347 ], [ -86.951924, 36.038287 ], [ -86.951472, 36.038555 ], [ -86.94876, 36.040284 ], [ -86.947362, 36.041178 ], [ -86.947012, 36.0414 ], [ -86.946907, 36.041468 ], [ -86.946823, 36.041523 ], [ -86.946786, 36.041547 ], [ -86.946675, 36.041619 ], [ -86.946639, 36.041644 ], [ -86.946608, 36.041664 ], [ -86.946517, 36.041724 ], [ -86.946487, 36.041745 ], [ -86.946388, 36.0418 ], [ -86.946035, 36.042024 ], [ -86.943581, 36.043578 ], [ -86.939161, 36.046332 ], [ -86.936415, 36.048156 ], [ -86.928861, 36.052942 ], [ -86.928602, 36.052909 ], [ -86.926473, 36.052638 ], [ -86.921686, 36.052023 ], [ -86.919745, 36.051774 ], [ -86.919116, 36.051693 ], [ -86.91684, 36.051403 ], [ -86.908797, 36.050398 ], [ -86.903024, 36.04969 ], [ -86.896719, 36.04892 ], [ -86.893385, 36.048515 ], [ -86.885613, 36.047526 ], [ -86.88458, 36.047389 ], [ -86.883805, 36.047286 ], [ -86.882165, 36.04707 ], [ -86.872219, 36.045769 ], [ -86.864761, 36.044896 ], [ -86.864957, 36.044672 ], [ -86.857964, 36.04407 ], [ -86.856722, 36.043963 ], [ -86.856653, 36.043966 ], [ -86.849077, 36.043011 ], [ -86.845354, 36.04246 ], [ -86.842077, 36.042086 ], [ -86.837533, 36.041561 ], [ -86.832753, 36.041024 ], [ -86.831486, 36.04088 ], [ -86.824578, 36.040116 ], [ -86.822299, 36.039865 ], [ -86.819766, 36.039586 ], [ -86.816472, 36.039217 ], [ -86.801178, 36.037589 ], [ -86.79782, 36.037318 ], [ -86.795019, 36.037092 ], [ -86.794688, 36.037066 ], [ -86.793914, 36.036967 ], [ -86.790875, 36.036715 ], [ -86.787205, 36.035999 ], [ -86.785814, 36.035625 ], [ -86.784238, 36.035217 ], [ -86.783268, 36.034946 ], [ -86.783079, 36.034886 ], [ -86.781367, 36.034324 ], [ -86.777128, 36.033239 ], [ -86.777073, 36.033218 ], [ -86.769095, 36.029216 ], [ -86.766345, 36.027823 ], [ -86.764379, 36.026782 ], [ -86.762631, 36.025857 ], [ -86.760444, 36.024699 ], [ -86.755889, 36.022288 ], [ -86.750323, 36.019339 ], [ -86.746348, 36.017267 ], [ -86.740607, 36.014275 ], [ -86.740049, 36.014894 ], [ -86.740599, 36.015591 ], [ -86.74135, 36.017555 ], [ -86.742203, 36.019831 ], [ -86.742676, 36.021752 ], [ -86.742381, 36.02437 ], [ -86.742369, 36.024368 ], [ -86.74352, 36.026479 ], [ -86.744092, 36.028654 ], [ -86.743958, 36.030472 ], [ -86.743547, 36.034431 ], [ -86.743485, 36.036907 ], [ -86.743455, 36.038063 ], [ -86.743507, 36.040019 ], [ -86.744143, 36.043424 ], [ -86.74386, 36.046285 ], [ -86.743751, 36.047326 ], [ -86.74332, 36.050917 ], [ -86.743094, 36.052207 ], [ -86.74266, 36.0551 ], [ -86.74139, 36.05931 ], [ -86.738153, 36.066055 ], [ -86.737651, 36.067066 ], [ -86.737346, 36.067669 ], [ -86.738328, 36.068031 ], [ -86.739334, 36.068462 ], [ -86.739949, 36.068726 ], [ -86.742773, 36.068779 ], [ -86.743419, 36.068749 ], [ -86.745206, 36.068801 ], [ -86.746264, 36.069291 ], [ -86.745362, 36.069927 ], [ -86.748441, 36.073423 ], [ -86.748755, 36.074516 ], [ -86.750567, 36.074575 ], [ -86.754844, 36.074706 ], [ -86.754794, 36.075794 ], [ -86.755213, 36.077743 ], [ -86.755143, 36.080148 ], [ -86.755389, 36.081113 ], [ -86.758369, 36.081073 ], [ -86.76002, 36.081511 ], [ -86.760874, 36.081808 ], [ -86.761704, 36.082103 ], [ -86.763717, 36.082518 ], [ -86.763247, 36.085156 ], [ -86.763057, 36.08623 ], [ -86.762543, 36.08931 ], [ -86.762449, 36.093221 ], [ -86.762922, 36.09634 ], [ -86.763679, 36.099 ], [ -86.764845, 36.101532 ], [ -86.765455, 36.102855 ], [ -86.771069, 36.111118 ], [ -86.771777, 36.112199 ], [ -86.772114, 36.112223 ], [ -86.773427, 36.115894 ], [ -86.773785, 36.115839 ], [ -86.774851, 36.115706 ], [ -86.78343, 36.115831 ], [ -86.786848, 36.115973 ], [ -86.791793, 36.116073 ], [ -86.79171, 36.116334 ], [ -86.795783, 36.116124 ], [ -86.798196, 36.116386 ], [ -86.800594, 36.118142 ], [ -86.804081, 36.121886 ], [ -86.806739, 36.123216 ], [ -86.810511, 36.123957 ], [ -86.812642, 36.124633 ], [ -86.814209, 36.126079 ], [ -86.816625, 36.12976 ], [ -86.816672, 36.129353 ], [ -86.819409, 36.133462 ], [ -86.821594, 36.136896 ], [ -86.823548, 36.13531 ], [ -86.825066, 36.134657 ], [ -86.825283, 36.134577 ], [ -86.825812, 36.134384 ], [ -86.827717, 36.133729 ], [ -86.828289, 36.133495 ], [ -86.829424, 36.133088 ], [ -86.83069, 36.132634 ], [ -86.831516, 36.132329 ], [ -86.833558, 36.131652 ], [ -86.83432, 36.131431 ], [ -86.834575, 36.131354 ], [ -86.835617, 36.131017 ], [ -86.83679, 36.130643 ], [ -86.837784, 36.130308 ], [ -86.838481, 36.130072 ], [ -86.838656, 36.130016 ], [ -86.841646, 36.128767 ], [ -86.843884, 36.127573 ], [ -86.84568, 36.126367 ], [ -86.846494, 36.125824 ], [ -86.847638, 36.124985 ], [ -86.849643, 36.12356 ], [ -86.850189, 36.123134 ], [ -86.85132, 36.122313 ], [ -86.854941, 36.119608 ], [ -86.8552, 36.119426 ], [ -86.855582, 36.11952 ], [ -86.858472, 36.117399 ], [ -86.861625, 36.115074 ], [ -86.862788, 36.115289 ], [ -86.868334, 36.116143 ], [ -86.87058, 36.116501 ], [ -86.873248, 36.116942 ], [ -86.876494, 36.117259 ], [ -86.875927, 36.118611 ], [ -86.874494, 36.120119 ], [ -86.872851, 36.121556 ], [ -86.871944, 36.122902 ], [ -86.8721, 36.124068 ], [ -86.873982, 36.126409 ], [ -86.873647, 36.128702 ], [ -86.873271, 36.129394 ], [ -86.8698, 36.12987 ], [ -86.868459, 36.131083 ], [ -86.870068, 36.132689 ], [ -86.872608, 36.133924 ], [ -86.87471, 36.135163 ], [ -86.876837, 36.136198 ], [ -86.879414, 36.137752 ], [ -86.880563, 36.139069 ], [ -86.884254, 36.14152 ], [ -86.884998, 36.141689 ], [ -86.885213, 36.141729 ], [ -86.878456, 36.146749 ], [ -86.875119, 36.148779 ], [ -86.874496, 36.149046 ], [ -86.876194, 36.150106 ], [ -86.877377, 36.150935 ], [ -86.87902, 36.152227 ], [ -86.879877, 36.153646 ], [ -86.879263, 36.154335 ], [ -86.878099, 36.154678 ], [ -86.877683, 36.155761 ], [ -86.877011, 36.158064 ], [ -86.876077, 36.15944 ], [ -86.87591, 36.159635 ], [ -86.874667, 36.161388 ], [ -86.873828, 36.16209 ], [ -86.873051, 36.16245 ], [ -86.872416, 36.162621 ], [ -86.869215, 36.163589 ], [ -86.868365, 36.163838 ], [ -86.868185, 36.163892 ], [ -86.867669, 36.164044 ], [ -86.86643, 36.164481 ], [ -86.86576, 36.165012 ], [ -86.865392, 36.165436 ], [ -86.865079, 36.165878 ], [ -86.863493, 36.165003 ], [ -86.863135, 36.165423 ], [ -86.862804, 36.165839 ], [ -86.861279, 36.164993 ], [ -86.860876, 36.165407 ], [ -86.860537, 36.165847 ], [ -86.860171, 36.166235 ], [ -86.858629, 36.165403 ], [ -86.858308, 36.165813 ], [ -86.857132, 36.166238 ], [ -86.855964, 36.166338 ], [ -86.855824, 36.166259 ], [ -86.855841, 36.165764 ], [ -86.855803, 36.165178 ], [ -86.855768, 36.164635 ], [ -86.854517, 36.164678 ], [ -86.854481, 36.164128 ], [ -86.853228, 36.164159 ], [ -86.853213, 36.164753 ], [ -86.853262, 36.166166 ], [ -86.853362, 36.169016 ], [ -86.853339, 36.169924 ], [ -86.851391, 36.168742 ], [ -86.848977, 36.167717 ], [ -86.846112, 36.166889 ], [ -86.842019, 36.166614 ], [ -86.839103, 36.167608 ], [ -86.837765, 36.168904 ], [ -86.834499, 36.173872 ], [ -86.833489, 36.17606 ], [ -86.832779, 36.178437 ], [ -86.831645, 36.182977 ], [ -86.830755, 36.18274 ], [ -86.824261, 36.180955 ], [ -86.823395, 36.180816 ], [ -86.821977, 36.180652 ], [ -86.819608, 36.180409 ], [ -86.819489, 36.180405 ], [ -86.817908, 36.180353 ], [ -86.816262, 36.180303 ], [ -86.815953, 36.180281 ], [ -86.814602, 36.18022 ], [ -86.814464, 36.180214 ], [ -86.813132, 36.180158 ], [ -86.811845, 36.180112 ], [ -86.81104, 36.180074 ], [ -86.810421, 36.180051 ], [ -86.809776, 36.180035 ], [ -86.809511, 36.180026 ], [ -86.808702, 36.180057 ], [ -86.807906, 36.180109 ], [ -86.807654, 36.180129 ], [ -86.807086, 36.180161 ], [ -86.806608, 36.180191 ], [ -86.806324, 36.180211 ], [ -86.806126, 36.180225 ], [ -86.805623, 36.180261 ], [ -86.805133, 36.180291 ], [ -86.804819, 36.180316 ], [ -86.804477, 36.180344 ], [ -86.804041, 36.180372 ], [ -86.803815, 36.180397 ], [ -86.803206, 36.180431 ], [ -86.803048, 36.180442 ], [ -86.801567, 36.180586 ], [ -86.800523, 36.180272 ], [ -86.801036, 36.17734 ], [ -86.801244, 36.174422 ], [ -86.80058, 36.172901 ], [ -86.798912, 36.171428 ], [ -86.799206, 36.171335 ], [ -86.798813, 36.170742 ], [ -86.798207, 36.169843 ], [ -86.797626, 36.169002 ], [ -86.797307, 36.168524 ], [ -86.797015, 36.168087 ], [ -86.79637, 36.167156 ], [ -86.796081, 36.166737 ], [ -86.795237, 36.165513 ], [ -86.795226, 36.165495 ], [ -86.79485, 36.164904 ], [ -86.794364, 36.165106 ], [ -86.794222, 36.165166 ], [ -86.793766, 36.164041 ], [ -86.793322, 36.164239 ], [ -86.793003, 36.16275 ], [ -86.792679, 36.1612 ], [ -86.791758, 36.161606 ], [ -86.790614, 36.162117 ], [ -86.790035, 36.162373 ], [ -86.788542, 36.163033 ], [ -86.7878, 36.163379 ], [ -86.786626, 36.163872 ], [ -86.786463, 36.163945 ], [ -86.786415, 36.163968 ], [ -86.786343, 36.163996 ], [ -86.7856, 36.164269 ], [ -86.784373, 36.16479 ], [ -86.783798, 36.165037 ], [ -86.783149, 36.165315 ], [ -86.782616, 36.165554 ], [ -86.781908, 36.165859 ], [ -86.780696, 36.166357 ], [ -86.779435, 36.166882 ], [ -86.779616, 36.167154 ], [ -86.778611, 36.167609 ], [ -86.777418, 36.168157 ], [ -86.777013, 36.168331 ], [ -86.776358, 36.168612 ], [ -86.775698, 36.168894 ], [ -86.775325, 36.169055 ], [ -86.772796, 36.170143 ], [ -86.772395, 36.170297 ], [ -86.770412, 36.170941 ], [ -86.769038, 36.171432 ], [ -86.768383, 36.171674 ], [ -86.768206, 36.171749 ], [ -86.770807, 36.174503 ], [ -86.770982, 36.174433 ], [ -86.772688, 36.176755 ], [ -86.773296, 36.177729 ], [ -86.773496, 36.178196 ], [ -86.774011, 36.179394 ], [ -86.774093, 36.179599 ], [ -86.774182, 36.179819 ], [ -86.774232, 36.179945 ], [ -86.774283, 36.180071 ], [ -86.77505, 36.182209 ], [ -86.775971, 36.186233 ], [ -86.776137, 36.187965 ], [ -86.776261, 36.190694 ], [ -86.776269, 36.192947 ], [ -86.776168, 36.194682 ], [ -86.776148, 36.195587 ], [ -86.776122, 36.196592 ], [ -86.77684, 36.201309 ], [ -86.776481, 36.206508 ], [ -86.775466, 36.214562 ], [ -86.775206, 36.216825 ], [ -86.774915, 36.21938 ], [ -86.774563, 36.224229 ], [ -86.774392, 36.225789 ], [ -86.771549, 36.23012 ], [ -86.771251, 36.23016 ], [ -86.768322, 36.233038 ], [ -86.765349, 36.234919 ], [ -86.762919, 36.235997 ], [ -86.757934, 36.237544 ], [ -86.757898, 36.237795 ], [ -86.755052, 36.238846 ], [ -86.75186, 36.240703 ], [ -86.751652, 36.240867 ], [ -86.750265, 36.241935 ], [ -86.74397, 36.247077 ], [ -86.741455, 36.250094 ], [ -86.741285, 36.250033 ], [ -86.735535, 36.249282 ], [ -86.734463, 36.249178 ], [ -86.732331, 36.248962 ], [ -86.728628, 36.248599 ], [ -86.724704, 36.248294 ], [ -86.72364, 36.248225 ], [ -86.723056, 36.248187 ], [ -86.720357, 36.24801 ], [ -86.720301, 36.248092 ], [ -86.719416, 36.249398 ], [ -86.718263, 36.251116 ], [ -86.71769, 36.25192 ], [ -86.717257, 36.252558 ], [ -86.716828, 36.253242 ], [ -86.715236, 36.255011 ], [ -86.714387, 36.256191 ], [ -86.713977, 36.257265 ], [ -86.71356, 36.258441 ], [ -86.713051, 36.259893 ], [ -86.712865, 36.260369 ], [ -86.712531, 36.261242 ], [ -86.71221, 36.262211 ], [ -86.712044, 36.262713 ], [ -86.711926, 36.263071 ], [ -86.711354, 36.264651 ], [ -86.711041, 36.265852 ], [ -86.71091, 36.266908 ], [ -86.710776, 36.267932 ], [ -86.710612, 36.269323 ], [ -86.710478, 36.270209 ], [ -86.710367, 36.271092 ], [ -86.71016, 36.272784 ], [ -86.710045, 36.273448 ], [ -86.709719, 36.276128 ], [ -86.70694, 36.27863 ], [ -86.70192, 36.281816 ], [ -86.698629, 36.284164 ], [ -86.69681, 36.286963 ], [ -86.693457, 36.286919 ], [ -86.692848, 36.286285 ], [ -86.69313, 36.287746 ], [ -86.693387, 36.288737 ], [ -86.693754, 36.28877 ], [ -86.693424, 36.288941 ], [ -86.693899, 36.291017 ], [ -86.696462, 36.293835 ], [ -86.699187, 36.296936 ], [ -86.696606, 36.299795 ], [ -86.69478, 36.300787 ], [ -86.692722, 36.302142 ], [ -86.691853, 36.302757 ], [ -86.693844, 36.30591 ], [ -86.694407, 36.306847 ], [ -86.694563, 36.307422 ], [ -86.694587, 36.307528 ], [ -86.69459, 36.307666 ], [ -86.694845, 36.307602 ], [ -86.696479, 36.310861 ], [ -86.698821, 36.312446 ], [ -86.699021, 36.314633 ], [ -86.69936, 36.316065 ], [ -86.700158, 36.317557 ], [ -86.700527, 36.31831 ], [ -86.698931, 36.319284 ], [ -86.698699, 36.320479 ], [ -86.699445, 36.323081 ], [ -86.69953, 36.325196 ], [ -86.700579, 36.32623 ], [ -86.699705, 36.327249 ], [ -86.699304, 36.327723 ], [ -86.699271, 36.327749 ], [ -86.698944, 36.32813 ], [ -86.698422, 36.328825 ], [ -86.69784, 36.329509 ], [ -86.697758, 36.329606 ], [ -86.697092, 36.330383 ], [ -86.696648, 36.330903 ], [ -86.694275, 36.333908 ], [ -86.692301, 36.334905 ], [ -86.688429, 36.335159 ], [ -86.683538, 36.337018 ], [ -86.681459, 36.338715 ], [ -86.681299, 36.33927 ], [ -86.681267, 36.339377 ], [ -86.675649, 36.340107 ], [ -86.67539, 36.337031 ], [ -86.675252, 36.335388 ], [ -86.675735, 36.331649 ], [ -86.673992, 36.332339 ], [ -86.671916, 36.332128 ], [ -86.66856, 36.333917 ], [ -86.668546, 36.333909 ], [ -86.668504, 36.333887 ], [ -86.668465, 36.333866 ], [ -86.665016, 36.332432 ], [ -86.664502, 36.331969 ], [ -86.663821, 36.332036 ], [ -86.662194, 36.332406 ], [ -86.659964, 36.333105 ], [ -86.659133, 36.33298 ], [ -86.659444, 36.329624 ], [ -86.658421, 36.329566 ], [ -86.657153, 36.328929 ], [ -86.65704, 36.328015 ], [ -86.655664, 36.325648 ], [ -86.659059, 36.323792 ], [ -86.660301, 36.321759 ], [ -86.660225, 36.320291 ], [ -86.659552, 36.318996 ], [ -86.660024, 36.317397 ], [ -86.662036, 36.315987 ], [ -86.663913, 36.313912 ], [ -86.664837, 36.312593 ], [ -86.664909, 36.312484 ], [ -86.665632, 36.311085 ], [ -86.666075, 36.309344 ], [ -86.662567, 36.308944 ], [ -86.661814, 36.308858 ], [ -86.657235, 36.307877 ], [ -86.654277, 36.306614 ], [ -86.6544, 36.306191 ], [ -86.652174, 36.303592 ], [ -86.6512, 36.302834 ], [ -86.649123, 36.301471 ], [ -86.648379, 36.301206 ], [ -86.644294, 36.301545 ], [ -86.642058, 36.301289 ], [ -86.640582, 36.301101 ], [ -86.639446, 36.300962 ], [ -86.637683, 36.300903 ], [ -86.637266, 36.300986 ], [ -86.638593, 36.289013 ], [ -86.637928, 36.288689 ], [ -86.636577, 36.288167 ], [ -86.636502, 36.288942 ], [ -86.635823, 36.288897 ], [ -86.635585, 36.289128 ], [ -86.635897, 36.289683 ], [ -86.635958, 36.290123 ], [ -86.636412, 36.291272 ], [ -86.636242, 36.291316 ], [ -86.634465, 36.289336 ], [ -86.634045, 36.289006 ], [ -86.63359, 36.288929 ], [ -86.633318, 36.289121 ], [ -86.632605, 36.289154 ], [ -86.632382, 36.288621 ], [ -86.631988, 36.289022 ], [ -86.631505, 36.289786 ], [ -86.631342, 36.290434 ], [ -86.630942, 36.289571 ], [ -86.630433, 36.2894 ], [ -86.630698, 36.288587 ], [ -86.630882, 36.288367 ], [ -86.630556, 36.287565 ], [ -86.629728, 36.28718 ], [ -86.630136, 36.286663 ], [ -86.630001, 36.286042 ], [ -86.629044, 36.285053 ], [ -86.629119, 36.284591 ], [ -86.629514, 36.283855 ], [ -86.630844, 36.283383 ], [ -86.63147, 36.28257 ], [ -86.631341, 36.282124 ], [ -86.631029, 36.282108 ], [ -86.630268, 36.282454 ], [ -86.629779, 36.282855 ], [ -86.629168, 36.283552 ], [ -86.628014, 36.283892 ], [ -86.627253, 36.284343 ], [ -86.626498, 36.285656 ], [ -86.626261, 36.285645 ], [ -86.62654, 36.284749 ], [ -86.626133, 36.284727 ], [ -86.626445, 36.284353 ], [ -86.627003, 36.283249 ], [ -86.626942, 36.283106 ], [ -86.626127, 36.282869 ], [ -86.626522, 36.282226 ], [ -86.626997, 36.281804 ], [ -86.627221, 36.281392 ], [ -86.627086, 36.281243 ], [ -86.627554, 36.280979 ], [ -86.627575, 36.280661 ], [ -86.627105, 36.280208 ], [ -86.62444, 36.278313 ], [ -86.62404, 36.277413 ], [ -86.626748, 36.278825 ], [ -86.628004, 36.278798 ], [ -86.629463, 36.279749 ], [ -86.630827, 36.279668 ], [ -86.631527, 36.278767 ], [ -86.631296, 36.277871 ], [ -86.632221, 36.276354 ], [ -86.631781, 36.273628 ], [ -86.630262, 36.272616 ], [ -86.631789, 36.272073 ], [ -86.633039, 36.270837 ], [ -86.632157, 36.269891 ], [ -86.632967, 36.267386 ], [ -86.631854, 36.266902 ], [ -86.634304, 36.266782 ], [ -86.635871, 36.268547 ], [ -86.636407, 36.267689 ], [ -86.634447, 36.265809 ], [ -86.63514, 36.265573 ], [ -86.635337, 36.264309 ], [ -86.63451, 36.262748 ], [ -86.63506, 36.262715 ], [ -86.633915, 36.260538 ], [ -86.631595, 36.258482 ], [ -86.628647, 36.262828 ], [ -86.627929, 36.263049 ], [ -86.627881, 36.261508 ], [ -86.629254, 36.259701 ], [ -86.628807, 36.258233 ], [ -86.630232, 36.257454 ], [ -86.629928, 36.256596 ], [ -86.627445, 36.254858 ], [ -86.624035, 36.252898 ], [ -86.623479, 36.252988 ], [ -86.622476, 36.254809 ], [ -86.622502, 36.256219 ], [ -86.621592, 36.255088 ], [ -86.619405, 36.256362 ], [ -86.61954, 36.255029 ], [ -86.621385, 36.254139 ], [ -86.622169, 36.252235 ], [ -86.621001, 36.251524 ], [ -86.619855, 36.251754 ], [ -86.617954, 36.250367 ], [ -86.616231, 36.249866 ], [ -86.615689, 36.250093 ], [ -86.614543, 36.250283 ], [ -86.612579, 36.248395 ], [ -86.611338, 36.248621 ], [ -86.610259, 36.249489 ], [ -86.610161, 36.250953 ], [ -86.609468, 36.251942 ], [ -86.609085, 36.248314 ], [ -86.606846, 36.248199 ], [ -86.605727, 36.24904 ], [ -86.601446, 36.249883 ], [ -86.601696, 36.252025 ], [ -86.602994, 36.252021 ], [ -86.602834, 36.253252 ], [ -86.601547, 36.252912 ], [ -86.604449, 36.257405 ], [ -86.606663, 36.259041 ], [ -86.607095, 36.260351 ], [ -86.608951, 36.259625 ], [ -86.608618, 36.260618 ], [ -86.602219, 36.264773 ], [ -86.602037, 36.264 ], [ -86.603983, 36.25999 ], [ -86.603093, 36.25814 ], [ -86.601384, 36.258497 ], [ -86.599143, 36.257665 ], [ -86.597662, 36.255715 ], [ -86.595549, 36.257361 ], [ -86.594421, 36.257117 ], [ -86.594427, 36.256257 ], [ -86.595643, 36.255627 ], [ -86.596322, 36.254164 ], [ -86.595613, 36.253563 ], [ -86.594742, 36.254441 ], [ -86.592856, 36.253315 ], [ -86.594464, 36.252488 ], [ -86.593071, 36.251266 ], [ -86.591891, 36.251291 ], [ -86.589995, 36.252118 ], [ -86.587908, 36.253502 ], [ -86.58711, 36.255171 ], [ -86.586512, 36.254454 ], [ -86.585081, 36.255467 ], [ -86.586135, 36.256792 ], [ -86.584067, 36.256393 ], [ -86.582786, 36.256945 ], [ -86.582166, 36.257903 ], [ -86.583112, 36.258599 ], [ -86.581629, 36.258375 ], [ -86.58142, 36.260097 ], [ -86.58258, 36.262656 ], [ -86.581205, 36.261263 ], [ -86.580241, 36.259238 ], [ -86.579161, 36.25974 ], [ -86.578187, 36.260979 ], [ -86.576042, 36.262128 ], [ -86.575873, 36.263421 ], [ -86.574584, 36.263534 ], [ -86.57494, 36.264952 ], [ -86.573885, 36.264612 ], [ -86.573282, 36.266201 ], [ -86.574447, 36.268142 ], [ -86.573464, 36.268036 ], [ -86.572114, 36.266739 ], [ -86.570922, 36.269129 ], [ -86.572785, 36.269568 ], [ -86.571943, 36.27145 ], [ -86.570279, 36.270276 ], [ -86.56956, 36.272217 ], [ -86.57011, 36.273164 ], [ -86.569106, 36.273739 ], [ -86.568977, 36.276322 ], [ -86.570165, 36.277841 ], [ -86.572625, 36.278502 ], [ -86.574851, 36.2767 ], [ -86.574179, 36.2785 ], [ -86.575768, 36.280266 ], [ -86.577863, 36.281213 ], [ -86.576609, 36.282414 ], [ -86.574615, 36.280998 ], [ -86.573334, 36.280836 ], [ -86.572325, 36.281434 ], [ -86.571975, 36.282558 ], [ -86.570905, 36.2814 ], [ -86.569801, 36.281355 ], [ -86.569123, 36.282428 ], [ -86.568192, 36.282478 ], [ -86.569554, 36.283287 ], [ -86.569167, 36.284803 ], [ -86.568982, 36.285466 ], [ -86.570254, 36.285611 ], [ -86.569816, 36.286342 ], [ -86.571287, 36.287378 ], [ -86.572306, 36.290201 ], [ -86.571733, 36.289966 ], [ -86.569079, 36.287798 ], [ -86.568642, 36.288423 ], [ -86.569432, 36.290103 ], [ -86.572424, 36.295174 ], [ -86.572992, 36.298796 ], [ -86.573632, 36.302269 ], [ -86.576778, 36.303868 ], [ -86.578558, 36.304361 ], [ -86.576326, 36.304513 ], [ -86.574945, 36.304103 ], [ -86.571354, 36.304518 ], [ -86.570191, 36.305364 ], [ -86.570284, 36.306194 ], [ -86.575018, 36.31085 ], [ -86.578891, 36.313022 ], [ -86.576996, 36.313594 ], [ -86.576562, 36.315512 ], [ -86.575706, 36.314476 ], [ -86.575876, 36.315519 ], [ -86.577685, 36.31786 ], [ -86.577889, 36.318523 ], [ -86.578476, 36.31977 ], [ -86.573262, 36.321949 ], [ -86.570949, 36.322905 ], [ -86.565206, 36.325303 ], [ -86.565115, 36.325344 ], [ -86.564373, 36.325695 ], [ -86.561919, 36.326939 ], [ -86.558348, 36.32867 ], [ -86.558118, 36.328765 ], [ -86.553601, 36.330055 ], [ -86.551592, 36.330828 ], [ -86.549538, 36.33215 ], [ -86.548754, 36.332896 ], [ -86.548521, 36.333134 ], [ -86.546178, 36.335018 ], [ -86.538135, 36.338609 ], [ -86.53805, 36.338648 ], [ -86.530432, 36.343265 ], [ -86.52469, 36.346125 ], [ -86.524411, 36.346248 ], [ -86.519971, 36.347654 ], [ -86.514805, 36.348932 ], [ -86.512518, 36.349745 ], [ -86.511791, 36.348617 ], [ -86.510553, 36.347921 ], [ -86.510417, 36.347979 ], [ -86.503853, 36.34667 ], [ -86.499202, 36.345357 ], [ -86.496206, 36.34269 ], [ -86.496144, 36.33993 ], [ -86.494799, 36.337213 ], [ -86.491555, 36.334707 ], [ -86.489935, 36.334488 ], [ -86.486312, 36.331912 ], [ -86.485392, 36.331624 ], [ -86.480294, 36.331296 ], [ -86.480517, 36.328628 ], [ -86.48004, 36.326376 ], [ -86.47873, 36.324288 ], [ -86.476967, 36.322922 ], [ -86.474093, 36.32145 ], [ -86.472606, 36.322449 ], [ -86.468031, 36.326195 ], [ -86.459414, 36.331299 ], [ -86.457073, 36.332865 ], [ -86.451721, 36.335629 ], [ -86.447305, 36.336297 ], [ -86.444737, 36.336877 ], [ -86.438225, 36.339441 ], [ -86.437184, 36.339656 ], [ -86.433665, 36.340017 ], [ -86.430937, 36.339441 ], [ -86.428008, 36.338461 ], [ -86.422552, 36.335753 ], [ -86.41884, 36.333489 ], [ -86.418392, 36.332837 ], [ -86.417712, 36.327553 ], [ -86.418552, 36.32207 ], [ -86.417304, 36.317594 ], [ -86.41544, 36.313698 ], [ -86.413166, 36.31215 ], [ -86.409961, 36.309268 ], [ -86.407812, 36.307702 ], [ -86.405004, 36.306248 ], [ -86.402791, 36.305941 ], [ -86.401068, 36.30589 ], [ -86.395583, 36.306666 ], [ -86.393113, 36.307671 ], [ -86.391863, 36.308812 ], [ -86.391289, 36.309353 ], [ -86.390778, 36.309855 ], [ -86.38916, 36.313086 ], [ -86.38912, 36.317446 ], [ -86.39044, 36.322682 ], [ -86.389728, 36.327817 ], [ -86.388208, 36.332969 ], [ -86.38624, 36.337625 ], [ -86.383992, 36.341005 ], [ -86.380816, 36.344649 ], [ -86.376888, 36.350921 ], [ -86.375705, 36.352119 ], [ -86.370409, 36.356134 ], [ -86.366388, 36.357746 ], [ -86.363902, 36.358063 ], [ -86.361323, 36.357684 ], [ -86.358691, 36.356488 ], [ -86.355366, 36.354428 ], [ -86.352971, 36.352696 ], [ -86.351025, 36.352292 ], [ -86.346517, 36.345112 ], [ -86.345651, 36.34089 ], [ -86.346094, 36.329848 ], [ -86.346839, 36.328841 ], [ -86.349405, 36.326806 ], [ -86.353223, 36.324803 ], [ -86.356287, 36.322251 ], [ -86.361281, 36.315434 ], [ -86.361626, 36.31442 ], [ -86.362023, 36.311505 ], [ -86.360512, 36.309843 ], [ -86.358539, 36.309236 ], [ -86.356661, 36.309475 ], [ -86.354816, 36.309711 ], [ -86.348547, 36.312299 ], [ -86.344832, 36.314195 ], [ -86.339858, 36.316497 ], [ -86.336409, 36.317877 ], [ -86.333865, 36.318525 ], [ -86.330452, 36.318772 ], [ -86.32074, 36.316919 ], [ -86.315952, 36.315397 ], [ -86.307046, 36.312894 ], [ -86.300075, 36.312374 ], [ -86.298452, 36.313634 ], [ -86.298289, 36.315367 ], [ -86.297198, 36.320008 ], [ -86.296613, 36.324065 ], [ -86.296429, 36.334636 ], [ -86.295987, 36.336491 ], [ -86.294477, 36.339005 ], [ -86.290883, 36.343376 ], [ -86.287291, 36.346174 ], [ -86.283256, 36.3475 ], [ -86.27911, 36.348523 ], [ -86.275903, 36.348476 ], [ -86.272764, 36.347579 ], [ -86.26913, 36.344862 ], [ -86.267291, 36.341395 ], [ -86.265761, 36.337369 ], [ -86.264578, 36.331102 ], [ -86.264643, 36.328292 ], [ -86.266212, 36.325639 ], [ -86.271176, 36.318233 ], [ -86.27258, 36.315441 ], [ -86.273072, 36.313277 ], [ -86.27347, 36.309364 ], [ -86.272664, 36.307286 ], [ -86.269869, 36.304243 ], [ -86.266136, 36.300863 ], [ -86.263446, 36.299448 ], [ -86.260942, 36.299665 ], [ -86.257999, 36.300393 ], [ -86.252546, 36.302829 ], [ -86.249275, 36.30582 ], [ -86.248042, 36.308446 ], [ -86.247399, 36.311521 ], [ -86.247391, 36.317587 ], [ -86.24775, 36.323038 ], [ -86.248322, 36.327415 ], [ -86.247123, 36.331121 ], [ -86.245715, 36.334643 ], [ -86.244456, 36.336405 ], [ -86.230096, 36.349172 ], [ -86.228669, 36.349217 ], [ -86.226251, 36.348957 ], [ -86.226996, 36.342692 ], [ -86.223078, 36.342138 ], [ -86.217884, 36.341625 ], [ -86.21533, 36.343248 ], [ -86.212355, 36.344674 ], [ -86.210505, 36.343825 ], [ -86.209252, 36.342842 ], [ -86.207752, 36.342621 ], [ -86.20656, 36.342659 ], [ -86.206404, 36.336509 ], [ -86.204069, 36.332321 ], [ -86.199587, 36.327931 ], [ -86.197593, 36.326234 ], [ -86.189251, 36.320088 ], [ -86.186203, 36.319225 ], [ -86.184277, 36.319287 ], [ -86.180825, 36.321587 ], [ -86.177011, 36.325961 ], [ -86.175916, 36.328836 ], [ -86.175016, 36.328234 ], [ -86.174463, 36.327865 ], [ -86.164045, 36.320899 ], [ -86.159645, 36.31715 ], [ -86.155776, 36.31385 ], [ -86.156139, 36.3121 ], [ -86.155546, 36.310292 ], [ -86.15224, 36.310835 ], [ -86.150426, 36.309289 ], [ -86.144659, 36.304502 ], [ -86.142554, 36.302184 ], [ -86.136803, 36.295859 ], [ -86.131986, 36.2945 ], [ -86.126152, 36.294086 ], [ -86.122725, 36.302204 ], [ -86.120437, 36.307093 ], [ -86.117752, 36.31208 ], [ -86.115365, 36.316086 ], [ -86.110847, 36.323269 ], [ -86.106304, 36.329426 ], [ -86.101179, 36.335825 ], [ -86.099781, 36.337294 ], [ -86.096321, 36.34103 ], [ -86.095461, 36.341934 ], [ -86.094692, 36.342786 ], [ -86.092701, 36.344911 ], [ -86.087993, 36.349194 ], [ -86.083741, 36.352946 ], [ -86.0809, 36.355367 ], [ -86.074062, 36.360475 ], [ -86.069371, 36.363802 ], [ -86.065762, 36.366119 ], [ -86.059973, 36.369881 ], [ -86.057938, 36.371041 ], [ -86.053976, 36.373301 ], [ -86.047819, 36.376419 ], [ -86.042645, 36.379004 ], [ -86.041372, 36.379594 ], [ -86.040759, 36.379864 ], [ -86.036052, 36.38198 ], [ -86.021166, 36.385738 ], [ -86.018029, 36.38766 ], [ -86.018515, 36.388426 ], [ -86.011622, 36.390091 ], [ -86.007672, 36.391311 ], [ -86.006425, 36.391721 ], [ -86.002267, 36.393006 ], [ -85.998215, 36.393385 ], [ -85.990417, 36.395343 ], [ -85.985046, 36.394934 ], [ -85.982708, 36.395903 ], [ -85.982407, 36.397949 ], [ -85.981444, 36.398853 ], [ -85.98108, 36.400167 ], [ -85.977143, 36.405076 ], [ -85.976495, 36.406567 ], [ -85.976151, 36.410672 ], [ -85.975665, 36.411321 ], [ -85.976796, 36.412331 ], [ -85.977024, 36.414199 ], [ -85.976329, 36.415407 ], [ -85.971785, 36.418348 ], [ -85.971071, 36.419107 ], [ -85.972642, 36.421285 ], [ -85.974742, 36.422535 ], [ -85.976597, 36.422002 ], [ -85.978859, 36.422093 ], [ -85.979774, 36.424709 ], [ -85.978893, 36.426073 ], [ -85.967445, 36.424515 ], [ -85.967057, 36.42448 ], [ -85.949391, 36.422908 ], [ -85.947281, 36.420861 ], [ -85.946416, 36.420106 ], [ -85.943719, 36.421233 ], [ -85.942014, 36.422378 ], [ -85.933095, 36.421394 ], [ -85.925467, 36.420588 ], [ -85.925192, 36.420559 ], [ -85.916779, 36.41967 ], [ -85.908774, 36.418827 ], [ -85.903948, 36.418427 ], [ -85.904031, 36.415785 ], [ -85.898201, 36.415528 ], [ -85.898676, 36.417103 ], [ -85.898232, 36.418311 ], [ -85.895719, 36.420556 ], [ -85.894588, 36.417935 ], [ -85.893977, 36.41792 ], [ -85.891704, 36.4176 ], [ -85.877563, 36.415588 ], [ -85.868616, 36.41548 ], [ -85.867457, 36.415467 ], [ -85.851248, 36.415035 ], [ -85.843875, 36.414026 ], [ -85.828026, 36.411836 ], [ -85.827798, 36.412935 ], [ -85.827779, 36.413037 ], [ -85.827476, 36.41496 ], [ -85.823337, 36.440914 ], [ -85.821927, 36.44988 ], [ -85.820864, 36.455925 ], [ -85.818918, 36.468067 ], [ -85.818866, 36.468384 ], [ -85.816022, 36.486685 ], [ -85.815221, 36.491028 ], [ -85.813885, 36.499473 ], [ -85.813243, 36.505854 ], [ -85.812979, 36.508635 ], [ -85.812504, 36.512449 ], [ -85.811498, 36.516234 ], [ -85.809668, 36.530311 ], [ -85.809257, 36.534167 ], [ -85.807882, 36.546971 ], [ -85.807145, 36.552475 ], [ -85.806077, 36.556687 ], [ -85.80217, 36.574802 ], [ -85.801862, 36.576785 ], [ -85.801082, 36.581786 ], [ -85.799686, 36.591174 ], [ -85.798956, 36.596131 ], [ -85.797667, 36.604329 ], [ -85.797304, 36.608604 ], [ -85.796462, 36.613541 ], [ -85.793027, 36.613267 ], [ -85.791408, 36.614482 ], [ -85.788455, 36.614979 ], [ -85.788004, 36.615403 ], [ -85.788358, 36.617621 ], [ -85.788695, 36.619368 ], [ -85.788726, 36.622048 ], [ -85.790002, 36.622076 ], [ -85.797424, 36.622186 ], [ -85.80286, 36.622171 ], [ -85.805075, 36.622168 ], [ -85.831974, 36.622101 ], [ -85.860043, 36.623305 ], [ -85.875956, 36.623999 ], [ -85.908447, 36.625458 ], [ -85.918692, 36.625917 ], [ -85.919498, 36.625948 ], [ -85.920732, 36.626003 ], [ -85.921962, 36.626058 ], [ -85.928325, 36.626342 ], [ -85.934747, 36.62663 ], [ -85.936385, 36.626702 ], [ -85.956216, 36.627589 ], [ -85.972488, 36.628319 ], [ -85.976418, 36.628493 ], [ -85.978915, 36.628583 ], [ -86.002973, 36.629443 ], [ -86.005019, 36.629517 ], [ -86.021654, 36.630159 ], [ -86.032405, 36.630708 ], [ -86.052161, 36.632108 ], [ -86.059349, 36.63263 ], [ -86.062673, 36.632865 ], [ -86.073242, 36.633619 ], [ -86.081794, 36.634035 ], [ -86.0943, 36.634593 ], [ -86.104827, 36.635061 ], [ -86.11429, 36.635482 ], [ -86.114501, 36.635491 ], [ -86.128206, 36.636103 ], [ -86.155383, 36.63732 ], [ -86.16114, 36.637574 ], [ -86.165435, 36.637764 ], [ -86.182033, 36.638915 ], [ -86.186562, 36.639235 ], [ -86.197528, 36.639708 ], [ -86.197753, 36.639721 ], [ -86.20444, 36.640129 ], [ -86.205388, 36.640184 ], [ -86.215895, 36.640769 ], [ -86.225329, 36.641286 ], [ -86.236155, 36.641878 ], [ -86.244565, 36.642421 ], [ -86.251936, 36.642893 ], [ -86.264418, 36.643663 ], [ -86.273432, 36.644176 ], [ -86.293112, 36.645296 ], [ -86.296197, 36.645565 ], [ -86.321782, 36.647798 ], [ -86.332126, 36.648701 ], [ -86.340076, 36.648971 ], [ -86.347433, 36.64922 ], [ -86.351432, 36.649399 ], [ -86.358661, 36.649726 ], [ -86.373638, 36.650062 ], [ -86.401659, 36.650701 ], [ -86.411379, 36.650924 ], [ -86.431186, 36.651271 ], [ -86.459689, 36.651692 ], [ -86.473184, 36.651912 ], [ -86.485832, 36.652117 ], [ -86.499931, 36.652271 ], [ -86.507128, 36.652372 ], [ -86.507781, 36.652379 ], [ -86.522085, 36.647637 ], [ -86.536254, 36.642936 ], [ -86.539206, 36.641959 ], [ -86.543822, 36.640427 ], [ -86.543352, 36.643855 ], [ -86.545708, 36.644177 ], [ -86.549943, 36.644759 ], [ -86.551222, 36.637998 ], [ -86.5621, 36.63432 ], [ -86.563909, 36.633562 ], [ -86.566004, 36.63487 ], [ -86.571184, 36.638677 ], [ -86.571442, 36.638869 ], [ -86.577937, 36.643645 ], [ -86.589906, 36.652443 ], [ -86.594227, 36.652348 ], [ -86.596523, 36.652297 ], [ -86.62221, 36.651726 ], [ -86.65091, 36.650922 ], [ -86.653037, 36.650862 ], [ -86.677581, 36.650202 ], [ -86.679071, 36.650164 ], [ -86.692534, 36.649771 ], [ -86.699116, 36.649658 ], [ -86.711329, 36.649422 ], [ -86.713764, 36.64936 ], [ -86.729415, 36.649001 ], [ -86.734208, 36.648898 ], [ -86.749904, 36.648939 ], [ -86.763296, 36.648954 ], [ -86.77533, 36.648674 ], [ -86.787599, 36.648387 ], [ -86.803533, 36.648015 ], [ -86.812858, 36.647797 ], [ -86.83289, 36.647401 ], [ -86.843383, 36.647193 ], [ -86.846136, 36.647138 ], [ -86.85404, 36.647006 ], [ -86.859995, 36.646952 ], [ -86.874392, 36.646827 ], [ -86.894064, 36.646611 ], [ -86.901056, 36.646487 ], [ -86.91979, 36.645921 ], [ -86.926653, 36.645616 ], [ -86.928899, 36.645551 ], [ -86.952133, 36.645035 ], [ -86.973459, 36.644524 ], [ -86.980882, 36.64437 ], [ -86.987462, 36.644337 ], [ -86.999989, 36.644296 ], [ -87.00859, 36.644105 ], [ -87.050989, 36.643158 ], [ -87.070339, 36.642734 ], [ -87.085593, 36.64264 ], [ -87.106152, 36.642467 ], [ -87.114983, 36.642371 ], [ -87.12991, 36.642221 ], [ -87.155792, 36.642112 ], [ -87.159651, 36.642098 ], [ -87.167997, 36.642062 ], [ -87.172343, 36.642044 ], [ -87.197882, 36.641937 ], [ -87.20356, 36.641913 ], [ -87.212793, 36.641875 ], [ -87.248362, 36.641725 ], [ -87.264568, 36.641741 ], [ -87.275209, 36.64176 ], [ -87.281491, 36.64177 ], [ -87.285582, 36.641769 ], [ -87.294815, 36.641744 ], [ -87.300909, 36.641725 ], [ -87.314919, 36.641683 ], [ -87.339338, 36.641637 ], [ -87.339759, 36.641635 ], [ -87.340409, 36.64163 ], [ -87.347638, 36.641585 ], [ -87.355062, 36.641541 ], [ -87.361977, 36.641499 ], [ -87.37376, 36.641425 ], [ -87.37376, 36.641004 ], [ -87.373761, 36.640177 ], [ -87.373772, 36.639345 ], [ -87.373318, 36.637471 ], [ -87.37349, 36.636231 ], [ -87.373666, 36.635811 ], [ -87.374433, 36.635307 ], [ -87.375993, 36.634884 ], [ -87.377108, 36.634469 ], [ -87.378444, 36.633999 ], [ -87.37929, 36.630097 ], [ -87.380655, 36.630633 ], [ -87.382499, 36.631321 ], [ -87.383591, 36.628322 ], [ -87.382937, 36.625912 ], [ -87.38552, 36.623913 ], [ -87.385558, 36.623495 ], [ -87.381169, 36.623163 ], [ -87.37856, 36.622964 ], [ -87.375827, 36.62271 ], [ -87.374901, 36.622311 ], [ -87.375381, 36.620958 ], [ -87.375986, 36.6187 ], [ -87.378231, 36.610095 ], [ -87.378416, 36.608945 ], [ -87.378784, 36.60639 ], [ -87.379322, 36.602793 ], [ -87.380884, 36.600315 ], [ -87.381241, 36.596686 ], [ -87.382931, 36.594614 ], [ -87.385513, 36.593664 ], [ -87.387783, 36.592901 ], [ -87.389718, 36.591775 ], [ -87.390819, 36.590737 ], [ -87.390713, 36.587881 ], [ -87.393617, 36.588156 ], [ -87.393731, 36.586792 ], [ -87.395188, 36.586911 ], [ -87.395243, 36.586567 ], [ -87.391016, 36.58613 ], [ -87.391032, 36.586012 ], [ -87.391097, 36.585593 ], [ -87.391651, 36.582155 ], [ -87.392761, 36.582287 ], [ -87.393828, 36.582423 ], [ -87.3971, 36.582734 ], [ -87.396983, 36.581762 ], [ -87.396434, 36.578758 ], [ -87.398055, 36.579036 ], [ -87.398239, 36.580785 ], [ -87.399385, 36.580971 ], [ -87.40073, 36.581124 ], [ -87.400286, 36.58383 ], [ -87.401508, 36.584704 ], [ -87.40208, 36.581266 ], [ -87.403435, 36.581406 ], [ -87.404783, 36.581549 ], [ -87.405167, 36.579413 ], [ -87.406106, 36.57839 ], [ -87.405407, 36.57806 ], [ -87.401363, 36.577221 ], [ -87.401587, 36.57598 ], [ -87.401757, 36.574925 ], [ -87.402123, 36.572696 ], [ -87.402271, 36.57166 ], [ -87.402596, 36.569618 ], [ -87.404742, 36.569126 ], [ -87.402872, 36.565151 ], [ -87.402284, 36.564233 ], [ -87.401968, 36.5638 ], [ -87.399787, 36.560841 ], [ -87.39929, 36.560168 ], [ -87.396598, 36.56139 ], [ -87.396367, 36.561494 ], [ -87.396287, 36.562684 ], [ -87.394056, 36.562516 ], [ -87.393193, 36.56208 ], [ -87.393302, 36.561055 ], [ -87.390221, 36.560001 ], [ -87.389849, 36.559889 ], [ -87.390224, 36.558974 ], [ -87.390699, 36.558395 ], [ -87.392585, 36.55854 ], [ -87.392499, 36.557734 ], [ -87.393077, 36.556866 ], [ -87.391949, 36.556347 ], [ -87.392102, 36.55548 ], [ -87.391385, 36.553554 ], [ -87.392257, 36.553428 ], [ -87.390938, 36.552389 ], [ -87.389895, 36.551311 ], [ -87.389896, 36.551271 ], [ -87.3899, 36.551189 ], [ -87.389657, 36.551199 ], [ -87.389556, 36.551198 ], [ -87.388999, 36.551188 ], [ -87.388526, 36.551153 ], [ -87.388496, 36.551151 ], [ -87.388185, 36.55111 ], [ -87.38858, 36.549084 ], [ -87.390937, 36.549361 ], [ -87.391075, 36.549368 ], [ -87.391159, 36.549355 ], [ -87.391205, 36.549346 ], [ -87.392002, 36.549193 ], [ -87.392268, 36.549143 ], [ -87.392239, 36.549045 ], [ -87.392154, 36.548752 ], [ -87.392126, 36.548655 ], [ -87.391141, 36.545075 ], [ -87.390391, 36.54096 ], [ -87.389442, 36.539747 ], [ -87.389113, 36.538944 ], [ -87.391627, 36.538496 ], [ -87.395628, 36.537315 ], [ -87.399975, 36.535593 ], [ -87.404495, 36.53327 ], [ -87.409121, 36.529209 ], [ -87.40975, 36.528254 ], [ -87.410155, 36.529133 ], [ -87.41643, 36.54274 ], [ -87.420116, 36.543208 ], [ -87.42352, 36.542994 ], [ -87.423522, 36.547524 ], [ -87.430918, 36.54889 ], [ -87.432738, 36.547251 ], [ -87.432964, 36.546528 ], [ -87.437294, 36.545505 ], [ -87.439788, 36.543874 ], [ -87.441826, 36.543541 ], [ -87.442726, 36.538406 ], [ -87.443405, 36.537665 ], [ -87.445064, 36.537139 ], [ -87.447852, 36.535619 ], [ -87.449776, 36.535187 ], [ -87.454642, 36.535565 ], [ -87.45361, 36.536935 ], [ -87.452286, 36.540058 ], [ -87.451444, 36.544044 ], [ -87.45151, 36.546097 ], [ -87.450692, 36.551556 ], [ -87.450661, 36.551815 ], [ -87.456681, 36.55104 ], [ -87.459793, 36.550635 ], [ -87.464037, 36.550083 ], [ -87.467186, 36.550184 ], [ -87.468693, 36.550615 ], [ -87.47206, 36.551152 ], [ -87.477021, 36.551249 ], [ -87.48222, 36.551676 ], [ -87.489231, 36.552151 ], [ -87.495625, 36.551758 ], [ -87.499803, 36.552031 ], [ -87.501831, 36.551731 ], [ -87.511423, 36.547908 ], [ -87.514256, 36.547036 ], [ -87.514304, 36.547024 ], [ -87.516896, 36.546368 ], [ -87.519882, 36.545568 ], [ -87.529504, 36.541528 ], [ -87.532102, 36.540408 ], [ -87.532113, 36.540245 ], [ -87.535175, 36.539391 ], [ -87.55464, 36.535499 ], [ -87.557018, 36.535183 ], [ -87.557111, 36.535372 ], [ -87.560911, 36.535482 ], [ -87.562847, 36.535836 ], [ -87.565092, 36.536504 ], [ -87.564406, 36.542824 ], [ -87.57694, 36.54295 ], [ -87.57782, 36.540161 ], [ -87.579012, 36.540296 ], [ -87.579167, 36.538362 ], [ -87.579183, 36.538162 ], [ -87.582375, 36.537821 ], [ -87.586779, 36.537435 ], [ -87.589503, 36.53762 ], [ -87.607218, 36.540526 ], [ -87.613645, 36.541587 ], [ -87.626071, 36.542825 ], [ -87.624905, 36.535639 ], [ -87.623076, 36.525892 ], [ -87.620954, 36.514439 ], [ -87.619965, 36.509107 ], [ -87.617425, 36.495848 ], [ -87.616933, 36.493329 ], [ -87.61479, 36.482346 ], [ -87.612502, 36.470617 ], [ -87.610588, 36.460735 ], [ -87.609479, 36.45499 ], [ -87.606564, 36.43986 ], [ -87.603427, 36.425932 ], [ -87.603744, 36.425276 ], [ -87.603201, 36.422162 ], [ -87.603124, 36.421672 ], [ -87.60307, 36.421398 ], [ -87.603056, 36.421328 ], [ -87.603048, 36.421288 ], [ -87.603011, 36.4211 ], [ -87.602987, 36.420976 ], [ -87.602984, 36.420961 ], [ -87.602963, 36.420852 ], [ -87.602788, 36.419952 ], [ -87.602597, 36.418979 ], [ -87.602409, 36.418017 ], [ -87.601001, 36.410802 ], [ -87.598903, 36.400043 ], [ -87.59403, 36.375053 ], [ -87.592358, 36.367663 ], [ -87.592009, 36.366132 ], [ -87.589999, 36.357335 ], [ -87.589709, 36.356066 ], [ -87.587951, 36.347122 ], [ -87.586957, 36.34178 ], [ -87.581535, 36.34126 ], [ -87.571519, 36.340282 ], [ -87.564016, 36.339567 ], [ -87.551612, 36.338379 ], [ -87.548228, 36.338058 ], [ -87.545826, 36.337828 ], [ -87.536397, 36.336947 ], [ -87.530815, 36.33636 ], [ -87.521409, 36.335418 ], [ -87.519949, 36.335285 ], [ -87.513533, 36.334713 ], [ -87.515181, 36.320186 ], [ -87.516777, 36.306827 ], [ -87.517129, 36.304279 ], [ -87.517339, 36.302757 ], [ -87.517559, 36.30117 ], [ -87.518897, 36.291534 ], [ -87.519512, 36.286586 ], [ -87.520416, 36.279236 ], [ -87.518795, 36.279227 ], [ -87.519007, 36.277163 ], [ -87.519183, 36.275453 ], [ -87.519468, 36.272683 ], [ -87.521223, 36.272685 ], [ -87.522329, 36.263895 ], [ -87.523935, 36.251242 ], [ -87.523627, 36.24889 ], [ -87.531262, 36.249678 ], [ -87.531479, 36.249701 ], [ -87.53168, 36.24896 ], [ -87.531815, 36.247775 ], [ -87.532368, 36.247126 ], [ -87.532361, 36.246745 ], [ -87.532282, 36.24659 ], [ -87.532068, 36.243028 ], [ -87.53062, 36.240946 ], [ -87.529206, 36.240333 ], [ -87.530378, 36.232598 ], [ -87.530407, 36.232422 ], [ -87.533106, 36.22829 ], [ -87.538308, 36.220408 ], [ -87.54157, 36.215558 ], [ -87.541735, 36.215309 ], [ -87.544237, 36.211541 ], [ -87.559096, 36.189235 ], [ -87.566609, 36.177934 ], [ -87.566798, 36.177857 ], [ -87.566629, 36.177415 ], [ -87.56222, 36.165844 ], [ -87.561542, 36.163954 ], [ -87.55781, 36.153535 ], [ -87.556754, 36.150586 ], [ -87.55477, 36.145048 ], [ -87.55305, 36.140176 ], [ -87.552566, 36.138822 ], [ -87.552182, 36.137745 ], [ -87.551806, 36.137514 ], [ -87.551483, 36.134017 ], [ -87.549653, 36.123104 ], [ -87.54644, 36.105007 ], [ -87.546182, 36.103582 ], [ -87.544519, 36.094158 ], [ -87.544599, 36.093575 ], [ -87.544625, 36.093383 ], [ -87.546795, 36.077477 ], [ -87.547721, 36.070691 ], [ -87.548271, 36.066708 ], [ -87.54917, 36.060078 ], [ -87.549431, 36.059306 ], [ -87.549259, 36.0576 ], [ -87.54857, 36.05631 ], [ -87.545962, 36.056272 ], [ -87.545398, 36.05558 ], [ -87.545567, 36.053314 ], [ -87.546217, 36.05126 ], [ -87.546112, 36.050206 ], [ -87.545801, 36.049978 ], [ -87.545367, 36.049632 ], [ -87.545351, 36.049346 ], [ -87.545335, 36.049044 ], [ -87.545253, 36.048495 ], [ -87.545345, 36.047528 ], [ -87.545311, 36.047125 ], [ -87.545298, 36.046641 ], [ -87.545594, 36.046031 ], [ -87.545827, 36.045871 ], [ -87.546165, 36.045641 ], [ -87.546623, 36.04554 ], [ -87.546971, 36.045552 ], [ -87.547773, 36.045135 ], [ -87.548407, 36.043772 ], [ -87.547548, 36.043155 ], [ -87.548313, 36.041882 ], [ -87.549134, 36.041056 ], [ -87.548551, 36.040135 ], [ -87.547983, 36.039554 ], [ -87.549311, 36.038099 ], [ -87.550513, 36.035784 ], [ -87.550766, 36.03236 ], [ -87.54986, 36.031347 ], [ -87.549548, 36.031318 ], [ -87.549118, 36.031148 ], [ -87.548804, 36.030839 ], [ -87.548787, 36.030677 ], [ -87.548776, 36.030318 ], [ -87.548773, 36.030225 ], [ -87.548687, 36.029845 ], [ -87.548401, 36.029722 ], [ -87.548011, 36.029648 ], [ -87.54751, 36.029552 ], [ -87.547117, 36.029291 ], [ -87.546854, 36.028926 ], [ -87.546861, 36.028383 ], [ -87.54601, 36.022781 ], [ -87.548682, 36.021938 ], [ -87.548402, 36.020316 ], [ -87.548839, 36.019433 ], [ -87.549898, 36.018175 ], [ -87.552305, 36.017211 ], [ -87.552372, 36.016007 ] ] ] ] } }
]
}
