{
"type": "FeatureCollection",
"name": "id_8",
"crs": { "type": "name", "properties": { "name": "urn:ogc:def:crs:OGC:1.3:CRS84" } },
"xy_coordinate_resolution": 1e-15,
"features": [
{ "type": "Feature", "properties": { "id": 8.0, "NAME": "8.0", "TotalPop": 767871.0, "PopDevPct": -0.0, "DemPct": 0.401, "RepPct": 0.581, "WhitePct": 0.628, "MinorityPc": 0.372, "BlackPct": 0.266, "HispanicPc": 0.057, "PacificPct": 0.001, "AsianPct": 0.031, "NativePct": 0.018, "TotalVAP": 590123.0, "Margin": -0.099, "color": "#38ffbf", "opacity": "0.5" }, "geometry": { "type": "MultiPolygon", "coordinates": [ [ [ [ -87.717559, 35.483347 ], [ -87.716995, 35.48838 ], [ -87.716609, 35.491818 ], [ -87.716161, 35.495824 ], [ -87.715944, 35.49776 ], [ -87.71197, 35.49753 ], [ -87.711014, 35.505289 ], [ -87.690651, 35.505329 ], [ -87.689989, 35.511298 ], [ -87.689992, 35.51135 ], [ -87.688957, 35.520532 ], [ -87.687622, 35.532369 ], [ -87.686748, 35.540039 ], [ -87.685834, 35.548065 ], [ -87.686135, 35.549052 ], [ -87.686434, 35.549552 ], [ -87.686867, 35.549822 ], [ -87.688165, 35.550173 ], [ -87.688493, 35.551525 ], [ -87.687529, 35.552813 ], [ -87.684083, 35.553419 ], [ -87.681693, 35.554185 ], [ -87.681279, 35.555502 ], [ -87.68198, 35.556737 ], [ -87.681102, 35.557715 ], [ -87.679008, 35.55652 ], [ -87.678228, 35.554766 ], [ -87.676964, 35.554227 ], [ -87.6765, 35.553322 ], [ -87.67491, 35.55337 ], [ -87.673996, 35.551907 ], [ -87.673469, 35.551434 ], [ -87.671018, 35.551369 ], [ -87.670431, 35.551917 ], [ -87.669348, 35.553257 ], [ -87.667748, 35.553534 ], [ -87.666428, 35.553102 ], [ -87.665545, 35.552903 ], [ -87.665327, 35.553815 ], [ -87.665252, 35.55503 ], [ -87.664426, 35.55515 ], [ -87.663459, 35.555512 ], [ -87.663744, 35.556303 ], [ -87.663703, 35.557426 ], [ -87.662708, 35.558352 ], [ -87.661639, 35.558468 ], [ -87.661373, 35.558647 ], [ -87.660789, 35.559668 ], [ -87.65932, 35.559864 ], [ -87.659225, 35.559859 ], [ -87.659117, 35.559853 ], [ -87.658961, 35.559848 ], [ -87.658708, 35.559849 ], [ -87.658092, 35.560106 ], [ -87.658058, 35.560158 ], [ -87.657955, 35.560327 ], [ -87.657899, 35.560419 ], [ -87.657798, 35.560682 ], [ -87.655622, 35.563542 ], [ -87.654958, 35.563316 ], [ -87.652899, 35.564674 ], [ -87.652291, 35.564668 ], [ -87.652178, 35.564677 ], [ -87.652068, 35.564713 ], [ -87.651755, 35.564864 ], [ -87.651637, 35.56507 ], [ -87.651599, 35.565293 ], [ -87.651901, 35.56608 ], [ -87.652254, 35.566373 ], [ -87.652884, 35.567202 ], [ -87.652935, 35.567659 ], [ -87.652973, 35.568067 ], [ -87.652781, 35.568355 ], [ -87.652312, 35.568599 ], [ -87.651707, 35.568615 ], [ -87.65161, 35.568596 ], [ -87.651424, 35.56856 ], [ -87.651199, 35.568605 ], [ -87.651007, 35.568762 ], [ -87.650954, 35.569076 ], [ -87.651009, 35.569331 ], [ -87.651131, 35.569489 ], [ -87.651289, 35.569547 ], [ -87.651447, 35.569649 ], [ -87.651707, 35.569868 ], [ -87.651779, 35.570025 ], [ -87.65179, 35.570222 ], [ -87.651735, 35.570292 ], [ -87.651521, 35.570443 ], [ -87.651075, 35.570316 ], [ -87.650629, 35.570765 ], [ -87.651445, 35.571883 ], [ -87.651662, 35.571968 ], [ -87.651962, 35.572086 ], [ -87.652101, 35.572343 ], [ -87.652111, 35.572601 ], [ -87.652002, 35.572771 ], [ -87.651825, 35.572835 ], [ -87.651598, 35.572844 ], [ -87.651138, 35.572761 ], [ -87.651056, 35.572753 ], [ -87.650989, 35.572748 ], [ -87.650524, 35.572725 ], [ -87.650383, 35.57291 ], [ -87.650404, 35.573136 ], [ -87.650631, 35.573302 ], [ -87.650734, 35.573393 ], [ -87.650774, 35.576111 ], [ -87.649795, 35.57723 ], [ -87.648788, 35.579876 ], [ -87.650702, 35.58136 ], [ -87.651767, 35.583763 ], [ -87.651205, 35.585876 ], [ -87.650929, 35.586729 ], [ -87.650306, 35.587523 ], [ -87.649454, 35.58824 ], [ -87.648534, 35.590869 ], [ -87.651558, 35.593218 ], [ -87.651761, 35.594798 ], [ -87.652412, 35.595701 ], [ -87.654922, 35.596942 ], [ -87.654929, 35.598147 ], [ -87.655777, 35.598793 ], [ -87.655434, 35.600633 ], [ -87.656738, 35.602083 ], [ -87.656644, 35.604217 ], [ -87.657684, 35.605872 ], [ -87.657557, 35.607973 ], [ -87.658189, 35.609349 ], [ -87.660768, 35.609005 ], [ -87.661749, 35.610861 ], [ -87.660767, 35.612532 ], [ -87.661496, 35.614365 ], [ -87.663028, 35.615524 ], [ -87.66376, 35.61589 ], [ -87.665489, 35.617772 ], [ -87.667394, 35.618462 ], [ -87.668075, 35.619025 ], [ -87.669131, 35.619514 ], [ -87.671363, 35.621058 ], [ -87.67231, 35.621064 ], [ -87.67313, 35.621812 ], [ -87.67324, 35.622545 ], [ -87.673398, 35.622819 ], [ -87.67404, 35.623019 ], [ -87.674761, 35.623598 ], [ -87.675758, 35.624192 ], [ -87.675759, 35.624547 ], [ -87.676193, 35.625069 ], [ -87.676451, 35.625755 ], [ -87.676483, 35.627054 ], [ -87.676818, 35.627497 ], [ -87.677729, 35.627496 ], [ -87.679732, 35.627834 ], [ -87.681024, 35.629575 ], [ -87.683879, 35.629951 ], [ -87.685279, 35.631144 ], [ -87.686891, 35.633702 ], [ -87.688176, 35.634283 ], [ -87.692921, 35.634509 ], [ -87.693858, 35.635875 ], [ -87.695822, 35.637089 ], [ -87.697091, 35.63855 ], [ -87.698152, 35.638141 ], [ -87.699575, 35.638271 ], [ -87.700945, 35.639197 ], [ -87.702668, 35.639389 ], [ -87.703261, 35.640647 ], [ -87.704248, 35.641348 ], [ -87.706355, 35.641604 ], [ -87.707489, 35.642425 ], [ -87.708172, 35.644022 ], [ -87.708057, 35.645353 ], [ -87.710556, 35.645286 ], [ -87.711889, 35.646954 ], [ -87.714457, 35.646314 ], [ -87.716515, 35.646755 ], [ -87.718664, 35.648326 ], [ -87.71905, 35.649173 ], [ -87.7211, 35.650074 ], [ -87.724306, 35.650347 ], [ -87.726062, 35.652478 ], [ -87.726113, 35.654479 ], [ -87.72757, 35.655065 ], [ -87.729606, 35.654491 ], [ -87.730642, 35.655224 ], [ -87.732977, 35.655915 ], [ -87.733083, 35.656931 ], [ -87.73385, 35.657701 ], [ -87.73574, 35.658303 ], [ -87.73729, 35.659455 ], [ -87.737238, 35.660213 ], [ -87.738249, 35.66036 ], [ -87.739199, 35.661494 ], [ -87.741955, 35.661907 ], [ -87.743122, 35.663436 ], [ -87.74375, 35.663952 ], [ -87.741369, 35.67929 ], [ -87.738932, 35.695047 ], [ -87.738738, 35.696346 ], [ -87.737811, 35.702342 ], [ -87.72596, 35.701485 ], [ -87.723959, 35.704263 ], [ -87.710669, 35.703616 ], [ -87.710185, 35.70861 ], [ -87.709976, 35.71012 ], [ -87.716475, 35.710097 ], [ -87.716957, 35.710365 ], [ -87.717123, 35.710788 ], [ -87.720335, 35.718966 ], [ -87.72428, 35.728996 ], [ -87.726823, 35.729308 ], [ -87.727364, 35.725628 ], [ -87.732847, 35.72625 ], [ -87.732935, 35.72626 ], [ -87.731499, 35.736123 ], [ -87.731434, 35.736564 ], [ -87.729828, 35.747718 ], [ -87.729565, 35.750066 ], [ -87.727844, 35.761963 ], [ -87.72782, 35.762125 ], [ -87.726538, 35.77099 ], [ -87.726353, 35.772265 ], [ -87.724758, 35.7833 ], [ -87.723737, 35.790356 ], [ -87.723072, 35.794962 ], [ -87.720805, 35.81092 ], [ -87.719153, 35.82229 ], [ -87.719092, 35.822707 ], [ -87.718541, 35.8265 ], [ -87.717337, 35.834782 ], [ -87.71676, 35.83875 ], [ -87.728446, 35.83855 ], [ -87.73438, 35.838448 ], [ -87.738966, 35.838369 ], [ -87.741457, 35.838327 ], [ -87.754787, 35.838019 ], [ -87.794528, 35.83724 ], [ -87.796038, 35.83721 ], [ -87.799554, 35.837142 ], [ -87.818202, 35.836779 ], [ -87.817775, 35.835562 ], [ -87.818697, 35.833095 ], [ -87.819657, 35.832262 ], [ -87.818794, 35.830681 ], [ -87.819471, 35.829293 ], [ -87.821734, 35.828706 ], [ -87.821768, 35.827391 ], [ -87.822756, 35.825859 ], [ -87.823863, 35.825513 ], [ -87.824812, 35.824343 ], [ -87.825957, 35.823921 ], [ -87.828897, 35.824421 ], [ -87.830977, 35.822939 ], [ -87.833063, 35.822393 ], [ -87.835184, 35.823381 ], [ -87.83805, 35.822976 ], [ -87.840638, 35.822154 ], [ -87.841959, 35.821255 ], [ -87.843544, 35.821043 ], [ -87.844142, 35.820724 ], [ -87.845548, 35.81723 ], [ -87.846224, 35.816266 ], [ -87.846006, 35.815179 ], [ -87.846622, 35.813339 ], [ -87.846478, 35.81192 ], [ -87.847302, 35.810563 ], [ -87.846809, 35.808429 ], [ -87.848527, 35.807997 ], [ -87.847848, 35.806458 ], [ -87.847879, 35.804483 ], [ -87.849328, 35.803997 ], [ -87.852682, 35.803799 ], [ -87.854039, 35.80436 ], [ -87.855172, 35.805751 ], [ -87.857676, 35.806365 ], [ -87.857582, 35.807316 ], [ -87.859376, 35.808366 ], [ -87.860493, 35.808145 ], [ -87.863483, 35.80883 ], [ -87.864564, 35.809512 ], [ -87.865204, 35.810985 ], [ -87.867351, 35.811374 ], [ -87.870751, 35.812992 ], [ -87.874182, 35.813021 ], [ -87.875616, 35.814222 ], [ -87.87562, 35.815697 ], [ -87.878246, 35.818133 ], [ -87.882984, 35.818705 ], [ -87.88495, 35.820691 ], [ -87.88447, 35.821375 ], [ -87.885062, 35.822069 ], [ -87.888934, 35.822424 ], [ -87.89059, 35.822993 ], [ -87.890711, 35.823839 ], [ -87.893127, 35.824858 ], [ -87.896138, 35.824159 ], [ -87.898385, 35.824702 ], [ -87.900777, 35.824367 ], [ -87.901321, 35.825164 ], [ -87.902701, 35.825556 ], [ -87.903611, 35.826569 ], [ -87.904572, 35.828622 ], [ -87.907096, 35.829229 ], [ -87.907374, 35.82997 ], [ -87.90916, 35.830998 ], [ -87.9104, 35.830931 ], [ -87.91088, 35.832678 ], [ -87.909632, 35.834034 ], [ -87.911374, 35.836424 ], [ -87.910297, 35.838336 ], [ -87.927075, 35.838598 ], [ -87.935414, 35.838728 ], [ -87.945526, 35.839394 ], [ -87.945709, 35.839326 ], [ -87.947712, 35.838602 ], [ -87.950066, 35.839858 ], [ -87.954549, 35.840239 ], [ -87.955661, 35.840317 ], [ -87.958382, 35.840532 ], [ -87.959064, 35.840593 ], [ -87.96274, 35.840921 ], [ -87.964456, 35.838846 ], [ -87.966952, 35.834755 ], [ -87.968987, 35.828827 ], [ -87.969798, 35.824651 ], [ -87.970738, 35.815705 ], [ -87.974034, 35.816014 ], [ -87.975801, 35.816187 ], [ -87.976504, 35.81625 ], [ -87.976854, 35.816281 ], [ -87.984403, 35.816959 ], [ -87.986827, 35.816324 ], [ -87.989875, 35.816203 ], [ -87.992928, 35.812747 ], [ -87.994674, 35.812564 ], [ -87.996287, 35.811301 ], [ -87.998675, 35.811545 ], [ -87.999528, 35.812608 ], [ -88.001564, 35.813556 ], [ -88.00258, 35.813624 ], [ -88.003245, 35.814957 ], [ -88.00259, 35.815795 ], [ -88.003612, 35.81638 ], [ -88.005558, 35.815957 ], [ -88.006927, 35.816284 ], [ -88.008688, 35.815119 ], [ -88.011427, 35.815756 ], [ -88.014188, 35.813746 ], [ -88.013215, 35.812742 ], [ -88.013722, 35.812033 ], [ -88.015428, 35.812022 ], [ -88.017336, 35.811107 ], [ -88.021072, 35.811723 ], [ -88.023583, 35.811011 ], [ -88.028195, 35.811021 ], [ -88.028059, 35.812631 ], [ -88.027587, 35.817878 ], [ -88.026631, 35.829579 ], [ -88.026901, 35.831959 ], [ -88.028832, 35.832685 ], [ -88.028624, 35.837168 ], [ -88.030201, 35.837899 ], [ -88.029505, 35.839786 ], [ -88.029504, 35.839803 ], [ -88.030523, 35.839779 ], [ -88.033555, 35.84366 ], [ -88.035218, 35.844084 ], [ -88.035862, 35.84303 ], [ -88.036977, 35.842646 ], [ -88.038974, 35.8434 ], [ -88.042611, 35.842789 ], [ -88.043378, 35.843049 ], [ -88.044003, 35.844533 ], [ -88.045959, 35.845561 ], [ -88.047923, 35.847049 ], [ -88.051564, 35.847904 ], [ -88.051772, 35.849975 ], [ -88.059716, 35.85031 ], [ -88.061464, 35.850329 ], [ -88.061741, 35.848374 ], [ -88.062006, 35.845037 ], [ -88.07498, 35.845035 ], [ -88.076282, 35.842453 ], [ -88.077954, 35.841732 ], [ -88.078297, 35.840996 ], [ -88.079559, 35.84072 ], [ -88.080819, 35.839795 ], [ -88.082688, 35.839513 ], [ -88.083836, 35.838249 ], [ -88.084519, 35.837774 ], [ -88.084281, 35.841266 ], [ -88.084272, 35.841546 ], [ -88.084223, 35.842688 ], [ -88.085844, 35.842621 ], [ -88.087923, 35.842538 ], [ -88.095692, 35.842942 ], [ -88.118324, 35.844265 ], [ -88.125037, 35.84482 ], [ -88.126511, 35.844784 ], [ -88.13807, 35.845292 ], [ -88.150374, 35.845421 ], [ -88.152957, 35.845481 ], [ -88.162339, 35.845268 ], [ -88.173002, 35.845891 ], [ -88.177859, 35.845841 ], [ -88.182057, 35.846004 ], [ -88.192564, 35.84633 ], [ -88.199035, 35.846246 ], [ -88.210207, 35.846446 ], [ -88.217436, 35.846582 ], [ -88.217538, 35.847433 ], [ -88.217321, 35.852344 ], [ -88.217124, 35.867862 ], [ -88.217059, 35.872318 ], [ -88.216781, 35.877152 ], [ -88.225048, 35.877192 ], [ -88.224996, 35.879488 ], [ -88.224728, 35.886389 ], [ -88.21844, 35.88618 ], [ -88.216598, 35.886147 ], [ -88.216542, 35.892599 ], [ -88.216512, 35.893774 ], [ -88.216237, 35.90479 ], [ -88.21581, 35.921924 ], [ -88.21536, 35.937029 ], [ -88.215259, 35.945014 ], [ -88.215023, 35.953049 ], [ -88.214831, 35.961429 ], [ -88.21482, 35.961995 ], [ -88.214594, 35.974416 ], [ -88.214442, 35.982752 ], [ -88.214235, 35.994718 ], [ -88.214211, 35.996657 ], [ -88.213903, 36.008889 ], [ -88.213786, 36.013546 ], [ -88.213617, 36.021936 ], [ -88.21352, 36.027522 ], [ -88.213352, 36.035073 ], [ -88.213372, 36.038446 ], [ -88.213376, 36.038912 ], [ -88.213342, 36.042228 ], [ -88.213244, 36.051744 ], [ -88.213197, 36.055369 ], [ -88.213126, 36.059894 ], [ -88.213005, 36.069379 ], [ -88.21296, 36.077621 ], [ -88.212911, 36.083065 ], [ -88.21272, 36.104052 ], [ -88.212668, 36.10947 ], [ -88.212559, 36.12029 ], [ -88.212527, 36.125058 ], [ -88.212242, 36.132618 ], [ -88.21183, 36.143545 ], [ -88.211698, 36.145974 ], [ -88.215103, 36.146061 ], [ -88.230894, 36.14639 ], [ -88.233091, 36.146445 ], [ -88.239082, 36.146597 ], [ -88.245988, 36.146804 ], [ -88.254423, 36.146898 ], [ -88.261683, 36.14705 ], [ -88.263418, 36.147083 ], [ -88.278108, 36.147432 ], [ -88.286228, 36.147569 ], [ -88.304699, 36.147883 ], [ -88.32348, 36.148058 ], [ -88.324097, 36.148386 ], [ -88.327228, 36.148091 ], [ -88.345295, 36.148255 ], [ -88.361248, 36.148417 ], [ -88.370459, 36.148508 ], [ -88.376038, 36.14878 ], [ -88.381171, 36.148846 ], [ -88.398739, 36.14907 ], [ -88.403513, 36.149131 ], [ -88.40485, 36.149149 ], [ -88.415566, 36.14929 ], [ -88.434154, 36.149463 ], [ -88.438442, 36.149538 ], [ -88.454238, 36.149685 ], [ -88.473247, 36.149907 ], [ -88.473263, 36.150088 ], [ -88.473258, 36.150374 ], [ -88.473257, 36.150904 ], [ -88.488688, 36.150977 ], [ -88.489859, 36.150989 ], [ -88.491979, 36.151014 ], [ -88.493363, 36.151031 ], [ -88.498183, 36.1511 ], [ -88.505554, 36.151275 ], [ -88.507277, 36.151315 ], [ -88.507403, 36.151317 ], [ -88.518256, 36.151775 ], [ -88.527195, 36.152008 ], [ -88.530322, 36.152023 ], [ -88.530694, 36.145111 ], [ -88.530867, 36.142117 ], [ -88.530961, 36.140462 ], [ -88.530969, 36.140347 ], [ -88.530971, 36.139544 ], [ -88.530971, 36.138526 ], [ -88.53108, 36.135748 ], [ -88.531143, 36.134396 ], [ -88.531166, 36.133361 ], [ -88.531346, 36.132425 ], [ -88.531349, 36.131668 ], [ -88.531357, 36.130861 ], [ -88.531376, 36.129596 ], [ -88.531397, 36.12874 ], [ -88.53142, 36.127755 ], [ -88.531466, 36.125911 ], [ -88.531534, 36.124796 ], [ -88.531995, 36.12147 ], [ -88.532115, 36.118413 ], [ -88.532233, 36.115416 ], [ -88.534907, 36.115458 ], [ -88.544862, 36.11562 ], [ -88.558679, 36.115762 ], [ -88.561903, 36.115641 ], [ -88.5733, 36.115953 ], [ -88.577292, 36.116006 ], [ -88.582773, 36.116079 ], [ -88.596176, 36.116255 ], [ -88.598693, 36.116289 ], [ -88.614901, 36.116502 ], [ -88.625054, 36.116918 ], [ -88.633979, 36.117041 ], [ -88.636498, 36.117075 ], [ -88.650863, 36.117273 ], [ -88.655488, 36.117338 ], [ -88.655403, 36.114623 ], [ -88.654842, 36.096517 ], [ -88.654795, 36.095043 ], [ -88.654529, 36.08645 ], [ -88.654079, 36.071939 ], [ -88.653843, 36.064294 ], [ -88.654971, 36.064433 ], [ -88.655106, 36.065306 ], [ -88.656464, 36.065368 ], [ -88.656761, 36.064687 ], [ -88.658354, 36.064528 ], [ -88.661662, 36.061864 ], [ -88.660629, 36.063265 ], [ -88.660336, 36.065076 ], [ -88.663256, 36.064568 ], [ -88.663534, 36.065392 ], [ -88.664663, 36.065578 ], [ -88.666564, 36.064651 ], [ -88.667565, 36.064724 ], [ -88.669033, 36.063638 ], [ -88.670394, 36.065088 ], [ -88.671797, 36.064772 ], [ -88.672412, 36.065899 ], [ -88.673793, 36.064652 ], [ -88.67246, 36.064245 ], [ -88.672345, 36.062833 ], [ -88.675445, 36.061817 ], [ -88.676352, 36.062322 ], [ -88.675695, 36.063987 ], [ -88.676527, 36.064306 ], [ -88.676926, 36.065445 ], [ -88.678381, 36.066496 ], [ -88.683049, 36.065564 ], [ -88.683859, 36.066079 ], [ -88.684108, 36.065652 ], [ -88.684892, 36.064362 ], [ -88.686157, 36.064506 ], [ -88.687249, 36.063848 ], [ -88.688452, 36.064465 ], [ -88.689182, 36.063625 ], [ -88.6908, 36.063586 ], [ -88.692709, 36.062746 ], [ -88.693268, 36.064109 ], [ -88.694255, 36.063552 ], [ -88.694633, 36.064622 ], [ -88.693962, 36.065579 ], [ -88.694426, 36.066432 ], [ -88.695459, 36.066046 ], [ -88.696307, 36.063835 ], [ -88.698062, 36.064199 ], [ -88.697849, 36.06543 ], [ -88.699619, 36.06563 ], [ -88.70115, 36.067308 ], [ -88.702531, 36.067685 ], [ -88.70327, 36.06719 ], [ -88.704157, 36.068115 ], [ -88.706611, 36.068877 ], [ -88.707642, 36.069713 ], [ -88.707017, 36.070638 ], [ -88.708417, 36.070642 ], [ -88.709005, 36.071738 ], [ -88.709951, 36.07127 ], [ -88.710521, 36.072214 ], [ -88.713464, 36.073526 ], [ -88.712995, 36.073994 ], [ -88.714259, 36.074649 ], [ -88.714234, 36.076363 ], [ -88.715958, 36.077513 ], [ -88.717429, 36.078015 ], [ -88.718153, 36.078978 ], [ -88.718201, 36.07901 ], [ -88.720597, 36.07851 ], [ -88.724148, 36.080452 ], [ -88.724006, 36.081495 ], [ -88.725309, 36.081065 ], [ -88.725737, 36.081874 ], [ -88.72761, 36.080587 ], [ -88.727299, 36.079592 ], [ -88.728658, 36.080568 ], [ -88.730248, 36.079829 ], [ -88.731164, 36.080844 ], [ -88.732253, 36.080652 ], [ -88.733688, 36.082061 ], [ -88.733872, 36.082934 ], [ -88.735539, 36.083025 ], [ -88.736558, 36.084257 ], [ -88.736442, 36.085597 ], [ -88.735492, 36.086296 ], [ -88.737434, 36.087132 ], [ -88.738133, 36.08591 ], [ -88.740008, 36.086721 ], [ -88.741153, 36.08881 ], [ -88.742654, 36.089139 ], [ -88.743064, 36.090887 ], [ -88.745841, 36.091137 ], [ -88.746746, 36.091244 ], [ -88.746941, 36.092545 ], [ -88.748613, 36.091444 ], [ -88.748863, 36.093411 ], [ -88.749314, 36.092725 ], [ -88.750424, 36.093708 ], [ -88.74922, 36.094822 ], [ -88.747254, 36.094081 ], [ -88.74609, 36.094415 ], [ -88.744485, 36.093141 ], [ -88.74446, 36.094068 ], [ -88.747521, 36.09634 ], [ -88.747843, 36.097883 ], [ -88.750873, 36.100058 ], [ -88.752396, 36.099985 ], [ -88.753132, 36.102268 ], [ -88.751682, 36.105 ], [ -88.751884, 36.105689 ], [ -88.753242, 36.105412 ], [ -88.753804, 36.104338 ], [ -88.754621, 36.105078 ], [ -88.75392, 36.107401 ], [ -88.755523, 36.107249 ], [ -88.756719, 36.108358 ], [ -88.757113, 36.107637 ], [ -88.75832, 36.108253 ], [ -88.758394, 36.109781 ], [ -88.759112, 36.109655 ], [ -88.759583, 36.108192 ], [ -88.76056, 36.108458 ], [ -88.760501, 36.109289 ], [ -88.762044, 36.109555 ], [ -88.764361, 36.110722 ], [ -88.764961, 36.109705 ], [ -88.766046, 36.111305 ], [ -88.766978, 36.111384 ], [ -88.766886, 36.112352 ], [ -88.768408, 36.111802 ], [ -88.768952, 36.112327 ], [ -88.770668, 36.112418 ], [ -88.771103, 36.111658 ], [ -88.772402, 36.112195 ], [ -88.772336, 36.111192 ], [ -88.773445, 36.110918 ], [ -88.774916, 36.111724 ], [ -88.775715, 36.110283 ], [ -88.777765, 36.110968 ], [ -88.780896, 36.110839 ], [ -88.780955, 36.112141 ], [ -88.779863, 36.112916 ], [ -88.780732, 36.113617 ], [ -88.782068, 36.112578 ], [ -88.785055, 36.112777 ], [ -88.786427, 36.112015 ], [ -88.790386, 36.112639 ], [ -88.791769, 36.112383 ], [ -88.792385, 36.113433 ], [ -88.793957, 36.114108 ], [ -88.795319, 36.113386 ], [ -88.797158, 36.114327 ], [ -88.797875, 36.114572 ], [ -88.799282, 36.113849 ], [ -88.800532, 36.114353 ], [ -88.801374, 36.115634 ], [ -88.803347, 36.116844 ], [ -88.804232, 36.118077 ], [ -88.806, 36.117231 ], [ -88.809192, 36.117799 ], [ -88.809958, 36.11658 ], [ -88.81089, 36.116552 ], [ -88.811027, 36.116651 ], [ -88.812967, 36.116618 ], [ -88.813772, 36.117478 ], [ -88.815355, 36.117776 ], [ -88.816179, 36.119105 ], [ -88.819244, 36.117972 ], [ -88.820918, 36.119055 ], [ -88.823029, 36.119701 ], [ -88.823861, 36.120707 ], [ -88.825675, 36.120435 ], [ -88.826369, 36.12186 ], [ -88.827225, 36.121758 ], [ -88.828153, 36.120658 ], [ -88.828785, 36.121733 ], [ -88.830402, 36.121058 ], [ -88.832242, 36.122584 ], [ -88.833249, 36.122422 ], [ -88.833398, 36.121124 ], [ -88.83529, 36.120909 ], [ -88.837851, 36.124533 ], [ -88.840323, 36.125283 ], [ -88.840884, 36.123495 ], [ -88.8417, 36.123507 ], [ -88.841837, 36.125064 ], [ -88.8431, 36.124853 ], [ -88.842689, 36.126528 ], [ -88.842094, 36.127787 ], [ -88.843065, 36.128193 ], [ -88.845293, 36.127482 ], [ -88.844306, 36.128352 ], [ -88.844588, 36.128993 ], [ -88.846846, 36.129383 ], [ -88.846592, 36.130161 ], [ -88.848173, 36.131305 ], [ -88.846706, 36.131603 ], [ -88.848124, 36.133657 ], [ -88.848545, 36.135957 ], [ -88.84965, 36.136259 ], [ -88.851011, 36.135814 ], [ -88.851926, 36.136726 ], [ -88.852914, 36.136643 ], [ -88.853178, 36.135198 ], [ -88.854879, 36.136911 ], [ -88.85525, 36.135126 ], [ -88.856584, 36.134823 ], [ -88.85735, 36.135328 ], [ -88.858679, 36.137641 ], [ -88.859714, 36.135816 ], [ -88.86088, 36.137025 ], [ -88.86191, 36.137156 ], [ -88.862045, 36.138013 ], [ -88.863515, 36.137699 ], [ -88.864431, 36.139276 ], [ -88.864303, 36.140726 ], [ -88.865651, 36.140434 ], [ -88.866194, 36.14294 ], [ -88.868282, 36.144631 ], [ -88.868499, 36.145581 ], [ -88.869705, 36.145872 ], [ -88.87115, 36.148431 ], [ -88.871909, 36.149079 ], [ -88.871259, 36.14964 ], [ -88.872689, 36.150947 ], [ -88.873434, 36.150628 ], [ -88.874608, 36.15249 ], [ -88.876193, 36.153597 ], [ -88.875528, 36.15496 ], [ -88.877364, 36.154312 ], [ -88.878, 36.156197 ], [ -88.877869, 36.159367 ], [ -88.880388, 36.160517 ], [ -88.880272, 36.161923 ], [ -88.881816, 36.162874 ], [ -88.883585, 36.162886 ], [ -88.884194, 36.163831 ], [ -88.88338, 36.164924 ], [ -88.884097, 36.165985 ], [ -88.883535, 36.166715 ], [ -88.884178, 36.167551 ], [ -88.886841, 36.167475 ], [ -88.886921, 36.168843 ], [ -88.88871, 36.168355 ], [ -88.889062, 36.169685 ], [ -88.887794, 36.170409 ], [ -88.88969, 36.172185 ], [ -88.891338, 36.171119 ], [ -88.891127, 36.172779 ], [ -88.892679, 36.172027 ], [ -88.893139, 36.172626 ], [ -88.892766, 36.173971 ], [ -88.894533, 36.176835 ], [ -88.896274, 36.178088 ], [ -88.897785, 36.178325 ], [ -88.897975, 36.177171 ], [ -88.899222, 36.177726 ], [ -88.90061, 36.179869 ], [ -88.901776, 36.178199 ], [ -88.903165, 36.178584 ], [ -88.902704, 36.179853 ], [ -88.903661, 36.181882 ], [ -88.904743, 36.181975 ], [ -88.90639, 36.18114 ], [ -88.90805, 36.182283 ], [ -88.90847, 36.183366 ], [ -88.909671, 36.184043 ], [ -88.908207, 36.184995 ], [ -88.910535, 36.18568 ], [ -88.911788, 36.187025 ], [ -88.913361, 36.186351 ], [ -88.917482, 36.188374 ], [ -88.918334, 36.188248 ], [ -88.920082, 36.190016 ], [ -88.921242, 36.19205 ], [ -88.924392, 36.191404 ], [ -88.927317, 36.191632 ], [ -88.928586, 36.192802 ], [ -88.931864, 36.193569 ], [ -88.93308, 36.194567 ], [ -88.933038, 36.196983 ], [ -88.93441, 36.197157 ], [ -88.937465, 36.199256 ], [ -88.938782, 36.200763 ], [ -88.939495, 36.203088 ], [ -88.9407, 36.203893 ], [ -88.943899, 36.20592 ], [ -88.944966, 36.207961 ], [ -88.946384, 36.20936 ], [ -88.949627, 36.210395 ], [ -88.95096, 36.211299 ], [ -88.954636, 36.217627 ], [ -88.953544, 36.218248 ], [ -88.954663, 36.219549 ], [ -88.954243, 36.220335 ], [ -88.958304, 36.22066 ], [ -88.957857, 36.221779 ], [ -88.959839, 36.222834 ], [ -88.960814, 36.207202 ], [ -88.961207, 36.201876 ], [ -88.961264, 36.201808 ], [ -88.961232, 36.201635 ], [ -88.962681, 36.201737 ], [ -88.962904, 36.201742 ], [ -88.973218, 36.201829 ], [ -88.978182, 36.20191 ], [ -88.9907, 36.202111 ], [ -88.994257, 36.202169 ], [ -88.997935, 36.202229 ], [ -89.00377, 36.202162 ], [ -89.003805, 36.202163 ], [ -89.006738, 36.202209 ], [ -89.008397, 36.202234 ], [ -89.009234, 36.202244 ], [ -89.009599, 36.202251 ], [ -89.010791, 36.202267 ], [ -89.011986, 36.202269 ], [ -89.014131, 36.202129 ], [ -89.01478, 36.202324 ], [ -89.021511, 36.202398 ], [ -89.022003, 36.202403 ], [ -89.023705, 36.20241 ], [ -89.027326, 36.202467 ], [ -89.027933, 36.202477 ], [ -89.028405, 36.202484 ], [ -89.033222, 36.202551 ], [ -89.03709, 36.202604 ], [ -89.049753, 36.202782 ], [ -89.060425, 36.202931 ], [ -89.063584, 36.202975 ], [ -89.067775, 36.203031 ], [ -89.076217, 36.203203 ], [ -89.092369, 36.203293 ], [ -89.102495, 36.203561 ], [ -89.114058, 36.203867 ], [ -89.128694, 36.204193 ], [ -89.134666, 36.204335 ], [ -89.154464, 36.204678 ], [ -89.155041, 36.193828 ], [ -89.155311, 36.188751 ], [ -89.155938, 36.176967 ], [ -89.156332, 36.169573 ], [ -89.156939, 36.158193 ], [ -89.15741, 36.149376 ], [ -89.157568, 36.146426 ], [ -89.158261, 36.137302 ], [ -89.158544, 36.132336 ], [ -89.158771, 36.126626 ], [ -89.159139, 36.118731 ], [ -89.159163, 36.112625 ], [ -89.156663, 36.111832 ], [ -89.157291, 36.108945 ], [ -89.157513, 36.104176 ], [ -89.159552, 36.104211 ], [ -89.160112, 36.095244 ], [ -89.161146, 36.073524 ], [ -89.161173, 36.072957 ], [ -89.161877, 36.058322 ], [ -89.162407, 36.04687 ], [ -89.162527, 36.044613 ], [ -89.163406, 36.026044 ], [ -89.165567, 36.02644 ], [ -89.168007, 36.026184 ], [ -89.169157, 36.026402 ], [ -89.171374, 36.025165 ], [ -89.17171, 36.024087 ], [ -89.172925, 36.023711 ], [ -89.173239, 36.023295 ], [ -89.174925, 36.023833 ], [ -89.176756, 36.022559 ], [ -89.178523, 36.022204 ], [ -89.17948, 36.022725 ], [ -89.181285, 36.02133 ], [ -89.182658, 36.02233 ], [ -89.18301, 36.021291 ], [ -89.184917, 36.020347 ], [ -89.185735, 36.020215 ], [ -89.18631, 36.022462 ], [ -89.187108, 36.021835 ], [ -89.187284, 36.020649 ], [ -89.188743, 36.022084 ], [ -89.189355, 36.020564 ], [ -89.190786, 36.02011 ], [ -89.191963, 36.020687 ], [ -89.193314, 36.019884 ], [ -89.194855, 36.017157 ], [ -89.196635, 36.019214 ], [ -89.197759, 36.018804 ], [ -89.198192, 36.017558 ], [ -89.199462, 36.017533 ], [ -89.200287, 36.016775 ], [ -89.20101, 36.017429 ], [ -89.20243, 36.017044 ], [ -89.203059, 36.016198 ], [ -89.202829, 36.014995 ], [ -89.203525, 36.014275 ], [ -89.203173, 36.013308 ], [ -89.204762, 36.012633 ], [ -89.206182, 36.013764 ], [ -89.206297, 36.011814 ], [ -89.204059, 36.011737 ], [ -89.204119, 36.010298 ], [ -89.202672, 36.010375 ], [ -89.202429, 36.009469 ], [ -89.200962, 36.009573 ], [ -89.200258, 36.008985 ], [ -89.197973, 36.008447 ], [ -89.196648, 36.007041 ], [ -89.195309, 36.007349 ], [ -89.193611, 36.005038 ], [ -89.192332, 36.004361 ], [ -89.19307, 36.003483 ], [ -89.192552, 36.002412 ], [ -89.191236, 36.00235 ], [ -89.188844, 35.99976 ], [ -89.191545, 35.990117 ], [ -89.196009, 35.979903 ], [ -89.197822, 35.975907 ], [ -89.198345, 35.970209 ], [ -89.200373, 35.970351 ], [ -89.200327, 35.971681 ], [ -89.2049, 35.963761 ], [ -89.207312, 35.960277 ], [ -89.213475, 35.951748 ], [ -89.21458, 35.950402 ], [ -89.220721, 35.943324 ], [ -89.222072, 35.941808 ], [ -89.223651, 35.940038 ], [ -89.227546, 35.936374 ], [ -89.232628, 35.93161 ], [ -89.233875, 35.930452 ], [ -89.235094, 35.930537 ], [ -89.236551, 35.930615 ], [ -89.237815, 35.930731 ], [ -89.236683, 35.928415 ], [ -89.236502, 35.928043 ], [ -89.239206, 35.925694 ], [ -89.250069, 35.917348 ], [ -89.250396, 35.917275 ], [ -89.267068, 35.913578 ], [ -89.267275, 35.913447 ], [ -89.269815, 35.908163 ], [ -89.273366, 35.900681 ], [ -89.275264, 35.896693 ], [ -89.277548, 35.891924 ], [ -89.280148, 35.886499 ], [ -89.283996, 35.886156 ], [ -89.303078, 35.884501 ], [ -89.313478, 35.883661 ], [ -89.330502, 35.882129 ], [ -89.342829, 35.880934 ], [ -89.342326, 35.879595 ], [ -89.342839, 35.877062 ], [ -89.344475, 35.875038 ], [ -89.342186, 35.87533 ], [ -89.341018, 35.874974 ], [ -89.340979, 35.874095 ], [ -89.339326, 35.873196 ], [ -89.340528, 35.872872 ], [ -89.340019, 35.871062 ], [ -89.341453, 35.870087 ], [ -89.341295, 35.868805 ], [ -89.341821, 35.865725 ], [ -89.341078, 35.863715 ], [ -89.339556, 35.862383 ], [ -89.340994, 35.861198 ], [ -89.344316, 35.86037 ], [ -89.345393, 35.858553 ], [ -89.344022, 35.857245 ], [ -89.345523, 35.854335 ], [ -89.347018, 35.85375 ], [ -89.347885, 35.851764 ], [ -89.3498, 35.851878 ], [ -89.350367, 35.849452 ], [ -89.352572, 35.848781 ], [ -89.353309, 35.847805 ], [ -89.353107, 35.846215 ], [ -89.351591, 35.844521 ], [ -89.351833, 35.843684 ], [ -89.353951, 35.843664 ], [ -89.354432, 35.841854 ], [ -89.354461, 35.840054 ], [ -89.355165, 35.839192 ], [ -89.355919, 35.839667 ], [ -89.356245, 35.841981 ], [ -89.357284, 35.841384 ], [ -89.356739, 35.840283 ], [ -89.358519, 35.840095 ], [ -89.359435, 35.838722 ], [ -89.358574, 35.838888 ], [ -89.356792, 35.837839 ], [ -89.35775, 35.835881 ], [ -89.358987, 35.835494 ], [ -89.357858, 35.834851 ], [ -89.357344, 35.832836 ], [ -89.356535, 35.832512 ], [ -89.357228, 35.831221 ], [ -89.358364, 35.831032 ], [ -89.358748, 35.830148 ], [ -89.358315, 35.828925 ], [ -89.360307, 35.828249 ], [ -89.360491, 35.82545 ], [ -89.361544, 35.823712 ], [ -89.361348, 35.822466 ], [ -89.358567, 35.820959 ], [ -89.358675, 35.819933 ], [ -89.355787, 35.819216 ], [ -89.356033, 35.817635 ], [ -89.359054, 35.818041 ], [ -89.363337, 35.819023 ], [ -89.365293, 35.819291 ], [ -89.383813, 35.82084 ], [ -89.388991, 35.821213 ], [ -89.401805, 35.822657 ], [ -89.402737, 35.816915 ], [ -89.403327, 35.815588 ], [ -89.405301, 35.813524 ], [ -89.405412, 35.808849 ], [ -89.406973, 35.806358 ], [ -89.411322, 35.803185 ], [ -89.412634, 35.802564 ], [ -89.415398, 35.802022 ], [ -89.416643, 35.800296 ], [ -89.419134, 35.798987 ], [ -89.419969, 35.797414 ], [ -89.421355, 35.794137 ], [ -89.420808, 35.791625 ], [ -89.421709, 35.788086 ], [ -89.423606, 35.786812 ], [ -89.425477, 35.786878 ], [ -89.427524, 35.785822 ], [ -89.428201, 35.784572 ], [ -89.431327, 35.78264 ], [ -89.432488, 35.780807 ], [ -89.432714, 35.779198 ], [ -89.431818, 35.775993 ], [ -89.431785, 35.775244 ], [ -89.432793, 35.773188 ], [ -89.432633, 35.771241 ], [ -89.433233, 35.770153 ], [ -89.435112, 35.76874 ], [ -89.437108, 35.768072 ], [ -89.437883, 35.768123 ], [ -89.438348, 35.767539 ], [ -89.439691, 35.765915 ], [ -89.439644, 35.762833 ], [ -89.439907, 35.755311 ], [ -89.439918, 35.750861 ], [ -89.440123, 35.747919 ], [ -89.438664, 35.747411 ], [ -89.427469, 35.747378 ], [ -89.427691, 35.740184 ], [ -89.431596, 35.740243 ], [ -89.432233, 35.739347 ], [ -89.432422, 35.729877 ], [ -89.435923, 35.721802 ], [ -89.440715, 35.710523 ], [ -89.442708, 35.70587 ], [ -89.444892, 35.700771 ], [ -89.452712, 35.682545 ], [ -89.461249, 35.682579 ], [ -89.466354, 35.682706 ], [ -89.466861, 35.667726 ], [ -89.467305, 35.652807 ], [ -89.467561, 35.647991 ], [ -89.46788, 35.639759 ], [ -89.46795, 35.635096 ], [ -89.468288, 35.625079 ], [ -89.468716, 35.622493 ], [ -89.468877, 35.619034 ], [ -89.469993, 35.595226 ], [ -89.471397, 35.594814 ], [ -89.472291, 35.595231 ], [ -89.47412, 35.594851 ], [ -89.47486, 35.594 ], [ -89.476447, 35.595185 ], [ -89.477846, 35.594323 ], [ -89.47989, 35.594465 ], [ -89.482701, 35.593953 ], [ -89.485027, 35.592661 ], [ -89.485537, 35.590645 ], [ -89.488583, 35.589446 ], [ -89.488837, 35.587572 ], [ -89.489765, 35.587056 ], [ -89.489347, 35.58604 ], [ -89.491438, 35.585934 ], [ -89.492265, 35.585121 ], [ -89.492749, 35.585994 ], [ -89.494275, 35.585323 ], [ -89.494765, 35.584059 ], [ -89.494146, 35.582736 ], [ -89.496453, 35.583465 ], [ -89.497325, 35.581718 ], [ -89.49943, 35.582079 ], [ -89.501401, 35.581836 ], [ -89.501066, 35.581128 ], [ -89.502118, 35.580621 ], [ -89.504273, 35.580829 ], [ -89.506168, 35.580274 ], [ -89.507278, 35.580451 ], [ -89.507623, 35.581391 ], [ -89.506217, 35.582251 ], [ -89.507578, 35.583078 ], [ -89.509007, 35.581049 ], [ -89.510323, 35.580782 ], [ -89.512094, 35.582532 ], [ -89.511924, 35.583892 ], [ -89.510985, 35.585073 ], [ -89.511004, 35.587212 ], [ -89.511487, 35.587998 ], [ -89.513275, 35.588368 ], [ -89.514371, 35.589079 ], [ -89.516965, 35.588341 ], [ -89.52004, 35.589157 ], [ -89.521239, 35.590112 ], [ -89.520928, 35.591164 ], [ -89.519498, 35.591947 ], [ -89.51904, 35.593123 ], [ -89.519961, 35.594722 ], [ -89.521402, 35.59581 ], [ -89.522378, 35.595156 ], [ -89.522084, 35.593347 ], [ -89.523316, 35.593406 ], [ -89.524494, 35.595074 ], [ -89.526006, 35.594796 ], [ -89.525537, 35.591991 ], [ -89.526129, 35.589943 ], [ -89.527301, 35.591248 ], [ -89.527384, 35.592324 ], [ -89.526107, 35.598173 ], [ -89.526793, 35.598816 ], [ -89.52861, 35.598752 ], [ -89.529595, 35.597496 ], [ -89.531196, 35.597036 ], [ -89.533059, 35.597215 ], [ -89.535013, 35.595729 ], [ -89.535488, 35.596396 ], [ -89.534074, 35.598963 ], [ -89.531966, 35.601021 ], [ -89.532108, 35.602595 ], [ -89.535532, 35.602886 ], [ -89.537791, 35.604548 ], [ -89.539345, 35.604862 ], [ -89.541208, 35.604294 ], [ -89.542248, 35.602872 ], [ -89.543598, 35.602841 ], [ -89.545253, 35.60408 ], [ -89.545479, 35.605934 ], [ -89.544106, 35.607624 ], [ -89.544088, 35.608371 ], [ -89.545461, 35.609693 ], [ -89.548128, 35.609886 ], [ -89.547942, 35.607769 ], [ -89.550254, 35.606067 ], [ -89.55173, 35.605952 ], [ -89.552488, 35.607104 ], [ -89.55212, 35.608628 ], [ -89.553623, 35.60827 ], [ -89.553983, 35.607098 ], [ -89.553193, 35.60594 ], [ -89.553361, 35.605002 ], [ -89.554304, 35.604324 ], [ -89.555687, 35.605372 ], [ -89.555497, 35.610194 ], [ -89.556619, 35.610937 ], [ -89.559059, 35.610666 ], [ -89.561151, 35.610491 ], [ -89.562062, 35.611118 ], [ -89.561806, 35.611928 ], [ -89.560555, 35.6123 ], [ -89.560592, 35.613446 ], [ -89.562031, 35.6138 ], [ -89.564996, 35.61276 ], [ -89.566458, 35.613026 ], [ -89.566974, 35.614029 ], [ -89.566203, 35.615133 ], [ -89.567255, 35.615211 ], [ -89.568091, 35.614199 ], [ -89.572089, 35.613857 ], [ -89.573014, 35.614378 ], [ -89.574465, 35.616711 ], [ -89.573541, 35.618417 ], [ -89.574268, 35.618776 ], [ -89.575659, 35.618247 ], [ -89.576108, 35.617444 ], [ -89.575728, 35.615806 ], [ -89.576642, 35.614837 ], [ -89.578778, 35.615254 ], [ -89.579921, 35.616716 ], [ -89.579011, 35.618065 ], [ -89.578954, 35.61921 ], [ -89.581531, 35.621411 ], [ -89.582396, 35.621503 ], [ -89.582805, 35.620144 ], [ -89.581926, 35.617957 ], [ -89.583101, 35.617913 ], [ -89.583901, 35.619617 ], [ -89.585766, 35.621549 ], [ -89.586437, 35.622698 ], [ -89.586209, 35.624027 ], [ -89.585124, 35.625629 ], [ -89.585943, 35.625938 ], [ -89.58791, 35.625379 ], [ -89.588501, 35.62603 ], [ -89.5908, 35.626675 ], [ -89.596378, 35.629665 ], [ -89.597906, 35.630112 ], [ -89.599883, 35.628735 ], [ -89.602416, 35.629022 ], [ -89.603952, 35.626219 ], [ -89.601974, 35.625638 ], [ -89.601806, 35.623854 ], [ -89.602645, 35.623917 ], [ -89.605786, 35.626637 ], [ -89.60679, 35.627993 ], [ -89.606418, 35.62932 ], [ -89.604864, 35.630765 ], [ -89.608813, 35.632961 ], [ -89.609107, 35.633648 ], [ -89.607856, 35.635591 ], [ -89.609504, 35.637052 ], [ -89.609566, 35.637087 ], [ -89.609841, 35.637218 ], [ -89.612053, 35.638078 ], [ -89.612675, 35.638819 ], [ -89.613682, 35.638018 ], [ -89.61334, 35.636649 ], [ -89.615151, 35.636074 ], [ -89.615693, 35.636872 ], [ -89.614779, 35.639083 ], [ -89.616091, 35.640625 ], [ -89.614218, 35.640946 ], [ -89.613395, 35.642135 ], [ -89.61262, 35.642147 ], [ -89.612976, 35.643236 ], [ -89.615744, 35.643513 ], [ -89.617014, 35.64432 ], [ -89.618243, 35.6458 ], [ -89.620823, 35.645987 ], [ -89.621596, 35.647093 ], [ -89.619424, 35.647341 ], [ -89.619155, 35.648152 ], [ -89.620927, 35.64869 ], [ -89.622986, 35.649995 ], [ -89.622203, 35.651482 ], [ -89.622929, 35.652326 ], [ -89.625429, 35.650998 ], [ -89.626905, 35.648724 ], [ -89.628176, 35.648752 ], [ -89.630962, 35.650719 ], [ -89.63265, 35.650328 ], [ -89.632817, 35.647967 ], [ -89.634216, 35.647348 ], [ -89.63412, 35.646475 ], [ -89.632119, 35.647075 ], [ -89.631124, 35.645012 ], [ -89.635694, 35.645225 ], [ -89.637398, 35.64562 ], [ -89.638505, 35.646605 ], [ -89.639806, 35.646564 ], [ -89.640494, 35.645081 ], [ -89.643305, 35.645984 ], [ -89.647663, 35.647063 ], [ -89.649387, 35.647673 ], [ -89.650486, 35.64855 ], [ -89.651056, 35.648009 ], [ -89.650144, 35.646454 ], [ -89.650488, 35.64543 ], [ -89.652094, 35.644596 ], [ -89.653086, 35.645297 ], [ -89.653789, 35.644836 ], [ -89.65327, 35.64213 ], [ -89.651922, 35.640406 ], [ -89.650707, 35.639473 ], [ -89.651006, 35.6387 ], [ -89.653001, 35.638436 ], [ -89.653175, 35.637372 ], [ -89.65442, 35.635826 ], [ -89.656487, 35.634769 ], [ -89.658255, 35.633401 ], [ -89.65899, 35.635648 ], [ -89.660734, 35.633326 ], [ -89.661131, 35.631788 ], [ -89.662259, 35.632057 ], [ -89.663618, 35.634479 ], [ -89.664968, 35.635675 ], [ -89.666609, 35.636098 ], [ -89.667274, 35.635198 ], [ -89.666425, 35.633263 ], [ -89.665495, 35.632533 ], [ -89.665938, 35.631392 ], [ -89.668372, 35.631827 ], [ -89.668799, 35.633621 ], [ -89.670406, 35.635006 ], [ -89.671123, 35.636449 ], [ -89.671629, 35.638757 ], [ -89.673086, 35.639732 ], [ -89.675879, 35.640406 ], [ -89.676892, 35.639328 ], [ -89.675181, 35.637939 ], [ -89.675684, 35.637253 ], [ -89.677913, 35.637665 ], [ -89.678369, 35.636041 ], [ -89.679869, 35.63621 ], [ -89.680488, 35.637819 ], [ -89.681699, 35.637991 ], [ -89.682019, 35.638905 ], [ -89.680871, 35.640155 ], [ -89.682993, 35.639914 ], [ -89.683326, 35.63796 ], [ -89.684198, 35.637604 ], [ -89.685633, 35.638101 ], [ -89.688961, 35.636328 ], [ -89.689069, 35.637427 ], [ -89.68999, 35.638364 ], [ -89.692572, 35.638907 ], [ -89.691372, 35.641903 ], [ -89.692785, 35.644305 ], [ -89.694636, 35.645088 ], [ -89.695948, 35.644254 ], [ -89.695758, 35.642051 ], [ -89.697804, 35.642177 ], [ -89.698694, 35.642971 ], [ -89.699781, 35.642904 ], [ -89.699001, 35.641373 ], [ -89.699346, 35.640976 ], [ -89.702257, 35.642423 ], [ -89.703875, 35.641893 ], [ -89.706053, 35.639674 ], [ -89.705385, 35.639146 ], [ -89.703514, 35.639133 ], [ -89.702305, 35.635212 ], [ -89.701726, 35.634724 ], [ -89.701799, 35.632598 ], [ -89.701449, 35.630659 ], [ -89.702573, 35.631076 ], [ -89.702969, 35.629176 ], [ -89.70519, 35.629297 ], [ -89.706763, 35.628126 ], [ -89.706373, 35.626336 ], [ -89.705518, 35.625364 ], [ -89.706674, 35.623886 ], [ -89.704171, 35.621426 ], [ -89.701931, 35.620734 ], [ -89.702496, 35.619251 ], [ -89.700753, 35.618647 ], [ -89.701177, 35.617721 ], [ -89.702884, 35.616226 ], [ -89.707322, 35.606984 ], [ -89.706412, 35.604631 ], [ -89.704263, 35.601906 ], [ -89.699841, 35.601097 ], [ -89.693189, 35.600395 ], [ -89.692492, 35.599832 ], [ -89.692822, 35.59685 ], [ -89.693181, 35.593677 ], [ -89.694479, 35.591415 ], [ -89.695342, 35.586015 ], [ -89.694998, 35.583773 ], [ -89.696848, 35.583646 ], [ -89.699081, 35.582681 ], [ -89.697093, 35.580936 ], [ -89.693745, 35.577273 ], [ -89.692313, 35.576564 ], [ -89.689778, 35.576065 ], [ -89.687714, 35.574999 ], [ -89.684796, 35.572209 ], [ -89.680944, 35.566552 ], [ -89.68082, 35.56406 ], [ -89.688759, 35.561598 ], [ -89.693678, 35.560635 ], [ -89.69627, 35.559941 ], [ -89.700284, 35.558477 ], [ -89.700578, 35.551947 ], [ -89.700636, 35.551159 ], [ -89.700838, 35.549271 ], [ -89.70214, 35.54688 ], [ -89.702108, 35.545424 ], [ -89.699919, 35.542344 ], [ -89.697256, 35.539346 ], [ -89.694296, 35.539156 ], [ -89.692761, 35.539098 ], [ -89.691994, 35.538901 ], [ -89.692069, 35.53573 ], [ -89.692095, 35.53417 ], [ -89.692242, 35.531255 ], [ -89.692305, 35.530435 ], [ -89.692375, 35.529399 ], [ -89.692875, 35.52878 ], [ -89.693247, 35.527431 ], [ -89.693364, 35.522911 ], [ -89.699693, 35.518425 ], [ -89.701793, 35.517116 ], [ -89.706101, 35.515002 ], [ -89.707691, 35.513927 ], [ -89.710427, 35.510863 ], [ -89.711609, 35.511737 ], [ -89.716715, 35.512009 ], [ -89.718253, 35.512867 ], [ -89.720125, 35.513375 ], [ -89.721609, 35.51443 ], [ -89.723523, 35.514822 ], [ -89.724057, 35.515733 ], [ -89.726153, 35.514058 ], [ -89.728846, 35.510783 ], [ -89.732589, 35.508243 ], [ -89.734538, 35.504814 ], [ -89.731371, 35.504431 ], [ -89.731083, 35.503997 ], [ -89.731882, 35.49865 ], [ -89.725137, 35.497375 ], [ -89.725735, 35.496352 ], [ -89.727167, 35.495501 ], [ -89.730562, 35.495383 ], [ -89.731341, 35.495924 ], [ -89.733476, 35.495646 ], [ -89.733975, 35.494299 ], [ -89.738115, 35.492582 ], [ -89.744905, 35.493117 ], [ -89.745045, 35.492457 ], [ -89.745972, 35.49252 ], [ -89.747054, 35.492595 ], [ -89.74666, 35.491743 ], [ -89.74753, 35.490761 ], [ -89.750953, 35.488582 ], [ -89.749764, 35.48357 ], [ -89.752606, 35.484193 ], [ -89.755739, 35.48522 ], [ -89.758683, 35.48604 ], [ -89.760426, 35.486303 ], [ -89.768877, 35.485668 ], [ -89.768645, 35.482653 ], [ -89.76954, 35.478539 ], [ -89.770546, 35.475201 ], [ -89.772053, 35.471183 ], [ -89.771935, 35.469502 ], [ -89.769459, 35.469889 ], [ -89.769441, 35.468145 ], [ -89.76868, 35.46806 ], [ -89.769426, 35.466376 ], [ -89.763505, 35.466569 ], [ -89.757539, 35.466665 ], [ -89.76106, 35.46465 ], [ -89.764312, 35.463087 ], [ -89.76665, 35.461669 ], [ -89.77243, 35.457227 ], [ -89.778668, 35.452233 ], [ -89.779942, 35.451258 ], [ -89.782264, 35.449483 ], [ -89.785085, 35.44751 ], [ -89.786941, 35.4459 ], [ -89.788803, 35.444473 ], [ -89.791831, 35.442685 ], [ -89.791896, 35.442653 ], [ -89.794713, 35.441029 ], [ -89.796761, 35.439463 ], [ -89.798981, 35.437763 ], [ -89.800905, 35.436293 ], [ -89.8066, 35.431869 ], [ -89.81171, 35.426906 ], [ -89.811579, 35.426688 ], [ -89.816497, 35.422915 ], [ -89.818711, 35.421226 ], [ -89.824505, 35.416798 ], [ -89.826133, 35.415552 ], [ -89.832216, 35.410903 ], [ -89.840239, 35.404692 ], [ -89.844864, 35.400565 ], [ -89.846544, 35.399069 ], [ -89.848488, 35.397337 ], [ -89.853609, 35.392768 ], [ -89.855022, 35.391013 ], [ -89.855372, 35.391 ], [ -89.86017, 35.390643 ], [ -89.865515, 35.39077 ], [ -89.883987, 35.391185 ], [ -89.889317, 35.390906 ], [ -89.898508, 35.392054 ], [ -89.897627, 35.390254 ], [ -89.89688, 35.389067 ], [ -89.898678, 35.379173 ], [ -89.898867, 35.374617 ], [ -89.899606, 35.368987 ], [ -89.901388, 35.368974 ], [ -89.902424, 35.369425 ], [ -89.903621, 35.363955 ], [ -89.904991, 35.364098 ], [ -89.912617, 35.364912 ], [ -89.923874, 35.366073 ], [ -89.941884, 35.367873 ], [ -89.945081, 35.361402 ], [ -89.945983, 35.357257 ], [ -89.949274, 35.354263 ], [ -89.949325, 35.353676 ], [ -89.948696, 35.349299 ], [ -89.947898, 35.34758 ], [ -89.948244, 35.34654 ], [ -89.948566, 35.344288 ], [ -89.95007, 35.344361 ], [ -89.951411, 35.343267 ], [ -89.950573, 35.343295 ], [ -89.951259, 35.339175 ], [ -89.951067, 35.33821 ], [ -89.950946, 35.338139 ], [ -89.950658, 35.337937 ], [ -89.9506, 35.337919 ], [ -89.95055, 35.337887 ], [ -89.950377, 35.337919 ], [ -89.950016, 35.337722 ], [ -89.950591, 35.337422 ], [ -89.950378, 35.336425 ], [ -89.951694, 35.335925 ], [ -89.951319, 35.334211 ], [ -89.953718, 35.330813 ], [ -89.953739, 35.33076 ], [ -89.953817, 35.330561 ], [ -89.954063, 35.329999 ], [ -89.954228, 35.329902 ], [ -89.954388, 35.329798 ], [ -89.954468, 35.329739 ], [ -89.954507, 35.329582 ], [ -89.954556, 35.329445 ], [ -89.954632, 35.329277 ], [ -89.954671, 35.329213 ], [ -89.954787, 35.329063 ], [ -89.954896, 35.328951 ], [ -89.955037, 35.328864 ], [ -89.955116, 35.328833 ], [ -89.955279, 35.328777 ], [ -89.955301, 35.328763 ], [ -89.955351, 35.328735 ], [ -89.955482, 35.328687 ], [ -89.956767, 35.326328 ], [ -89.956718, 35.325345 ], [ -89.955535, 35.325232 ], [ -89.955791, 35.319623 ], [ -89.953359, 35.319468 ], [ -89.953468, 35.318072 ], [ -89.947125, 35.316673 ], [ -89.947376, 35.313083 ], [ -89.944312, 35.315508 ], [ -89.94211, 35.315378 ], [ -89.939719, 35.31383 ], [ -89.938554, 35.314923 ], [ -89.938365, 35.314793 ], [ -89.94204, 35.31135 ], [ -89.941811, 35.310992 ], [ -89.943664, 35.308545 ], [ -89.94437, 35.305904 ], [ -89.946655, 35.307014 ], [ -89.953263, 35.30081 ], [ -89.961522, 35.293048 ], [ -89.964489, 35.29026 ], [ -89.965259, 35.289542 ], [ -89.970255, 35.28485 ], [ -89.979455, 35.276175 ], [ -89.981856, 35.273609 ], [ -89.982577, 35.27276 ], [ -89.993851, 35.259623 ], [ -89.993125, 35.259297 ], [ -89.988499, 35.259629 ], [ -89.985661, 35.260807 ], [ -89.983713, 35.261684 ], [ -89.97802, 35.261829 ], [ -89.976783, 35.257905 ], [ -89.975084, 35.257767 ], [ -89.975388, 35.255278 ], [ -89.972413, 35.254115 ], [ -89.969002, 35.254245 ], [ -89.968761, 35.254472 ], [ -89.965487, 35.257873 ], [ -89.96214, 35.258638 ], [ -89.958126, 35.259081 ], [ -89.94762, 35.260505 ], [ -89.945854, 35.250795 ], [ -89.946032, 35.24723 ], [ -89.944353, 35.247054 ], [ -89.944059, 35.246975 ], [ -89.9413, 35.246589 ], [ -89.938794, 35.245335 ], [ -89.936319, 35.244079 ], [ -89.93589, 35.243279 ], [ -89.934554, 35.243226 ], [ -89.930407, 35.243307 ], [ -89.92588, 35.243098 ], [ -89.924248, 35.243066 ], [ -89.92281, 35.243045 ], [ -89.920469, 35.242993 ], [ -89.91528, 35.242883 ], [ -89.914906, 35.242877 ], [ -89.914527, 35.24287 ], [ -89.912849, 35.242843 ], [ -89.912095, 35.242829 ], [ -89.909029, 35.242748 ], [ -89.908953, 35.241341 ], [ -89.906449, 35.241267 ], [ -89.906451, 35.239985 ], [ -89.907299, 35.238676 ], [ -89.906278, 35.238225 ], [ -89.904789, 35.237557 ], [ -89.905163, 35.236688 ], [ -89.90509, 35.236683 ], [ -89.904673, 35.236675 ], [ -89.904674, 35.236653 ], [ -89.904676, 35.23661 ], [ -89.904662, 35.236429 ], [ -89.904634, 35.236331 ], [ -89.904096, 35.23546 ], [ -89.904649, 35.235442 ], [ -89.904562, 35.234287 ], [ -89.904252, 35.233101 ], [ -89.904851, 35.232944 ], [ -89.903816, 35.231029 ], [ -89.90153, 35.230991 ], [ -89.900291, 35.230077 ], [ -89.902742, 35.227614 ], [ -89.906813, 35.223521 ], [ -89.908595, 35.221727 ], [ -89.904042, 35.221614 ], [ -89.90442, 35.220894 ], [ -89.905306, 35.219272 ], [ -89.905743, 35.218444 ], [ -89.906189, 35.217601 ], [ -89.906581, 35.216824 ], [ -89.907494, 35.215049 ], [ -89.908729, 35.212641 ], [ -89.910314, 35.209503 ], [ -89.910585, 35.209023 ], [ -89.912428, 35.206115 ], [ -89.912443, 35.205963 ], [ -89.910296, 35.206263 ], [ -89.908229, 35.206556 ], [ -89.908231, 35.206706 ], [ -89.906941, 35.206878 ], [ -89.90496, 35.207144 ], [ -89.902943, 35.207205 ], [ -89.902149, 35.207188 ], [ -89.900831, 35.20716 ], [ -89.894605, 35.207016 ], [ -89.894609, 35.20686 ], [ -89.894854, 35.203865 ], [ -89.894779, 35.203797 ], [ -89.894789, 35.20372 ], [ -89.894798, 35.203667 ], [ -89.894923, 35.202807 ], [ -89.89495, 35.202614 ], [ -89.895001, 35.202261 ], [ -89.895099, 35.201545 ], [ -89.89513, 35.201314 ], [ -89.895135, 35.201253 ], [ -89.895195, 35.200546 ], [ -89.895271, 35.1989 ], [ -89.895276, 35.197191 ], [ -89.895546, 35.193307 ], [ -89.895743, 35.191165 ], [ -89.895951, 35.188859 ], [ -89.896118, 35.188798 ], [ -89.909081, 35.184791 ], [ -89.913182, 35.183537 ], [ -89.913427, 35.183464 ], [ -89.91726, 35.182293 ], [ -89.917158, 35.182093 ], [ -89.918613, 35.181639 ], [ -89.918596, 35.180744 ], [ -89.917571, 35.181053 ], [ -89.916757, 35.181306 ], [ -89.916472, 35.180035 ], [ -89.916517, 35.17944 ], [ -89.916627, 35.177944 ], [ -89.916687, 35.177005 ], [ -89.916748, 35.176216 ], [ -89.916766, 35.175865 ], [ -89.916866, 35.174223 ], [ -89.92195, 35.174405 ], [ -89.921782, 35.173504 ], [ -89.926149, 35.173539 ], [ -89.925856, 35.172753 ], [ -89.926642, 35.17277 ], [ -89.927215, 35.17278 ], [ -89.928152, 35.172798 ], [ -89.928809, 35.172808 ], [ -89.929324, 35.172817 ], [ -89.930466, 35.17284 ], [ -89.932281, 35.172901 ], [ -89.933565, 35.172942 ], [ -89.933575, 35.172408 ], [ -89.933586, 35.171917 ], [ -89.933609, 35.169712 ], [ -89.934373, 35.169717 ], [ -89.935318, 35.169943 ], [ -89.937925, 35.171669 ], [ -89.941307, 35.173917 ], [ -89.941338, 35.173882 ], [ -89.942692, 35.172551 ], [ -89.944244, 35.171303 ], [ -89.945482, 35.170436 ], [ -89.946462, 35.169748 ], [ -89.947445, 35.169059 ], [ -89.948391, 35.168395 ], [ -89.949335, 35.167679 ], [ -89.950095, 35.167041 ], [ -89.950643, 35.166581 ], [ -89.951443, 35.165911 ], [ -89.952444, 35.165133 ], [ -89.95333, 35.164534 ], [ -89.953871, 35.164187 ], [ -89.956021, 35.162813 ], [ -89.959033, 35.161456 ], [ -89.959868, 35.161156 ], [ -89.962692, 35.160144 ], [ -89.962697, 35.160032 ], [ -89.967029, 35.159034 ], [ -89.967582, 35.153794 ], [ -89.967637, 35.153026 ], [ -89.967736, 35.152177 ], [ -89.968033, 35.149698 ], [ -89.968329, 35.147473 ], [ -89.968529, 35.146019 ], [ -89.968547, 35.145887 ], [ -89.968877, 35.143424 ], [ -89.969908, 35.135768 ], [ -89.968866, 35.135392 ], [ -89.968701, 35.135332 ], [ -89.968338, 35.135201 ], [ -89.967715, 35.134976 ], [ -89.966154, 35.13444 ], [ -89.964733, 35.133896 ], [ -89.964318, 35.133737 ], [ -89.963364, 35.133374 ], [ -89.960022, 35.132125 ], [ -89.958694, 35.131682 ], [ -89.958475, 35.131607 ], [ -89.955512, 35.130669 ], [ -89.954057, 35.130206 ], [ -89.95302, 35.129878 ], [ -89.951759, 35.129507 ], [ -89.950736, 35.129235 ], [ -89.950422, 35.129151 ], [ -89.950302, 35.129118 ], [ -89.949602, 35.128926 ], [ -89.948817, 35.128713 ], [ -89.945219, 35.12779 ], [ -89.945282, 35.126399 ], [ -89.94532, 35.125485 ], [ -89.945325, 35.125344 ], [ -89.945334, 35.125142 ], [ -89.945341, 35.124923 ], [ -89.945347, 35.124783 ], [ -89.945362, 35.124431 ], [ -89.945412, 35.123197 ], [ -89.945507, 35.121295 ], [ -89.945548, 35.120245 ], [ -89.945592, 35.119171 ], [ -89.945645, 35.117804 ], [ -89.945701, 35.116435 ], [ -89.945746, 35.115463 ], [ -89.945748, 35.115428 ], [ -89.945754, 35.115323 ], [ -89.945757, 35.115289 ], [ -89.945769, 35.115097 ], [ -89.945824, 35.113488 ], [ -89.944908, 35.113464 ], [ -89.944576, 35.113456 ], [ -89.944264, 35.113449 ], [ -89.942781, 35.113405 ], [ -89.941312, 35.113367 ], [ -89.939845, 35.11333 ], [ -89.938315, 35.113286 ], [ -89.938198, 35.116011 ], [ -89.936383, 35.115972 ], [ -89.936512, 35.113243 ], [ -89.935218, 35.113211 ], [ -89.934936, 35.113204 ], [ -89.933984, 35.113178 ], [ -89.933298, 35.11316 ], [ -89.932696, 35.113145 ], [ -89.931306, 35.113109 ], [ -89.931414, 35.111458 ], [ -89.931519, 35.109849 ], [ -89.93153, 35.109728 ], [ -89.931659, 35.108667 ], [ -89.931715, 35.107523 ], [ -89.930668, 35.1075 ], [ -89.930719, 35.105233 ], [ -89.930741, 35.104383 ], [ -89.930841, 35.100541 ], [ -89.930871, 35.099419 ], [ -89.930903, 35.098169 ], [ -89.930933, 35.097032 ], [ -89.930941, 35.096636 ], [ -89.930963, 35.095703 ], [ -89.930979, 35.095112 ], [ -89.931008, 35.093882 ], [ -89.931032, 35.092985 ], [ -89.931067, 35.091392 ], [ -89.931094, 35.090182 ], [ -89.931121, 35.088946 ], [ -89.931143, 35.088131 ], [ -89.931175, 35.086738 ], [ -89.931214, 35.085138 ], [ -89.923801, 35.084819 ], [ -89.922855, 35.08478 ], [ -89.922961, 35.082939 ], [ -89.923037, 35.081432 ], [ -89.923223, 35.078912 ], [ -89.923246, 35.078742 ], [ -89.920774, 35.078384 ], [ -89.916653, 35.077921 ], [ -89.911094, 35.077793 ], [ -89.906978, 35.078254 ], [ -89.907028, 35.078445 ], [ -89.900027, 35.081085 ], [ -89.895023, 35.083234 ], [ -89.895377, 35.084899 ], [ -89.890951, 35.084306 ], [ -89.885455, 35.084527 ], [ -89.884377, 35.084378 ], [ -89.883422, 35.08422 ], [ -89.87963, 35.084318 ], [ -89.880067, 35.084444 ], [ -89.876378, 35.085151 ], [ -89.874677, 35.08572 ], [ -89.875, 35.085552 ], [ -89.876898, 35.083812 ], [ -89.876824, 35.082513 ], [ -89.875499, 35.080958 ], [ -89.875176, 35.080497 ], [ -89.870756, 35.078234 ], [ -89.868779, 35.077568 ], [ -89.861953, 35.074638 ], [ -89.861715, 35.074982 ], [ -89.861508, 35.074872 ], [ -89.856134, 35.071518 ], [ -89.853974, 35.070514 ], [ -89.843687, 35.066761 ], [ -89.843649, 35.066922 ], [ -89.843493, 35.066858 ], [ -89.843522, 35.066689 ], [ -89.842216, 35.06604 ], [ -89.839709, 35.064127 ], [ -89.838302, 35.062482 ], [ -89.837849, 35.062215 ], [ -89.835599, 35.059431 ], [ -89.833299, 35.057458 ], [ -89.829176, 35.054804 ], [ -89.829042, 35.054721 ], [ -89.826516, 35.053239 ], [ -89.824625, 35.052673 ], [ -89.822525, 35.052528 ], [ -89.822334, 35.052364 ], [ -89.821176, 35.052364 ], [ -89.814149, 35.05241 ], [ -89.812938, 35.052301 ], [ -89.810629, 35.051265 ], [ -89.809582, 35.049947 ], [ -89.809332, 35.049913 ], [ -89.807879, 35.049742 ], [ -89.803895, 35.049248 ], [ -89.801578, 35.048936 ], [ -89.799391, 35.048641 ], [ -89.79551, 35.048326 ], [ -89.795431, 35.048322 ], [ -89.795348, 35.048385 ], [ -89.795329, 35.0484 ], [ -89.794804, 35.048385 ], [ -89.794622, 35.048381 ], [ -89.794259, 35.048371 ], [ -89.793213, 35.048353 ], [ -89.793127, 35.048352 ], [ -89.793009, 35.048349 ], [ -89.791639, 35.04832 ], [ -89.790605, 35.048302 ], [ -89.790495, 35.048301 ], [ -89.79049, 35.048237 ], [ -89.790484, 35.048149 ], [ -89.790482, 35.047984 ], [ -89.789279, 35.047959 ], [ -89.786316, 35.047904 ], [ -89.783622, 35.047861 ], [ -89.783623, 35.048013 ], [ -89.78304, 35.047999 ], [ -89.782883, 35.047996 ], [ -89.778207, 35.047902 ], [ -89.77088, 35.047757 ], [ -89.770871, 35.0479 ], [ -89.770745, 35.047897 ], [ -89.770752, 35.047754 ], [ -89.76888, 35.047712 ], [ -89.766504, 35.047663 ], [ -89.763898, 35.047609 ], [ -89.759913, 35.047537 ], [ -89.755779, 35.047441 ], [ -89.753696, 35.047399 ], [ -89.750294, 35.04733 ], [ -89.747605, 35.047276 ], [ -89.745281, 35.047171 ], [ -89.742167, 35.047088 ], [ -89.739901, 35.047057 ], [ -89.739896, 35.047213 ], [ -89.739827, 35.049982 ], [ -89.738379, 35.054627 ], [ -89.737599, 35.054239 ], [ -89.734689, 35.052436 ], [ -89.732597, 35.051642 ], [ -89.732462, 35.051607 ], [ -89.724282, 35.049182 ], [ -89.72422, 35.049166 ], [ -89.720842, 35.048243 ], [ -89.71218, 35.047251 ], [ -89.712035, 35.047235 ], [ -89.708802, 35.046881 ], [ -89.705432, 35.046513 ], [ -89.70217, 35.046424 ], [ -89.70053, 35.046368 ], [ -89.694456, 35.046246 ], [ -89.689128, 35.046117 ], [ -89.687536, 35.046051 ], [ -89.686439, 35.046022 ], [ -89.684611, 35.045988 ], [ -89.681831, 35.04593 ], [ -89.679854, 35.045878 ], [ -89.677025, 35.04581 ], [ -89.675788, 35.045777 ], [ -89.672737, 35.045702 ], [ -89.668627, 35.045572 ], [ -89.667756, 35.045547 ], [ -89.666636, 35.045509 ], [ -89.665132, 35.045455 ], [ -89.664963, 35.050115 ], [ -89.668447, 35.050192 ], [ -89.668401, 35.052188 ], [ -89.668368, 35.053434 ], [ -89.668351, 35.054065 ], [ -89.668326, 35.054984 ], [ -89.668279, 35.056427 ], [ -89.668246, 35.057355 ], [ -89.668196, 35.058527 ], [ -89.668131, 35.059878 ], [ -89.668111, 35.060987 ], [ -89.668004, 35.063416 ], [ -89.66792, 35.065357 ], [ -89.667808, 35.067603 ], [ -89.667759, 35.069756 ], [ -89.667749, 35.071355 ], [ -89.667725, 35.074187 ], [ -89.66695, 35.074328 ], [ -89.666735, 35.075742 ], [ -89.666698, 35.079098 ], [ -89.668761, 35.079815 ], [ -89.668685, 35.082842 ], [ -89.668502, 35.087467 ], [ -89.668546, 35.091246 ], [ -89.670755, 35.0908 ], [ -89.673613, 35.092572 ], [ -89.673693, 35.093266 ], [ -89.675111, 35.093242 ], [ -89.67661, 35.093839 ], [ -89.677868, 35.094945 ], [ -89.679443, 35.094428 ], [ -89.681005, 35.095164 ], [ -89.681689, 35.096494 ], [ -89.685099, 35.096337 ], [ -89.682614, 35.095508 ], [ -89.682922, 35.094841 ], [ -89.685675, 35.09488 ], [ -89.685657, 35.093651 ], [ -89.68781, 35.094879 ], [ -89.689324, 35.094107 ], [ -89.687826, 35.093554 ], [ -89.687994, 35.09303 ], [ -89.689969, 35.091787 ], [ -89.691084, 35.09186 ], [ -89.692128, 35.093963 ], [ -89.692891, 35.092325 ], [ -89.693367, 35.090888 ], [ -89.6944, 35.091185 ], [ -89.694752, 35.092222 ], [ -89.694059, 35.093592 ], [ -89.69692, 35.093851 ], [ -89.699401, 35.094915 ], [ -89.701294, 35.094247 ], [ -89.701737, 35.095755 ], [ -89.702961, 35.095845 ], [ -89.702636, 35.094725 ], [ -89.703444, 35.094354 ], [ -89.703813, 35.095795 ], [ -89.704885, 35.096866 ], [ -89.706448, 35.09587 ], [ -89.70784, 35.096981 ], [ -89.707668, 35.097682 ], [ -89.709888, 35.098558 ], [ -89.709038, 35.097243 ], [ -89.709404, 35.096464 ], [ -89.711258, 35.09658 ], [ -89.711174, 35.097496 ], [ -89.712792, 35.098845 ], [ -89.713636, 35.098208 ], [ -89.713839, 35.099283 ], [ -89.713143, 35.100049 ], [ -89.71374, 35.100588 ], [ -89.712955, 35.102077 ], [ -89.714118, 35.103166 ], [ -89.715166, 35.101854 ], [ -89.716895, 35.10222 ], [ -89.718181, 35.103394 ], [ -89.720028, 35.102848 ], [ -89.72196, 35.102922 ], [ -89.722981, 35.103407 ], [ -89.724071, 35.10559 ], [ -89.726506, 35.105425 ], [ -89.727728, 35.106886 ], [ -89.730082, 35.107008 ], [ -89.731458, 35.107573 ], [ -89.731676, 35.110606 ], [ -89.727698, 35.11304 ], [ -89.726033, 35.113078 ], [ -89.723633, 35.114125 ], [ -89.723121, 35.114709 ], [ -89.723104, 35.117418 ], [ -89.725613, 35.120821 ], [ -89.728097, 35.122421 ], [ -89.728202, 35.123512 ], [ -89.728192, 35.12398 ], [ -89.728102, 35.127693 ], [ -89.728056, 35.129492 ], [ -89.727892, 35.13726 ], [ -89.727659, 35.14099 ], [ -89.727235, 35.144215 ], [ -89.726269, 35.146363 ], [ -89.719699, 35.146176 ], [ -89.717472, 35.145766 ], [ -89.717137, 35.156462 ], [ -89.717057, 35.159511 ], [ -89.713495, 35.159292 ], [ -89.710896, 35.159362 ], [ -89.709741, 35.158839 ], [ -89.708999, 35.158575 ], [ -89.703841, 35.158471 ], [ -89.701744, 35.158455 ], [ -89.695535, 35.158314 ], [ -89.692286, 35.158429 ], [ -89.691559, 35.159058 ], [ -89.69016, 35.159997 ], [ -89.680033, 35.15976 ], [ -89.678324, 35.159602 ], [ -89.674394, 35.159001 ], [ -89.667254, 35.15929 ], [ -89.663571, 35.159191 ], [ -89.660061, 35.157497 ], [ -89.641986, 35.157143 ], [ -89.638476, 35.155892 ], [ -89.638204, 35.164439 ], [ -89.638177, 35.165282 ], [ -89.637731, 35.179338 ], [ -89.62201, 35.179597 ], [ -89.60848, 35.179877 ], [ -89.600968, 35.180084 ], [ -89.597629, 35.178682 ], [ -89.596554, 35.178525 ], [ -89.592829, 35.179191 ], [ -89.592795, 35.180203 ], [ -89.568534, 35.180583 ], [ -89.566244, 35.180602 ], [ -89.563708, 35.180625 ], [ -89.548622, 35.180969 ], [ -89.548396, 35.187702 ], [ -89.54836, 35.190616 ], [ -89.5479, 35.192187 ], [ -89.539555, 35.191961 ], [ -89.538571, 35.191776 ], [ -89.533803, 35.191872 ], [ -89.533763, 35.193046 ], [ -89.530651, 35.19444 ], [ -89.530717, 35.196423 ], [ -89.529117, 35.198752 ], [ -89.529197, 35.200049 ], [ -89.528553, 35.202174 ], [ -89.529396, 35.204262 ], [ -89.528586, 35.204998 ], [ -89.528183, 35.207453 ], [ -89.529816, 35.207899 ], [ -89.532926, 35.211238 ], [ -89.534821, 35.212372 ], [ -89.535137, 35.213426 ], [ -89.535269, 35.213581 ], [ -89.535277, 35.213709 ], [ -89.5353, 35.213882 ], [ -89.535301, 35.213898 ], [ -89.535314, 35.214095 ], [ -89.535426, 35.214288 ], [ -89.5355, 35.214377 ], [ -89.535526, 35.214402 ], [ -89.535564, 35.214424 ], [ -89.535646, 35.214451 ], [ -89.535706, 35.214465 ], [ -89.535682, 35.214526 ], [ -89.53566, 35.214579 ], [ -89.535629, 35.214657 ], [ -89.535613, 35.214693 ], [ -89.535043, 35.215416 ], [ -89.533594, 35.215529 ], [ -89.532308, 35.21637 ], [ -89.532101, 35.219756 ], [ -89.52997, 35.219692 ], [ -89.52991, 35.221118 ], [ -89.532228, 35.221155 ], [ -89.532214, 35.223405 ], [ -89.53376, 35.223582 ], [ -89.532743, 35.223709 ], [ -89.530928, 35.224967 ], [ -89.530023, 35.226256 ], [ -89.528989, 35.226147 ], [ -89.529822, 35.225015 ], [ -89.5292, 35.22361 ], [ -89.527543, 35.223877 ], [ -89.527418, 35.22677 ], [ -89.527931, 35.22732 ], [ -89.526993, 35.229031 ], [ -89.527602, 35.229039 ], [ -89.527787, 35.229045 ], [ -89.53025, 35.229114 ], [ -89.536667, 35.229149 ], [ -89.536688, 35.2341 ], [ -89.536436, 35.238629 ], [ -89.536291, 35.243643 ], [ -89.536281, 35.244542 ], [ -89.539384, 35.244547 ], [ -89.53914, 35.249818 ], [ -89.539104, 35.250556 ], [ -89.53366, 35.250461 ], [ -89.533621, 35.25393 ], [ -89.519667, 35.253578 ], [ -89.519566, 35.253581 ], [ -89.519559, 35.253756 ], [ -89.519554, 35.253891 ], [ -89.519538, 35.254384 ], [ -89.519437, 35.258308 ], [ -89.516479, 35.258155 ], [ -89.51362, 35.258032 ], [ -89.507051, 35.257687 ], [ -89.505572, 35.257649 ], [ -89.504989, 35.257635 ], [ -89.505017, 35.254803 ], [ -89.506434, 35.253736 ], [ -89.509809, 35.251073 ], [ -89.512058, 35.248938 ], [ -89.512369, 35.247963 ], [ -89.506295, 35.247797 ], [ -89.505161, 35.245756 ], [ -89.503655, 35.243737 ], [ -89.503527, 35.241025 ], [ -89.503659, 35.238603 ], [ -89.501284, 35.23702 ], [ -89.497817, 35.236363 ], [ -89.497708, 35.234199 ], [ -89.49718, 35.233806 ], [ -89.4968, 35.240828 ], [ -89.494423, 35.2408 ], [ -89.494418, 35.240864 ], [ -89.494236, 35.240849 ], [ -89.49424, 35.240975 ], [ -89.49222, 35.240949 ], [ -89.492218, 35.240788 ], [ -89.492135, 35.240724 ], [ -89.484491, 35.24047 ], [ -89.484334, 35.240687 ], [ -89.484357, 35.240197 ], [ -89.484387, 35.239574 ], [ -89.484491, 35.23787 ], [ -89.484481, 35.236601 ], [ -89.484492, 35.235483 ], [ -89.48457, 35.23436 ], [ -89.485661, 35.231484 ], [ -89.485758, 35.23097 ], [ -89.466244, 35.232375 ], [ -89.463266, 35.232456 ], [ -89.459321, 35.231858 ], [ -89.457408, 35.231696 ], [ -89.45739, 35.231492 ], [ -89.457413, 35.227728 ], [ -89.454945, 35.226877 ], [ -89.450852, 35.22676 ], [ -89.449952, 35.228686 ], [ -89.446333, 35.228711 ], [ -89.443058, 35.227688 ], [ -89.440582, 35.224224 ], [ -89.434335, 35.220148 ], [ -89.429502, 35.218335 ], [ -89.429616, 35.216934 ], [ -89.428679, 35.216544 ], [ -89.428753, 35.215104 ], [ -89.427742, 35.214385 ], [ -89.427969, 35.213566 ], [ -89.4189, 35.212732 ], [ -89.416068, 35.213344 ], [ -89.404202, 35.216028 ], [ -89.386548, 35.220023 ], [ -89.385238, 35.219057 ], [ -89.382664, 35.219441 ], [ -89.382067, 35.216649 ], [ -89.381379, 35.214083 ], [ -89.377693, 35.210208 ], [ -89.375928, 35.20751 ], [ -89.373779, 35.200809 ], [ -89.37228, 35.19798 ], [ -89.36897, 35.195379 ], [ -89.366498, 35.192408 ], [ -89.366082, 35.190578 ], [ -89.363891, 35.187454 ], [ -89.36391, 35.186603 ], [ -89.364371, 35.183685 ], [ -89.365501, 35.182058 ], [ -89.366329, 35.179975 ], [ -89.368742, 35.176002 ], [ -89.36796, 35.174197 ], [ -89.366013, 35.172895 ], [ -89.364341, 35.172268 ], [ -89.363485, 35.172254 ], [ -89.35862, 35.187489 ], [ -89.338331, 35.191059 ], [ -89.341971, 35.201065 ], [ -89.342853, 35.208984 ], [ -89.344223, 35.211129 ], [ -89.345658, 35.21269 ], [ -89.34616, 35.213873 ], [ -89.343624, 35.213958 ], [ -89.342277, 35.215896 ], [ -89.342092, 35.217151 ], [ -89.340795, 35.219458 ], [ -89.339572, 35.220826 ], [ -89.338331, 35.221259 ], [ -89.33691, 35.222649 ], [ -89.335508, 35.224748 ], [ -89.335046, 35.225475 ], [ -89.333191, 35.227292 ], [ -89.319723, 35.22701 ], [ -89.319107, 35.226997 ], [ -89.319083, 35.228744 ], [ -89.31817, 35.231403 ], [ -89.316853, 35.23404 ], [ -89.319443, 35.237311 ], [ -89.319216, 35.239088 ], [ -89.318462, 35.241108 ], [ -89.318955, 35.242382 ], [ -89.318617, 35.244255 ], [ -89.312247, 35.245378 ], [ -89.303169, 35.246937 ], [ -89.299932, 35.248169 ], [ -89.296863, 35.249857 ], [ -89.276776, 35.260347 ], [ -89.274858, 35.261322 ], [ -89.273808, 35.261865 ], [ -89.267309, 35.264846 ], [ -89.264352, 35.266577 ], [ -89.262024, 35.268332 ], [ -89.258458, 35.271128 ], [ -89.255991, 35.274259 ], [ -89.251862, 35.279974 ], [ -89.250074, 35.282474 ], [ -89.248302, 35.283866 ], [ -89.231705, 35.29066 ], [ -89.228633, 35.291911 ], [ -89.213429, 35.298111 ], [ -89.193663, 35.306165 ], [ -89.187245, 35.308813 ], [ -89.187238, 35.309016 ], [ -89.187231, 35.309204 ], [ -89.187071, 35.313675 ], [ -89.186678, 35.327415 ], [ -89.18614, 35.344241 ], [ -89.185566, 35.360637 ], [ -89.185327, 35.367939 ], [ -89.185076, 35.373667 ], [ -89.184836, 35.375081 ], [ -89.184306, 35.388209 ], [ -89.183944, 35.397126 ], [ -89.183881, 35.398725 ], [ -89.183547, 35.407063 ], [ -89.183059, 35.419675 ], [ -89.182551, 35.432816 ], [ -89.168018, 35.432652 ], [ -89.16138, 35.432559 ], [ -89.147272, 35.432361 ], [ -89.125065, 35.432053 ], [ -89.123671, 35.432126 ], [ -89.109358, 35.431909 ], [ -89.108599, 35.431897 ], [ -89.09509, 35.431683 ], [ -89.084245, 35.431512 ], [ -89.082937, 35.431492 ], [ -89.078876, 35.431428 ], [ -89.076807, 35.431396 ], [ -89.072237, 35.431323 ], [ -89.061254, 35.43115 ], [ -89.055082, 35.431053 ], [ -89.054301, 35.43104 ], [ -89.0541, 35.431036 ], [ -89.053498, 35.431026 ], [ -89.053298, 35.431023 ], [ -89.052979, 35.431018 ], [ -89.036176, 35.430758 ], [ -89.018231, 35.430473 ], [ -89.012175, 35.430379 ], [ -88.995615, 35.430179 ], [ -88.986509, 35.430046 ], [ -88.980601, 35.429959 ], [ -88.977842, 35.429918 ], [ -88.967583, 35.429764 ], [ -88.944514, 35.429431 ], [ -88.943059, 35.42941 ], [ -88.931296, 35.429196 ], [ -88.916663, 35.428992 ], [ -88.907652, 35.428832 ], [ -88.894498, 35.428662 ], [ -88.893132, 35.428645 ], [ -88.89137, 35.428648 ], [ -88.877203, 35.428425 ], [ -88.875182, 35.428423 ], [ -88.874632, 35.428311 ], [ -88.865041, 35.428171 ], [ -88.85602, 35.428039 ], [ -88.852971, 35.427994 ], [ -88.841607, 35.427826 ], [ -88.841636, 35.425211 ], [ -88.841747, 35.415287 ], [ -88.841971, 35.397477 ], [ -88.841991, 35.395994 ], [ -88.842046, 35.39212 ], [ -88.842036, 35.384447 ], [ -88.840674, 35.38325 ], [ -88.837107, 35.380113 ], [ -88.833647, 35.377055 ], [ -88.831775, 35.375421 ], [ -88.831684, 35.375102 ], [ -88.831199, 35.374056 ], [ -88.828898, 35.372689 ], [ -88.826248, 35.370511 ], [ -88.825502, 35.369793 ], [ -88.822382, 35.366698 ], [ -88.817703, 35.361614 ], [ -88.814976, 35.358008 ], [ -88.807728, 35.349614 ], [ -88.805487, 35.346971 ], [ -88.805397, 35.346862 ], [ -88.804783, 35.346114 ], [ -88.798237, 35.338625 ], [ -88.797525, 35.336372 ], [ -88.797079, 35.33498 ], [ -88.797009, 35.334742 ], [ -88.795241, 35.329159 ], [ -88.792777, 35.329188 ], [ -88.792767, 35.323902 ], [ -88.795408, 35.323911 ], [ -88.793698, 35.31416 ], [ -88.791993, 35.304421 ], [ -88.789906, 35.2925 ], [ -88.78736, 35.278211 ], [ -88.784054, 35.260363 ], [ -88.783927, 35.25968 ], [ -88.782101, 35.247703 ], [ -88.781768, 35.247587 ], [ -88.769822, 35.247618 ], [ -88.760854, 35.247642 ], [ -88.755177, 35.247657 ], [ -88.749831, 35.247648 ], [ -88.741723, 35.247623 ], [ -88.735825, 35.247339 ], [ -88.729109, 35.247574 ], [ -88.722717, 35.247564 ], [ -88.719728, 35.247622 ], [ -88.718446, 35.25045 ], [ -88.716481, 35.256343 ], [ -88.716221, 35.257335 ], [ -88.716024, 35.258128 ], [ -88.707137, 35.257875 ], [ -88.706188, 35.265212 ], [ -88.705899, 35.266252 ], [ -88.704089, 35.27276 ], [ -88.701451, 35.280252 ], [ -88.699131, 35.288442 ], [ -88.698246, 35.290281 ], [ -88.693559, 35.300489 ], [ -88.689275, 35.310222 ], [ -88.688221, 35.311767 ], [ -88.686832, 35.313798 ], [ -88.686168, 35.314776 ], [ -88.684137, 35.315157 ], [ -88.683954, 35.317839 ], [ -88.68273, 35.317841 ], [ -88.682084, 35.319135 ], [ -88.678965, 35.320768 ], [ -88.679036, 35.323426 ], [ -88.674885, 35.323415 ], [ -88.674885, 35.319003 ], [ -88.672734, 35.319002 ], [ -88.67274, 35.314129 ], [ -88.672741, 35.312454 ], [ -88.667786, 35.312464 ], [ -88.660063, 35.312475 ], [ -88.660048, 35.31435 ], [ -88.660035, 35.315983 ], [ -88.657684, 35.317563 ], [ -88.653924, 35.317571 ], [ -88.653924, 35.320635 ], [ -88.656892, 35.32062 ], [ -88.661785, 35.320573 ], [ -88.661719, 35.319193 ], [ -88.665364, 35.319193 ], [ -88.665362, 35.323368 ], [ -88.665364, 35.325529 ], [ -88.662126, 35.325531 ], [ -88.662123, 35.333439 ], [ -88.662033, 35.334334 ], [ -88.661988, 35.335843 ], [ -88.662374, 35.339446 ], [ -88.663831, 35.339419 ], [ -88.663119, 35.340258 ], [ -88.655164, 35.347282 ], [ -88.654732, 35.347644 ], [ -88.650487, 35.351465 ], [ -88.642051, 35.360141 ], [ -88.641297, 35.360735 ], [ -88.641054, 35.360926 ], [ -88.634715, 35.362733 ], [ -88.631885, 35.363691 ], [ -88.609283, 35.369807 ], [ -88.607159, 35.370423 ], [ -88.600019, 35.373349 ], [ -88.596502, 35.375078 ], [ -88.593039, 35.376208 ], [ -88.590897, 35.376984 ], [ -88.587223, 35.377913 ], [ -88.577216, 35.380734 ], [ -88.571763, 35.382084 ], [ -88.571763, 35.38077 ], [ -88.569786, 35.375078 ], [ -88.569612, 35.371615 ], [ -88.567717, 35.372962 ], [ -88.565898, 35.372962 ], [ -88.565661, 35.371766 ], [ -88.567201, 35.369828 ], [ -88.565841, 35.369504 ], [ -88.561199, 35.369734 ], [ -88.560547, 35.370671 ], [ -88.560484, 35.372985 ], [ -88.558166, 35.372867 ], [ -88.556898, 35.37322 ], [ -88.561722, 35.376661 ], [ -88.564829, 35.379771 ], [ -88.566721, 35.38209 ], [ -88.566735, 35.382275 ], [ -88.546038, 35.383607 ], [ -88.539287, 35.384022 ], [ -88.533478, 35.384367 ], [ -88.528142, 35.384686 ], [ -88.527621, 35.384722 ], [ -88.521975, 35.385097 ], [ -88.521991, 35.383379 ], [ -88.521775, 35.379323 ], [ -88.51468, 35.379328 ], [ -88.513925, 35.379705 ], [ -88.511443, 35.379001 ], [ -88.509999, 35.37897 ], [ -88.508712, 35.379672 ], [ -88.508547, 35.383187 ], [ -88.507707, 35.384912 ], [ -88.497911, 35.385026 ], [ -88.487211, 35.38523 ], [ -88.473362, 35.384632 ], [ -88.471522, 35.384639 ], [ -88.460718, 35.384232 ], [ -88.44146, 35.383314 ], [ -88.437439, 35.383083 ], [ -88.435238, 35.383018 ], [ -88.434663, 35.38299 ], [ -88.429376, 35.382735 ], [ -88.428915, 35.38259 ], [ -88.428981, 35.3807 ], [ -88.423923, 35.380505 ], [ -88.423425, 35.382378 ], [ -88.408045, 35.381614 ], [ -88.397477, 35.381079 ], [ -88.391541, 35.38102 ], [ -88.38572, 35.380962 ], [ -88.383473, 35.38094 ], [ -88.383629, 35.377757 ], [ -88.383942, 35.375077 ], [ -88.379339, 35.375 ], [ -88.377029, 35.374954 ], [ -88.376863, 35.374951 ], [ -88.370629, 35.374818 ], [ -88.37058, 35.377181 ], [ -88.370591, 35.37738 ], [ -88.371019, 35.380721 ], [ -88.367842, 35.381147 ], [ -88.366168, 35.381064 ], [ -88.362572, 35.380994 ], [ -88.362466, 35.383928 ], [ -88.362244, 35.389586 ], [ -88.362223, 35.390084 ], [ -88.362021, 35.395172 ], [ -88.361929, 35.397044 ], [ -88.3555, 35.396994 ], [ -88.355284, 35.403062 ], [ -88.35318, 35.403012 ], [ -88.351942, 35.402982 ], [ -88.351765, 35.406735 ], [ -88.361521, 35.408877 ], [ -88.361378, 35.411355 ], [ -88.361099, 35.416333 ], [ -88.360829, 35.418972 ], [ -88.352578, 35.418787 ], [ -88.350722, 35.418745 ], [ -88.346807, 35.418657 ], [ -88.343144, 35.418575 ], [ -88.335469, 35.418403 ], [ -88.327809, 35.418233 ], [ -88.325658, 35.418185 ], [ -88.321038, 35.418082 ], [ -88.317966, 35.418012 ], [ -88.315624, 35.41796 ], [ -88.30687, 35.417765 ], [ -88.301071, 35.417635 ], [ -88.299154, 35.417592 ], [ -88.286386, 35.417325 ], [ -88.285287, 35.4173 ], [ -88.282253, 35.417231 ], [ -88.270576, 35.416966 ], [ -88.268264, 35.416912 ], [ -88.267492, 35.416894 ], [ -88.266466, 35.416872 ], [ -88.265471, 35.416849 ], [ -88.264909, 35.416835 ], [ -88.260249, 35.416731 ], [ -88.251053, 35.416523 ], [ -88.250037, 35.4165 ], [ -88.246192, 35.416307 ], [ -88.2461, 35.418817 ], [ -88.241951, 35.418654 ], [ -88.241855, 35.42028 ], [ -88.241677, 35.423263 ], [ -88.240354, 35.423207 ], [ -88.240498, 35.420568 ], [ -88.240498, 35.420084 ], [ -88.234975, 35.419899 ], [ -88.234964, 35.419528 ], [ -88.232608, 35.419437 ], [ -88.232701, 35.415687 ], [ -88.232069, 35.414253 ], [ -88.228612, 35.413139 ], [ -88.226888, 35.413309 ], [ -88.226418, 35.414298 ], [ -88.22477, 35.412251 ], [ -88.223898, 35.410858 ], [ -88.223465, 35.41119 ], [ -88.220432, 35.411282 ], [ -88.220685, 35.411587 ], [ -88.220559, 35.412482 ], [ -88.219409, 35.411807 ], [ -88.217975, 35.412043 ], [ -88.217492, 35.411012 ], [ -88.218348, 35.410522 ], [ -88.215948, 35.410184 ], [ -88.215793, 35.408867 ], [ -88.213797, 35.40929 ], [ -88.212316, 35.408518 ], [ -88.212746, 35.407612 ], [ -88.212052, 35.406988 ], [ -88.210134, 35.407322 ], [ -88.209699, 35.406338 ], [ -88.210425, 35.405296 ], [ -88.207727, 35.401639 ], [ -88.209711, 35.400441 ], [ -88.209585, 35.398121 ], [ -88.20816, 35.396937 ], [ -88.207557, 35.396042 ], [ -88.206882, 35.394649 ], [ -88.204039, 35.394002 ], [ -88.203882, 35.394179 ], [ -88.203824, 35.394211 ], [ -88.202439, 35.394103 ], [ -88.202223, 35.395078 ], [ -88.201347, 35.394929 ], [ -88.198554, 35.39285 ], [ -88.198098, 35.391292 ], [ -88.199071, 35.39025 ], [ -88.197769, 35.389751 ], [ -88.197855, 35.388265 ], [ -88.196809, 35.387512 ], [ -88.197024, 35.387174 ], [ -88.197334, 35.385567 ], [ -88.199643, 35.38257 ], [ -88.198682, 35.382106 ], [ -88.198009, 35.380463 ], [ -88.196462, 35.379561 ], [ -88.192681, 35.382581 ], [ -88.189661, 35.384303 ], [ -88.184374, 35.38602 ], [ -88.178692, 35.387479 ], [ -88.172078, 35.390286 ], [ -88.166525, 35.392059 ], [ -88.165185, 35.392278 ], [ -88.161255, 35.392249 ], [ -88.158268, 35.391412 ], [ -88.15606, 35.390413 ], [ -88.151408, 35.389028 ], [ -88.144773, 35.386264 ], [ -88.141354, 35.385443 ], [ -88.134327, 35.384715 ], [ -88.125033, 35.383943 ], [ -88.119666, 35.384361 ], [ -88.11675, 35.385 ], [ -88.114464, 35.385809 ], [ -88.109466, 35.388484 ], [ -88.106281, 35.390557 ], [ -88.096623, 35.399121 ], [ -88.091415, 35.403205 ], [ -88.088366, 35.405415 ], [ -88.081107, 35.409696 ], [ -88.072161, 35.414456 ], [ -88.066765, 35.417417 ], [ -88.065809, 35.41764 ], [ -88.063228, 35.417385 ], [ -88.061042, 35.41659 ], [ -88.055689, 35.413024 ], [ -88.051905, 35.410866 ], [ -88.048111, 35.408591 ], [ -88.045614, 35.406595 ], [ -88.03031, 35.396709 ], [ -88.024741, 35.392307 ], [ -88.020232, 35.389164 ], [ -88.017055, 35.387633 ], [ -88.012546, 35.386944 ], [ -88.001175, 35.388501 ], [ -88.000029, 35.38853 ], [ -87.996149, 35.389421 ], [ -87.994202, 35.389595 ], [ -87.986732, 35.391374 ], [ -87.984553, 35.392115 ], [ -87.980472, 35.394984 ], [ -87.97516, 35.401526 ], [ -87.97486, 35.40197 ], [ -87.97366, 35.404958 ], [ -87.973414, 35.409611 ], [ -87.974314, 35.412567 ], [ -87.975184, 35.414174 ], [ -87.978042, 35.416319 ], [ -87.978573, 35.415237 ], [ -87.979636, 35.414871 ], [ -87.982906, 35.414793 ], [ -87.98784, 35.415969 ], [ -87.990302, 35.417514 ], [ -87.996801, 35.420173 ], [ -88.005253, 35.4229 ], [ -88.007709, 35.423381 ], [ -88.007891, 35.425103 ], [ -88.008817, 35.425805 ], [ -88.012591, 35.426874 ], [ -88.01268, 35.427317 ], [ -88.011668, 35.432974 ], [ -88.009577, 35.432563 ], [ -88.008612, 35.433222 ], [ -88.008723, 35.435772 ], [ -88.005169, 35.436987 ], [ -88.003487, 35.438841 ], [ -88.002635, 35.439163 ], [ -88.00057, 35.442335 ], [ -87.999947, 35.44273 ], [ -87.996247, 35.443039 ], [ -87.995738, 35.445203 ], [ -87.993225, 35.4461 ], [ -87.991349, 35.447129 ], [ -87.99054, 35.449921 ], [ -87.989695, 35.451384 ], [ -87.989305, 35.453291 ], [ -87.988168, 35.45394 ], [ -87.985645, 35.453112 ], [ -87.98441, 35.45209 ], [ -87.982667, 35.452917 ], [ -87.982872, 35.453601 ], [ -87.982252, 35.455468 ], [ -87.980703, 35.456721 ], [ -87.98071, 35.457623 ], [ -87.977697, 35.458815 ], [ -87.976926, 35.458421 ], [ -87.974931, 35.45917 ], [ -87.974369, 35.460051 ], [ -87.97318, 35.459968 ], [ -87.971384, 35.458263 ], [ -87.969244, 35.457924 ], [ -87.966856, 35.45703 ], [ -87.965427, 35.457707 ], [ -87.962805, 35.457908 ], [ -87.961468, 35.459372 ], [ -87.960028, 35.459363 ], [ -87.959917, 35.459329 ], [ -87.959822, 35.45931 ], [ -87.959603, 35.459269 ], [ -87.959364, 35.459476 ], [ -87.959305, 35.459553 ], [ -87.959179, 35.459724 ], [ -87.956631, 35.459662 ], [ -87.955263, 35.459993 ], [ -87.953314, 35.459258 ], [ -87.952092, 35.458121 ], [ -87.950001, 35.458709 ], [ -87.947251, 35.45904 ], [ -87.94616, 35.460489 ], [ -87.944017, 35.461599 ], [ -87.942797, 35.46177 ], [ -87.942812, 35.46396 ], [ -87.941643, 35.464586 ], [ -87.937228, 35.463822 ], [ -87.935847, 35.464246 ], [ -87.934313, 35.465621 ], [ -87.932058, 35.465701 ], [ -87.93136, 35.464597 ], [ -87.930086, 35.463809 ], [ -87.928592, 35.462143 ], [ -87.927452, 35.461999 ], [ -87.926678, 35.4622 ], [ -87.926374, 35.461703 ], [ -87.926437, 35.461571 ], [ -87.926776, 35.46086 ], [ -87.926338, 35.460346 ], [ -87.924886, 35.460531 ], [ -87.924743, 35.460336 ], [ -87.924724, 35.460309 ], [ -87.924037, 35.460378 ], [ -87.923798, 35.460403 ], [ -87.922615, 35.459927 ], [ -87.922587, 35.45973 ], [ -87.922541, 35.459659 ], [ -87.922448, 35.459515 ], [ -87.922025, 35.459629 ], [ -87.921891, 35.459695 ], [ -87.921855, 35.459779 ], [ -87.921746, 35.460041 ], [ -87.92135, 35.460423 ], [ -87.920088, 35.463818 ], [ -87.919843, 35.463778 ], [ -87.919422, 35.46371 ], [ -87.919272, 35.463667 ], [ -87.919133, 35.463744 ], [ -87.919018, 35.463808 ], [ -87.918944, 35.463897 ], [ -87.916106, 35.464014 ], [ -87.914207, 35.465857 ], [ -87.912655, 35.465444 ], [ -87.911087, 35.465797 ], [ -87.910825, 35.465962 ], [ -87.910639, 35.465887 ], [ -87.910602, 35.465734 ], [ -87.910428, 35.464991 ], [ -87.908662, 35.463901 ], [ -87.908665, 35.463848 ], [ -87.908532, 35.463729 ], [ -87.908207, 35.463726 ], [ -87.907838, 35.463874 ], [ -87.90579, 35.462456 ], [ -87.904127, 35.46317 ], [ -87.903867, 35.46308 ], [ -87.90353, 35.462964 ], [ -87.903243, 35.463115 ], [ -87.903169, 35.463236 ], [ -87.903102, 35.463348 ], [ -87.903013, 35.463461 ], [ -87.900505, 35.463817 ], [ -87.900409, 35.463686 ], [ -87.900152, 35.463518 ], [ -87.899692, 35.463566 ], [ -87.899345, 35.463749 ], [ -87.899035, 35.46403 ], [ -87.898951, 35.464132 ], [ -87.898654, 35.464495 ], [ -87.893434, 35.464846 ], [ -87.891866, 35.465454 ], [ -87.8916, 35.465427 ], [ -87.891435, 35.465411 ], [ -87.89104, 35.465513 ], [ -87.890883, 35.465677 ], [ -87.890811, 35.465753 ], [ -87.890819, 35.465915 ], [ -87.889259, 35.466693 ], [ -87.889005, 35.46664 ], [ -87.888951, 35.466664 ], [ -87.888827, 35.46672 ], [ -87.88834, 35.46707 ], [ -87.888266, 35.467276 ], [ -87.888159, 35.467576 ], [ -87.887531, 35.468056 ], [ -87.886547, 35.468097 ], [ -87.886947, 35.46927 ], [ -87.885115, 35.47075 ], [ -87.883704, 35.471001 ], [ -87.881428, 35.4707 ], [ -87.879079, 35.469979 ], [ -87.876251, 35.469018 ], [ -87.876346, 35.469794 ], [ -87.876039, 35.470455 ], [ -87.874094, 35.471575 ], [ -87.87385, 35.471501 ], [ -87.87377, 35.471477 ], [ -87.873445, 35.471563 ], [ -87.873404, 35.471732 ], [ -87.873478, 35.471885 ], [ -87.87359, 35.472114 ], [ -87.873178, 35.472856 ], [ -87.872091, 35.473182 ], [ -87.87187, 35.473351 ], [ -87.87162, 35.473451 ], [ -87.871435, 35.473422 ], [ -87.871224, 35.473198 ], [ -87.871113, 35.473088 ], [ -87.871015, 35.472771 ], [ -87.870791, 35.472616 ], [ -87.870679, 35.472629 ], [ -87.870261, 35.472912 ], [ -87.868718, 35.474017 ], [ -87.868493, 35.474 ], [ -87.868411, 35.473994 ], [ -87.868096, 35.474096 ], [ -87.867928, 35.474298 ], [ -87.867857, 35.474385 ], [ -87.867805, 35.474485 ], [ -87.867475, 35.474764 ], [ -87.867024, 35.47473 ], [ -87.865784, 35.475321 ], [ -87.865017, 35.475822 ], [ -87.864943, 35.475898 ], [ -87.864865, 35.475976 ], [ -87.864629, 35.47599 ], [ -87.864443, 35.475924 ], [ -87.864364, 35.475758 ], [ -87.864282, 35.475584 ], [ -87.862541, 35.475091 ], [ -87.860617, 35.473742 ], [ -87.860874, 35.472942 ], [ -87.860164, 35.470361 ], [ -87.859815, 35.467432 ], [ -87.858759, 35.467042 ], [ -87.858506, 35.465413 ], [ -87.847483, 35.465221 ], [ -87.846247, 35.465602 ], [ -87.835786, 35.467861 ], [ -87.829471, 35.469177 ], [ -87.829129, 35.469244 ], [ -87.827406, 35.46988 ], [ -87.826424, 35.470958 ], [ -87.825604, 35.472801 ], [ -87.823912, 35.475208 ], [ -87.822005, 35.476415 ], [ -87.817869, 35.476927 ], [ -87.815016, 35.476487 ], [ -87.814154, 35.477761 ], [ -87.81171, 35.48138 ], [ -87.80926, 35.479965 ], [ -87.807597, 35.479532 ], [ -87.807279, 35.479458 ], [ -87.803589, 35.484954 ], [ -87.781009, 35.486835 ], [ -87.764711, 35.488247 ], [ -87.752632, 35.489241 ], [ -87.747665, 35.491019 ], [ -87.745489, 35.491782 ], [ -87.742081, 35.491757 ], [ -87.733811, 35.491691 ], [ -87.72713, 35.488288 ], [ -87.717559, 35.483347 ] ] ] ] } }
]
}
