{
"type": "FeatureCollection",
"name": "id_9",
"crs": { "type": "name", "properties": { "name": "urn:ogc:def:crs:OGC:1.3:CRS84" } },
"xy_coordinate_resolution": 1e-15,
"features": [
{ "type": "Feature", "properties": { "id": 9.0, "NAME": "9.0", "TotalPop": 767872.0, "PopDevPct": 0.0, "DemPct": 0.446, "RepPct": 0.535, "WhitePct": 0.582, "MinorityPc": 0.418, "BlackPct": 0.317, "HispanicPc": 0.056, "PacificPct": 0.001, "AsianPct": 0.028, "NativePct": 0.018, "TotalVAP": 580407.0, "Margin": -0.054, "color": "#dcff1b", "opacity": "0.5" }, "geometry": { "type": "MultiPolygon", "coordinates": [ [ [ [ -88.196462, 35.379561 ], [ -88.198009, 35.380463 ], [ -88.198682, 35.382106 ], [ -88.199643, 35.38257 ], [ -88.197334, 35.385567 ], [ -88.197024, 35.387174 ], [ -88.196809, 35.387512 ], [ -88.197855, 35.388265 ], [ -88.197769, 35.389751 ], [ -88.199071, 35.39025 ], [ -88.198098, 35.391292 ], [ -88.198554, 35.39285 ], [ -88.201347, 35.394929 ], [ -88.202223, 35.395078 ], [ -88.202439, 35.394103 ], [ -88.203824, 35.394211 ], [ -88.203882, 35.394179 ], [ -88.204039, 35.394002 ], [ -88.206882, 35.394649 ], [ -88.207557, 35.396042 ], [ -88.20816, 35.396937 ], [ -88.209585, 35.398121 ], [ -88.209711, 35.400441 ], [ -88.207727, 35.401639 ], [ -88.210425, 35.405296 ], [ -88.209699, 35.406338 ], [ -88.210134, 35.407322 ], [ -88.212052, 35.406988 ], [ -88.212746, 35.407612 ], [ -88.212316, 35.408518 ], [ -88.213797, 35.40929 ], [ -88.215793, 35.408867 ], [ -88.215948, 35.410184 ], [ -88.218348, 35.410522 ], [ -88.217492, 35.411012 ], [ -88.217975, 35.412043 ], [ -88.219409, 35.411807 ], [ -88.220559, 35.412482 ], [ -88.220685, 35.411587 ], [ -88.220432, 35.411282 ], [ -88.223465, 35.41119 ], [ -88.223898, 35.410858 ], [ -88.22477, 35.412251 ], [ -88.226418, 35.414298 ], [ -88.226888, 35.413309 ], [ -88.228612, 35.413139 ], [ -88.232069, 35.414253 ], [ -88.232701, 35.415687 ], [ -88.232608, 35.419437 ], [ -88.234964, 35.419528 ], [ -88.234975, 35.419899 ], [ -88.240498, 35.420084 ], [ -88.240498, 35.420568 ], [ -88.240354, 35.423207 ], [ -88.241677, 35.423263 ], [ -88.241855, 35.42028 ], [ -88.241951, 35.418654 ], [ -88.2461, 35.418817 ], [ -88.246192, 35.416307 ], [ -88.250037, 35.4165 ], [ -88.251053, 35.416523 ], [ -88.260249, 35.416731 ], [ -88.264909, 35.416835 ], [ -88.265471, 35.416849 ], [ -88.266466, 35.416872 ], [ -88.267492, 35.416894 ], [ -88.268264, 35.416912 ], [ -88.270576, 35.416966 ], [ -88.282253, 35.417231 ], [ -88.285287, 35.4173 ], [ -88.286386, 35.417325 ], [ -88.299154, 35.417592 ], [ -88.301071, 35.417635 ], [ -88.30687, 35.417765 ], [ -88.315624, 35.41796 ], [ -88.317966, 35.418012 ], [ -88.321038, 35.418082 ], [ -88.325658, 35.418185 ], [ -88.327809, 35.418233 ], [ -88.335469, 35.418403 ], [ -88.343144, 35.418575 ], [ -88.346807, 35.418657 ], [ -88.350722, 35.418745 ], [ -88.352578, 35.418787 ], [ -88.360829, 35.418972 ], [ -88.361099, 35.416333 ], [ -88.361378, 35.411355 ], [ -88.361521, 35.408877 ], [ -88.351765, 35.406735 ], [ -88.351942, 35.402982 ], [ -88.35318, 35.403012 ], [ -88.355284, 35.403062 ], [ -88.3555, 35.396994 ], [ -88.361929, 35.397044 ], [ -88.362021, 35.395172 ], [ -88.362223, 35.390084 ], [ -88.362244, 35.389586 ], [ -88.362466, 35.383928 ], [ -88.362572, 35.380994 ], [ -88.366168, 35.381064 ], [ -88.367842, 35.381147 ], [ -88.371019, 35.380721 ], [ -88.370591, 35.37738 ], [ -88.37058, 35.377181 ], [ -88.370629, 35.374818 ], [ -88.376863, 35.374951 ], [ -88.377029, 35.374954 ], [ -88.379339, 35.375 ], [ -88.383942, 35.375077 ], [ -88.383629, 35.377757 ], [ -88.383473, 35.38094 ], [ -88.38572, 35.380962 ], [ -88.391541, 35.38102 ], [ -88.397477, 35.381079 ], [ -88.408045, 35.381614 ], [ -88.423425, 35.382378 ], [ -88.423923, 35.380505 ], [ -88.428981, 35.3807 ], [ -88.428915, 35.38259 ], [ -88.429376, 35.382735 ], [ -88.434663, 35.38299 ], [ -88.435238, 35.383018 ], [ -88.437439, 35.383083 ], [ -88.44146, 35.383314 ], [ -88.460718, 35.384232 ], [ -88.471522, 35.384639 ], [ -88.473362, 35.384632 ], [ -88.487211, 35.38523 ], [ -88.497911, 35.385026 ], [ -88.507707, 35.384912 ], [ -88.508547, 35.383187 ], [ -88.508712, 35.379672 ], [ -88.509999, 35.37897 ], [ -88.511443, 35.379001 ], [ -88.513925, 35.379705 ], [ -88.51468, 35.379328 ], [ -88.521775, 35.379323 ], [ -88.521991, 35.383379 ], [ -88.521975, 35.385097 ], [ -88.527621, 35.384722 ], [ -88.528142, 35.384686 ], [ -88.533478, 35.384367 ], [ -88.539287, 35.384022 ], [ -88.546038, 35.383607 ], [ -88.566735, 35.382275 ], [ -88.566721, 35.38209 ], [ -88.564829, 35.379771 ], [ -88.561722, 35.376661 ], [ -88.556898, 35.37322 ], [ -88.558166, 35.372867 ], [ -88.560484, 35.372985 ], [ -88.560547, 35.370671 ], [ -88.561199, 35.369734 ], [ -88.565841, 35.369504 ], [ -88.567201, 35.369828 ], [ -88.565661, 35.371766 ], [ -88.565898, 35.372962 ], [ -88.567717, 35.372962 ], [ -88.569612, 35.371615 ], [ -88.569786, 35.375078 ], [ -88.571763, 35.38077 ], [ -88.571763, 35.382084 ], [ -88.577216, 35.380734 ], [ -88.587223, 35.377913 ], [ -88.590897, 35.376984 ], [ -88.593039, 35.376208 ], [ -88.596502, 35.375078 ], [ -88.600019, 35.373349 ], [ -88.607159, 35.370423 ], [ -88.609283, 35.369807 ], [ -88.631885, 35.363691 ], [ -88.634715, 35.362733 ], [ -88.641054, 35.360926 ], [ -88.641297, 35.360735 ], [ -88.642051, 35.360141 ], [ -88.650487, 35.351465 ], [ -88.654732, 35.347644 ], [ -88.655164, 35.347282 ], [ -88.663119, 35.340258 ], [ -88.663831, 35.339419 ], [ -88.662374, 35.339446 ], [ -88.661988, 35.335843 ], [ -88.662033, 35.334334 ], [ -88.662123, 35.333439 ], [ -88.662126, 35.325531 ], [ -88.665364, 35.325529 ], [ -88.665362, 35.323368 ], [ -88.665364, 35.319193 ], [ -88.661719, 35.319193 ], [ -88.661785, 35.320573 ], [ -88.656892, 35.32062 ], [ -88.653924, 35.320635 ], [ -88.653924, 35.317571 ], [ -88.657684, 35.317563 ], [ -88.660035, 35.315983 ], [ -88.660048, 35.31435 ], [ -88.660063, 35.312475 ], [ -88.667786, 35.312464 ], [ -88.672741, 35.312454 ], [ -88.67274, 35.314129 ], [ -88.672734, 35.319002 ], [ -88.674885, 35.319003 ], [ -88.674885, 35.323415 ], [ -88.679036, 35.323426 ], [ -88.678965, 35.320768 ], [ -88.682084, 35.319135 ], [ -88.68273, 35.317841 ], [ -88.683954, 35.317839 ], [ -88.684137, 35.315157 ], [ -88.686168, 35.314776 ], [ -88.686832, 35.313798 ], [ -88.688221, 35.311767 ], [ -88.689275, 35.310222 ], [ -88.693559, 35.300489 ], [ -88.698246, 35.290281 ], [ -88.699131, 35.288442 ], [ -88.701451, 35.280252 ], [ -88.704089, 35.27276 ], [ -88.705899, 35.266252 ], [ -88.706188, 35.265212 ], [ -88.707137, 35.257875 ], [ -88.716024, 35.258128 ], [ -88.716221, 35.257335 ], [ -88.716481, 35.256343 ], [ -88.718446, 35.25045 ], [ -88.719728, 35.247622 ], [ -88.722717, 35.247564 ], [ -88.729109, 35.247574 ], [ -88.735825, 35.247339 ], [ -88.741723, 35.247623 ], [ -88.749831, 35.247648 ], [ -88.755177, 35.247657 ], [ -88.760854, 35.247642 ], [ -88.769822, 35.247618 ], [ -88.781768, 35.247587 ], [ -88.782101, 35.247703 ], [ -88.783927, 35.25968 ], [ -88.784054, 35.260363 ], [ -88.78736, 35.278211 ], [ -88.789906, 35.2925 ], [ -88.791993, 35.304421 ], [ -88.793698, 35.31416 ], [ -88.795408, 35.323911 ], [ -88.792767, 35.323902 ], [ -88.792777, 35.329188 ], [ -88.795241, 35.329159 ], [ -88.797009, 35.334742 ], [ -88.797079, 35.33498 ], [ -88.797525, 35.336372 ], [ -88.798237, 35.338625 ], [ -88.804783, 35.346114 ], [ -88.805397, 35.346862 ], [ -88.805487, 35.346971 ], [ -88.807728, 35.349614 ], [ -88.814976, 35.358008 ], [ -88.817703, 35.361614 ], [ -88.822382, 35.366698 ], [ -88.825502, 35.369793 ], [ -88.826248, 35.370511 ], [ -88.828898, 35.372689 ], [ -88.831199, 35.374056 ], [ -88.831684, 35.375102 ], [ -88.831775, 35.375421 ], [ -88.833647, 35.377055 ], [ -88.837107, 35.380113 ], [ -88.840674, 35.38325 ], [ -88.842036, 35.384447 ], [ -88.842046, 35.39212 ], [ -88.841991, 35.395994 ], [ -88.841971, 35.397477 ], [ -88.841747, 35.415287 ], [ -88.841636, 35.425211 ], [ -88.841607, 35.427826 ], [ -88.852971, 35.427994 ], [ -88.85602, 35.428039 ], [ -88.865041, 35.428171 ], [ -88.874632, 35.428311 ], [ -88.875182, 35.428423 ], [ -88.877203, 35.428425 ], [ -88.89137, 35.428648 ], [ -88.893132, 35.428645 ], [ -88.894498, 35.428662 ], [ -88.907652, 35.428832 ], [ -88.916663, 35.428992 ], [ -88.931296, 35.429196 ], [ -88.943059, 35.42941 ], [ -88.944514, 35.429431 ], [ -88.967583, 35.429764 ], [ -88.977842, 35.429918 ], [ -88.980601, 35.429959 ], [ -88.986509, 35.430046 ], [ -88.995615, 35.430179 ], [ -89.012175, 35.430379 ], [ -89.018231, 35.430473 ], [ -89.036176, 35.430758 ], [ -89.052979, 35.431018 ], [ -89.053298, 35.431023 ], [ -89.053498, 35.431026 ], [ -89.0541, 35.431036 ], [ -89.054301, 35.43104 ], [ -89.055082, 35.431053 ], [ -89.061254, 35.43115 ], [ -89.072237, 35.431323 ], [ -89.076807, 35.431396 ], [ -89.078876, 35.431428 ], [ -89.082937, 35.431492 ], [ -89.084245, 35.431512 ], [ -89.09509, 35.431683 ], [ -89.108599, 35.431897 ], [ -89.109358, 35.431909 ], [ -89.123671, 35.432126 ], [ -89.125065, 35.432053 ], [ -89.147272, 35.432361 ], [ -89.16138, 35.432559 ], [ -89.168018, 35.432652 ], [ -89.182551, 35.432816 ], [ -89.183059, 35.419675 ], [ -89.183547, 35.407063 ], [ -89.183881, 35.398725 ], [ -89.183944, 35.397126 ], [ -89.184306, 35.388209 ], [ -89.184836, 35.375081 ], [ -89.185076, 35.373667 ], [ -89.185327, 35.367939 ], [ -89.185566, 35.360637 ], [ -89.18614, 35.344241 ], [ -89.186678, 35.327415 ], [ -89.187071, 35.313675 ], [ -89.187231, 35.309204 ], [ -89.187238, 35.309016 ], [ -89.187245, 35.308813 ], [ -89.193663, 35.306165 ], [ -89.213429, 35.298111 ], [ -89.228633, 35.291911 ], [ -89.231705, 35.29066 ], [ -89.248302, 35.283866 ], [ -89.250074, 35.282474 ], [ -89.251862, 35.279974 ], [ -89.255991, 35.274259 ], [ -89.258458, 35.271128 ], [ -89.262024, 35.268332 ], [ -89.264352, 35.266577 ], [ -89.267309, 35.264846 ], [ -89.273808, 35.261865 ], [ -89.274858, 35.261322 ], [ -89.276776, 35.260347 ], [ -89.296863, 35.249857 ], [ -89.299932, 35.248169 ], [ -89.303169, 35.246937 ], [ -89.312247, 35.245378 ], [ -89.318617, 35.244255 ], [ -89.318955, 35.242382 ], [ -89.318462, 35.241108 ], [ -89.319216, 35.239088 ], [ -89.319443, 35.237311 ], [ -89.316853, 35.23404 ], [ -89.31817, 35.231403 ], [ -89.319083, 35.228744 ], [ -89.319107, 35.226997 ], [ -89.319723, 35.22701 ], [ -89.333191, 35.227292 ], [ -89.335046, 35.225475 ], [ -89.335508, 35.224748 ], [ -89.33691, 35.222649 ], [ -89.338331, 35.221259 ], [ -89.339572, 35.220826 ], [ -89.340795, 35.219458 ], [ -89.342092, 35.217151 ], [ -89.342277, 35.215896 ], [ -89.343624, 35.213958 ], [ -89.34616, 35.213873 ], [ -89.345658, 35.21269 ], [ -89.344223, 35.211129 ], [ -89.342853, 35.208984 ], [ -89.341971, 35.201065 ], [ -89.338331, 35.191059 ], [ -89.35862, 35.187489 ], [ -89.363485, 35.172254 ], [ -89.364341, 35.172268 ], [ -89.366013, 35.172895 ], [ -89.36796, 35.174197 ], [ -89.368742, 35.176002 ], [ -89.366329, 35.179975 ], [ -89.365501, 35.182058 ], [ -89.364371, 35.183685 ], [ -89.36391, 35.186603 ], [ -89.363891, 35.187454 ], [ -89.366082, 35.190578 ], [ -89.366498, 35.192408 ], [ -89.36897, 35.195379 ], [ -89.37228, 35.19798 ], [ -89.373779, 35.200809 ], [ -89.375928, 35.20751 ], [ -89.377693, 35.210208 ], [ -89.381379, 35.214083 ], [ -89.382067, 35.216649 ], [ -89.382664, 35.219441 ], [ -89.385238, 35.219057 ], [ -89.386548, 35.220023 ], [ -89.404202, 35.216028 ], [ -89.416068, 35.213344 ], [ -89.4189, 35.212732 ], [ -89.427969, 35.213566 ], [ -89.427742, 35.214385 ], [ -89.428753, 35.215104 ], [ -89.428679, 35.216544 ], [ -89.429616, 35.216934 ], [ -89.429502, 35.218335 ], [ -89.434335, 35.220148 ], [ -89.440582, 35.224224 ], [ -89.443058, 35.227688 ], [ -89.446333, 35.228711 ], [ -89.449952, 35.228686 ], [ -89.450852, 35.22676 ], [ -89.454945, 35.226877 ], [ -89.457413, 35.227728 ], [ -89.45739, 35.231492 ], [ -89.457408, 35.231696 ], [ -89.459321, 35.231858 ], [ -89.463266, 35.232456 ], [ -89.466244, 35.232375 ], [ -89.485758, 35.23097 ], [ -89.485661, 35.231484 ], [ -89.48457, 35.23436 ], [ -89.484492, 35.235483 ], [ -89.484481, 35.236601 ], [ -89.484491, 35.23787 ], [ -89.484387, 35.239574 ], [ -89.484357, 35.240197 ], [ -89.484334, 35.240687 ], [ -89.484491, 35.24047 ], [ -89.492135, 35.240724 ], [ -89.492218, 35.240788 ], [ -89.49222, 35.240949 ], [ -89.49424, 35.240975 ], [ -89.494236, 35.240849 ], [ -89.494418, 35.240864 ], [ -89.494423, 35.2408 ], [ -89.4968, 35.240828 ], [ -89.49718, 35.233806 ], [ -89.497708, 35.234199 ], [ -89.497817, 35.236363 ], [ -89.501284, 35.23702 ], [ -89.503659, 35.238603 ], [ -89.503527, 35.241025 ], [ -89.503655, 35.243737 ], [ -89.505161, 35.245756 ], [ -89.506295, 35.247797 ], [ -89.512369, 35.247963 ], [ -89.512058, 35.248938 ], [ -89.509809, 35.251073 ], [ -89.506434, 35.253736 ], [ -89.505017, 35.254803 ], [ -89.504989, 35.257635 ], [ -89.505572, 35.257649 ], [ -89.507051, 35.257687 ], [ -89.51362, 35.258032 ], [ -89.516479, 35.258155 ], [ -89.519437, 35.258308 ], [ -89.519538, 35.254384 ], [ -89.519554, 35.253891 ], [ -89.519559, 35.253756 ], [ -89.519566, 35.253581 ], [ -89.519667, 35.253578 ], [ -89.533621, 35.25393 ], [ -89.53366, 35.250461 ], [ -89.539104, 35.250556 ], [ -89.53914, 35.249818 ], [ -89.539384, 35.244547 ], [ -89.536281, 35.244542 ], [ -89.536291, 35.243643 ], [ -89.536436, 35.238629 ], [ -89.536688, 35.2341 ], [ -89.536667, 35.229149 ], [ -89.53025, 35.229114 ], [ -89.527787, 35.229045 ], [ -89.527602, 35.229039 ], [ -89.526993, 35.229031 ], [ -89.527931, 35.22732 ], [ -89.527418, 35.22677 ], [ -89.527543, 35.223877 ], [ -89.5292, 35.22361 ], [ -89.529822, 35.225015 ], [ -89.528989, 35.226147 ], [ -89.530023, 35.226256 ], [ -89.530928, 35.224967 ], [ -89.532743, 35.223709 ], [ -89.53376, 35.223582 ], [ -89.532214, 35.223405 ], [ -89.532228, 35.221155 ], [ -89.52991, 35.221118 ], [ -89.52997, 35.219692 ], [ -89.532101, 35.219756 ], [ -89.532308, 35.21637 ], [ -89.533594, 35.215529 ], [ -89.535043, 35.215416 ], [ -89.535613, 35.214693 ], [ -89.535629, 35.214657 ], [ -89.53566, 35.214579 ], [ -89.535682, 35.214526 ], [ -89.535706, 35.214465 ], [ -89.535646, 35.214451 ], [ -89.535564, 35.214424 ], [ -89.535526, 35.214402 ], [ -89.5355, 35.214377 ], [ -89.535426, 35.214288 ], [ -89.535314, 35.214095 ], [ -89.535301, 35.213898 ], [ -89.5353, 35.213882 ], [ -89.535277, 35.213709 ], [ -89.535269, 35.213581 ], [ -89.535137, 35.213426 ], [ -89.534821, 35.212372 ], [ -89.532926, 35.211238 ], [ -89.529816, 35.207899 ], [ -89.528183, 35.207453 ], [ -89.528586, 35.204998 ], [ -89.529396, 35.204262 ], [ -89.528553, 35.202174 ], [ -89.529197, 35.200049 ], [ -89.529117, 35.198752 ], [ -89.530717, 35.196423 ], [ -89.530651, 35.19444 ], [ -89.533763, 35.193046 ], [ -89.533803, 35.191872 ], [ -89.538571, 35.191776 ], [ -89.539555, 35.191961 ], [ -89.5479, 35.192187 ], [ -89.54836, 35.190616 ], [ -89.548396, 35.187702 ], [ -89.548622, 35.180969 ], [ -89.563708, 35.180625 ], [ -89.566244, 35.180602 ], [ -89.568534, 35.180583 ], [ -89.592795, 35.180203 ], [ -89.592829, 35.179191 ], [ -89.596554, 35.178525 ], [ -89.597629, 35.178682 ], [ -89.600968, 35.180084 ], [ -89.60848, 35.179877 ], [ -89.62201, 35.179597 ], [ -89.637731, 35.179338 ], [ -89.638177, 35.165282 ], [ -89.638204, 35.164439 ], [ -89.638476, 35.155892 ], [ -89.641986, 35.157143 ], [ -89.660061, 35.157497 ], [ -89.663571, 35.159191 ], [ -89.667254, 35.15929 ], [ -89.674394, 35.159001 ], [ -89.678324, 35.159602 ], [ -89.680033, 35.15976 ], [ -89.69016, 35.159997 ], [ -89.691559, 35.159058 ], [ -89.692286, 35.158429 ], [ -89.695535, 35.158314 ], [ -89.701744, 35.158455 ], [ -89.703841, 35.158471 ], [ -89.708999, 35.158575 ], [ -89.709741, 35.158839 ], [ -89.710896, 35.159362 ], [ -89.713495, 35.159292 ], [ -89.717057, 35.159511 ], [ -89.717137, 35.156462 ], [ -89.717472, 35.145766 ], [ -89.719699, 35.146176 ], [ -89.726269, 35.146363 ], [ -89.727235, 35.144215 ], [ -89.727659, 35.14099 ], [ -89.727892, 35.13726 ], [ -89.728056, 35.129492 ], [ -89.728102, 35.127693 ], [ -89.728192, 35.12398 ], [ -89.728202, 35.123512 ], [ -89.728097, 35.122421 ], [ -89.725613, 35.120821 ], [ -89.723104, 35.117418 ], [ -89.723121, 35.114709 ], [ -89.723633, 35.114125 ], [ -89.726033, 35.113078 ], [ -89.727698, 35.11304 ], [ -89.731676, 35.110606 ], [ -89.731458, 35.107573 ], [ -89.730082, 35.107008 ], [ -89.727728, 35.106886 ], [ -89.726506, 35.105425 ], [ -89.724071, 35.10559 ], [ -89.722981, 35.103407 ], [ -89.72196, 35.102922 ], [ -89.720028, 35.102848 ], [ -89.718181, 35.103394 ], [ -89.716895, 35.10222 ], [ -89.715166, 35.101854 ], [ -89.714118, 35.103166 ], [ -89.712955, 35.102077 ], [ -89.71374, 35.100588 ], [ -89.713143, 35.100049 ], [ -89.713839, 35.099283 ], [ -89.713636, 35.098208 ], [ -89.712792, 35.098845 ], [ -89.711174, 35.097496 ], [ -89.711258, 35.09658 ], [ -89.709404, 35.096464 ], [ -89.709038, 35.097243 ], [ -89.709888, 35.098558 ], [ -89.707668, 35.097682 ], [ -89.70784, 35.096981 ], [ -89.706448, 35.09587 ], [ -89.704885, 35.096866 ], [ -89.703813, 35.095795 ], [ -89.703444, 35.094354 ], [ -89.702636, 35.094725 ], [ -89.702961, 35.095845 ], [ -89.701737, 35.095755 ], [ -89.701294, 35.094247 ], [ -89.699401, 35.094915 ], [ -89.69692, 35.093851 ], [ -89.694059, 35.093592 ], [ -89.694752, 35.092222 ], [ -89.6944, 35.091185 ], [ -89.693367, 35.090888 ], [ -89.692891, 35.092325 ], [ -89.692128, 35.093963 ], [ -89.691084, 35.09186 ], [ -89.689969, 35.091787 ], [ -89.687994, 35.09303 ], [ -89.687826, 35.093554 ], [ -89.689324, 35.094107 ], [ -89.68781, 35.094879 ], [ -89.685657, 35.093651 ], [ -89.685675, 35.09488 ], [ -89.682922, 35.094841 ], [ -89.682614, 35.095508 ], [ -89.685099, 35.096337 ], [ -89.681689, 35.096494 ], [ -89.681005, 35.095164 ], [ -89.679443, 35.094428 ], [ -89.677868, 35.094945 ], [ -89.67661, 35.093839 ], [ -89.675111, 35.093242 ], [ -89.673693, 35.093266 ], [ -89.673613, 35.092572 ], [ -89.670755, 35.0908 ], [ -89.668546, 35.091246 ], [ -89.668502, 35.087467 ], [ -89.668685, 35.082842 ], [ -89.668761, 35.079815 ], [ -89.666698, 35.079098 ], [ -89.666735, 35.075742 ], [ -89.66695, 35.074328 ], [ -89.667725, 35.074187 ], [ -89.667749, 35.071355 ], [ -89.667759, 35.069756 ], [ -89.667808, 35.067603 ], [ -89.66792, 35.065357 ], [ -89.668004, 35.063416 ], [ -89.668111, 35.060987 ], [ -89.668131, 35.059878 ], [ -89.668196, 35.058527 ], [ -89.668246, 35.057355 ], [ -89.668279, 35.056427 ], [ -89.668326, 35.054984 ], [ -89.668351, 35.054065 ], [ -89.668368, 35.053434 ], [ -89.668401, 35.052188 ], [ -89.668447, 35.050192 ], [ -89.664963, 35.050115 ], [ -89.665132, 35.045455 ], [ -89.666636, 35.045509 ], [ -89.667756, 35.045547 ], [ -89.668627, 35.045572 ], [ -89.672737, 35.045702 ], [ -89.675788, 35.045777 ], [ -89.677025, 35.04581 ], [ -89.679854, 35.045878 ], [ -89.681831, 35.04593 ], [ -89.684611, 35.045988 ], [ -89.686439, 35.046022 ], [ -89.687536, 35.046051 ], [ -89.689128, 35.046117 ], [ -89.694456, 35.046246 ], [ -89.70053, 35.046368 ], [ -89.70217, 35.046424 ], [ -89.705432, 35.046513 ], [ -89.708802, 35.046881 ], [ -89.712035, 35.047235 ], [ -89.71218, 35.047251 ], [ -89.720842, 35.048243 ], [ -89.72422, 35.049166 ], [ -89.724282, 35.049182 ], [ -89.732462, 35.051607 ], [ -89.732597, 35.051642 ], [ -89.734689, 35.052436 ], [ -89.737599, 35.054239 ], [ -89.738379, 35.054627 ], [ -89.739827, 35.049982 ], [ -89.739896, 35.047213 ], [ -89.739901, 35.047057 ], [ -89.742167, 35.047088 ], [ -89.745281, 35.047171 ], [ -89.747605, 35.047276 ], [ -89.750294, 35.04733 ], [ -89.753696, 35.047399 ], [ -89.755779, 35.047441 ], [ -89.759913, 35.047537 ], [ -89.763898, 35.047609 ], [ -89.766504, 35.047663 ], [ -89.76888, 35.047712 ], [ -89.770752, 35.047754 ], [ -89.770745, 35.047897 ], [ -89.770871, 35.0479 ], [ -89.77088, 35.047757 ], [ -89.778207, 35.047902 ], [ -89.782883, 35.047996 ], [ -89.78304, 35.047999 ], [ -89.783623, 35.048013 ], [ -89.783622, 35.047861 ], [ -89.786316, 35.047904 ], [ -89.789279, 35.047959 ], [ -89.790482, 35.047984 ], [ -89.790484, 35.048149 ], [ -89.79049, 35.048237 ], [ -89.790495, 35.048301 ], [ -89.790605, 35.048302 ], [ -89.791639, 35.04832 ], [ -89.793009, 35.048349 ], [ -89.793127, 35.048352 ], [ -89.793213, 35.048353 ], [ -89.794259, 35.048371 ], [ -89.794622, 35.048381 ], [ -89.794804, 35.048385 ], [ -89.795329, 35.0484 ], [ -89.795348, 35.048385 ], [ -89.795431, 35.048322 ], [ -89.79551, 35.048326 ], [ -89.799391, 35.048641 ], [ -89.801578, 35.048936 ], [ -89.803895, 35.049248 ], [ -89.807879, 35.049742 ], [ -89.809332, 35.049913 ], [ -89.809582, 35.049947 ], [ -89.810629, 35.051265 ], [ -89.812938, 35.052301 ], [ -89.814149, 35.05241 ], [ -89.821176, 35.052364 ], [ -89.822334, 35.052364 ], [ -89.822525, 35.052528 ], [ -89.824625, 35.052673 ], [ -89.826516, 35.053239 ], [ -89.829042, 35.054721 ], [ -89.829176, 35.054804 ], [ -89.833299, 35.057458 ], [ -89.835599, 35.059431 ], [ -89.837849, 35.062215 ], [ -89.838302, 35.062482 ], [ -89.839709, 35.064127 ], [ -89.842216, 35.06604 ], [ -89.843522, 35.066689 ], [ -89.843493, 35.066858 ], [ -89.843649, 35.066922 ], [ -89.843687, 35.066761 ], [ -89.853974, 35.070514 ], [ -89.856134, 35.071518 ], [ -89.861508, 35.074872 ], [ -89.861715, 35.074982 ], [ -89.861953, 35.074638 ], [ -89.868779, 35.077568 ], [ -89.870756, 35.078234 ], [ -89.875176, 35.080497 ], [ -89.875499, 35.080958 ], [ -89.876824, 35.082513 ], [ -89.876898, 35.083812 ], [ -89.875, 35.085552 ], [ -89.874677, 35.08572 ], [ -89.876378, 35.085151 ], [ -89.880067, 35.084444 ], [ -89.87963, 35.084318 ], [ -89.883422, 35.08422 ], [ -89.884377, 35.084378 ], [ -89.885455, 35.084527 ], [ -89.890951, 35.084306 ], [ -89.895377, 35.084899 ], [ -89.895023, 35.083234 ], [ -89.900027, 35.081085 ], [ -89.907028, 35.078445 ], [ -89.906978, 35.078254 ], [ -89.911094, 35.077793 ], [ -89.916653, 35.077921 ], [ -89.920774, 35.078384 ], [ -89.923246, 35.078742 ], [ -89.923223, 35.078912 ], [ -89.923037, 35.081432 ], [ -89.922961, 35.082939 ], [ -89.922855, 35.08478 ], [ -89.923801, 35.084819 ], [ -89.931214, 35.085138 ], [ -89.931175, 35.086738 ], [ -89.931143, 35.088131 ], [ -89.931121, 35.088946 ], [ -89.931094, 35.090182 ], [ -89.931067, 35.091392 ], [ -89.931032, 35.092985 ], [ -89.931008, 35.093882 ], [ -89.930979, 35.095112 ], [ -89.930963, 35.095703 ], [ -89.930941, 35.096636 ], [ -89.930933, 35.097032 ], [ -89.930903, 35.098169 ], [ -89.930871, 35.099419 ], [ -89.930841, 35.100541 ], [ -89.930741, 35.104383 ], [ -89.930719, 35.105233 ], [ -89.930668, 35.1075 ], [ -89.931715, 35.107523 ], [ -89.931659, 35.108667 ], [ -89.93153, 35.109728 ], [ -89.931519, 35.109849 ], [ -89.931414, 35.111458 ], [ -89.931306, 35.113109 ], [ -89.932696, 35.113145 ], [ -89.933298, 35.11316 ], [ -89.933984, 35.113178 ], [ -89.934936, 35.113204 ], [ -89.935218, 35.113211 ], [ -89.936512, 35.113243 ], [ -89.936383, 35.115972 ], [ -89.938198, 35.116011 ], [ -89.938315, 35.113286 ], [ -89.939845, 35.11333 ], [ -89.941312, 35.113367 ], [ -89.942781, 35.113405 ], [ -89.944264, 35.113449 ], [ -89.944576, 35.113456 ], [ -89.944908, 35.113464 ], [ -89.945824, 35.113488 ], [ -89.945769, 35.115097 ], [ -89.945757, 35.115289 ], [ -89.945754, 35.115323 ], [ -89.945748, 35.115428 ], [ -89.945746, 35.115463 ], [ -89.945701, 35.116435 ], [ -89.945645, 35.117804 ], [ -89.945592, 35.119171 ], [ -89.945548, 35.120245 ], [ -89.945507, 35.121295 ], [ -89.945412, 35.123197 ], [ -89.945362, 35.124431 ], [ -89.945347, 35.124783 ], [ -89.945341, 35.124923 ], [ -89.945334, 35.125142 ], [ -89.945325, 35.125344 ], [ -89.94532, 35.125485 ], [ -89.945282, 35.126399 ], [ -89.945219, 35.12779 ], [ -89.948817, 35.128713 ], [ -89.949602, 35.128926 ], [ -89.950302, 35.129118 ], [ -89.950422, 35.129151 ], [ -89.950736, 35.129235 ], [ -89.951759, 35.129507 ], [ -89.95302, 35.129878 ], [ -89.954057, 35.130206 ], [ -89.955512, 35.130669 ], [ -89.958475, 35.131607 ], [ -89.958694, 35.131682 ], [ -89.960022, 35.132125 ], [ -89.963364, 35.133374 ], [ -89.964318, 35.133737 ], [ -89.964733, 35.133896 ], [ -89.966154, 35.13444 ], [ -89.967715, 35.134976 ], [ -89.968338, 35.135201 ], [ -89.968701, 35.135332 ], [ -89.968866, 35.135392 ], [ -89.969908, 35.135768 ], [ -89.970055, 35.134817 ], [ -89.970114, 35.13435 ], [ -89.970731, 35.129543 ], [ -89.971383, 35.129548 ], [ -89.971593, 35.127535 ], [ -89.972776, 35.125739 ], [ -89.974212, 35.12566 ], [ -89.975875, 35.125702 ], [ -89.977203, 35.12574 ], [ -89.977674, 35.12575 ], [ -89.978458, 35.125769 ], [ -89.97897, 35.125782 ], [ -89.979689, 35.125799 ], [ -89.980077, 35.125809 ], [ -89.980483, 35.125819 ], [ -89.984011, 35.12592 ], [ -89.984263, 35.125931 ], [ -89.984308, 35.125053 ], [ -89.986645, 35.124611 ], [ -89.98782, 35.124367 ], [ -89.988981, 35.123563 ], [ -89.990282, 35.123588 ], [ -89.990855, 35.123599 ], [ -89.990851, 35.123689 ], [ -89.990808, 35.124603 ], [ -89.993321, 35.124434 ], [ -89.993346, 35.123727 ], [ -89.993384, 35.122849 ], [ -89.998432, 35.123001 ], [ -89.998476, 35.122032 ], [ -89.99852, 35.120988 ], [ -89.998566, 35.11982 ], [ -89.998606, 35.118885 ], [ -89.998641, 35.117915 ], [ -89.998656, 35.117494 ], [ -89.998672, 35.117081 ], [ -89.99872, 35.116312 ], [ -90.000621, 35.11636 ], [ -90.002002, 35.116378 ], [ -90.005034, 35.116433 ], [ -90.006393, 35.116467 ], [ -90.007583, 35.116499 ], [ -90.008791, 35.116528 ], [ -90.010623, 35.116668 ], [ -90.011525, 35.116599 ], [ -90.011614, 35.116524 ], [ -90.011627, 35.11651 ], [ -90.01167, 35.11647 ], [ -90.011684, 35.116457 ], [ -90.012105, 35.116118 ], [ -90.014537, 35.115836 ], [ -90.015565, 35.115761 ], [ -90.015867, 35.115738 ], [ -90.016029, 35.115726 ], [ -90.017096, 35.115647 ], [ -90.018264, 35.11556 ], [ -90.018788, 35.115521 ], [ -90.021698, 35.113102 ], [ -90.021689, 35.112471 ], [ -90.021727, 35.11154 ], [ -90.021756, 35.109663 ], [ -90.021721, 35.10948 ], [ -90.021528, 35.108544 ], [ -90.021362, 35.107744 ], [ -90.02118, 35.106892 ], [ -90.020376, 35.103955 ], [ -90.019427, 35.101883 ], [ -90.018859, 35.100735 ], [ -90.018096, 35.09859 ], [ -90.018, 35.097491 ], [ -90.018003, 35.096811 ], [ -90.018033, 35.096155 ], [ -90.018053, 35.09549 ], [ -90.018086, 35.094831 ], [ -90.018109, 35.094176 ], [ -90.018145, 35.092804 ], [ -90.018219, 35.091 ], [ -90.018231, 35.090686 ], [ -90.018359, 35.087535 ], [ -90.018403, 35.086487 ], [ -90.018415, 35.086204 ], [ -90.018436, 35.08549 ], [ -90.018487, 35.084388 ], [ -90.018566, 35.083305 ], [ -90.018829, 35.081148 ], [ -90.019084, 35.07985 ], [ -90.019498, 35.078085 ], [ -90.019829, 35.07676 ], [ -90.020391, 35.074469 ], [ -90.020434, 35.074338 ], [ -90.020842, 35.072667 ], [ -90.02111, 35.071576 ], [ -90.021172, 35.071326 ], [ -90.021318, 35.070714 ], [ -90.022572, 35.065607 ], [ -90.022717, 35.065029 ], [ -90.023088, 35.063558 ], [ -90.023169, 35.063247 ], [ -90.023551, 35.061697 ], [ -90.023833, 35.060484 ], [ -90.024403, 35.05809 ], [ -90.024747, 35.056318 ], [ -90.025003, 35.054256 ], [ -90.025071, 35.051286 ], [ -90.02511, 35.044586 ], [ -90.02511, 35.044216 ], [ -90.026869, 35.044196 ], [ -90.029206, 35.044206 ], [ -90.031527, 35.044425 ], [ -90.032695, 35.044576 ], [ -90.034978, 35.044634 ], [ -90.036214, 35.044641 ], [ -90.040424, 35.044645 ], [ -90.04062, 35.044646 ], [ -90.040891, 35.044651 ], [ -90.043761, 35.044577 ], [ -90.043204, 35.04202 ], [ -90.041852, 35.035316 ], [ -90.041655, 35.035314 ], [ -90.040513, 35.035313 ], [ -90.0392, 35.035307 ], [ -90.035016, 35.035298 ], [ -90.035025, 35.032625 ], [ -90.035033, 35.031022 ], [ -90.035035, 35.029178 ], [ -90.035041, 35.026944 ], [ -90.039958, 35.026855 ], [ -90.040189, 35.026963 ], [ -90.038975, 35.020979 ], [ -90.04294, 35.02089 ], [ -90.043073, 35.021791 ], [ -90.043182, 35.022484 ], [ -90.043728, 35.025958 ], [ -90.044845, 35.025965 ], [ -90.047648, 35.025985 ], [ -90.048749, 35.025909 ], [ -90.048854, 35.026856 ], [ -90.049575, 35.028621 ], [ -90.050682, 35.02862 ], [ -90.051834, 35.028622 ], [ -90.052964, 35.028622 ], [ -90.054071, 35.028622 ], [ -90.055201, 35.028613 ], [ -90.056481, 35.028575 ], [ -90.056502, 35.026783 ], [ -90.056512, 35.026153 ], [ -90.05655, 35.022731 ], [ -90.056577, 35.020894 ], [ -90.056579, 35.019766 ], [ -90.056586, 35.01898 ], [ -90.056527, 35.018169 ], [ -90.056379, 35.017394 ], [ -90.055224, 35.017387 ], [ -90.054264, 35.017384 ], [ -90.053298, 35.017378 ], [ -90.052334, 35.01737 ], [ -90.052324, 35.016573 ], [ -90.052314, 35.015367 ], [ -90.052294, 35.014154 ], [ -90.052317, 35.013646 ], [ -90.052369, 35.011582 ], [ -90.052366, 35.009102 ], [ -90.052359, 35.006374 ], [ -90.05135, 35.006368 ], [ -90.049384, 35.006371 ], [ -90.046933, 35.006367 ], [ -90.043047, 35.006359 ], [ -90.043058, 35.003184 ], [ -90.043053, 34.999778 ], [ -90.043036, 34.994964 ], [ -90.031329, 34.994861 ], [ -90.025072, 34.994858 ], [ -90.010336, 34.994948 ], [ -90.009281, 34.994954 ], [ -90.008154, 34.994961 ], [ -90.00352, 34.994993 ], [ -90.002549, 34.995 ], [ -90.002264, 34.995002 ], [ -89.989906, 34.995089 ], [ -89.972197, 34.99502 ], [ -89.96325, 34.994984 ], [ -89.955897, 34.994955 ], [ -89.936754, 34.994876 ], [ -89.926063, 34.994831 ], [ -89.919032, 34.9948 ], [ -89.901464, 34.994663 ], [ -89.89208, 34.994469 ], [ -89.883748, 34.994393 ], [ -89.878752, 34.994392 ], [ -89.87841, 34.994392 ], [ -89.871774, 34.994293 ], [ -89.865146, 34.994259 ], [ -89.861799, 34.994242 ], [ -89.851384, 34.994188 ], [ -89.848385, 34.994409 ], [ -89.840168, 34.994452 ], [ -89.83778, 34.994499 ], [ -89.830807, 34.994507 ], [ -89.83069, 34.994498 ], [ -89.827387, 34.994499 ], [ -89.824328, 34.994502 ], [ -89.821373, 34.994504 ], [ -89.819203, 34.994511 ], [ -89.815602, 34.994533 ], [ -89.813133, 34.994514 ], [ -89.808618, 34.994537 ], [ -89.808207, 34.99454 ], [ -89.805021, 34.994551 ], [ -89.795357, 34.994564 ], [ -89.789013, 34.994557 ], [ -89.784612, 34.994316 ], [ -89.78306, 34.994468 ], [ -89.75986, 34.994783 ], [ -89.759612, 34.994669 ], [ -89.751279, 34.994746 ], [ -89.741948, 34.994833 ], [ -89.724324, 34.99479 ], [ -89.718399, 34.995293 ], [ -89.706606, 34.995292 ], [ -89.688884, 34.995094 ], [ -89.661592, 34.995295 ], [ -89.64405, 34.995291 ], [ -89.642708, 34.995281 ], [ -89.642375, 34.995278 ], [ -89.625081, 34.995179 ], [ -89.617973, 34.995217 ], [ -89.612014, 34.995186 ], [ -89.591016, 34.995096 ], [ -89.58259, 34.995065 ], [ -89.582227, 34.995063 ], [ -89.571777, 34.995018 ], [ -89.56506, 34.994989 ], [ -89.5528, 34.9949 ], [ -89.528748, 34.99473 ], [ -89.517756, 34.994745 ], [ -89.511136, 34.994632 ], [ -89.493835, 34.994221 ], [ -89.484462, 34.993968 ], [ -89.466306, 34.993879 ], [ -89.461374, 34.993857 ], [ -89.441017, 34.993796 ], [ -89.434954, 34.993754 ], [ -89.424124, 34.993875 ], [ -89.405704, 34.993927 ], [ -89.381131, 34.993868 ], [ -89.377085, 34.993858 ], [ -89.371441, 34.993901 ], [ -89.363466, 34.993912 ], [ -89.352679, 34.993863 ], [ -89.342735, 34.993948 ], [ -89.335423, 34.994005 ], [ -89.319834, 34.994137 ], [ -89.30002, 34.994381 ], [ -89.273523, 34.994504 ], [ -89.251811, 34.994549 ], [ -89.23319, 34.994646 ], [ -89.229758, 34.994664 ], [ -89.217432, 34.99473 ], [ -89.206242, 34.994678 ], [ -89.198288, 34.994484 ], [ -89.182711, 34.994287 ], [ -89.158591, 34.993953 ], [ -89.149144, 34.994134 ], [ -89.139136, 34.994307 ], [ -89.125065, 34.994694 ], [ -89.104247, 34.994727 ], [ -89.099772, 34.99473 ], [ -89.070106, 34.994783 ], [ -89.055593, 34.99481 ], [ -89.02654, 34.994956 ], [ -89.003618, 34.994994 ], [ -88.993645, 34.994887 ], [ -88.983942, 34.994928 ], [ -88.964424, 34.994891 ], [ -88.954794, 34.994981 ], [ -88.928722, 34.994822 ], [ -88.925176, 34.994844 ], [ -88.893774, 34.995905 ], [ -88.893327, 34.995851 ], [ -88.88698, 34.995867 ], [ -88.879773, 34.995682 ], [ -88.875058, 34.995423 ], [ -88.868263, 34.995452 ], [ -88.858245, 34.995136 ], [ -88.851037, 34.995085 ], [ -88.841516, 34.995186 ], [ -88.823051, 34.995221 ], [ -88.81272, 34.99517 ], [ -88.798426, 34.995194 ], [ -88.79368, 34.995267 ], [ -88.786612, 34.995252 ], [ -88.753522, 34.995295 ], [ -88.743149, 34.995133 ], [ -88.719688, 34.995204 ], [ -88.696311, 34.995304 ], [ -88.68928, 34.995377 ], [ -88.674544, 34.995399 ], [ -88.660368, 34.995374 ], [ -88.645068, 34.995467 ], [ -88.627979, 34.995471 ], [ -88.613038, 34.995503 ], [ -88.598073, 34.995652 ], [ -88.584988, 34.995655 ], [ -88.565852, 34.995721 ], [ -88.563858, 34.99573 ], [ -88.555458, 34.995729 ], [ -88.551291, 34.995711 ], [ -88.54013, 34.995808 ], [ -88.528497, 34.995827 ], [ -88.519027, 34.995851 ], [ -88.518722, 34.995851 ], [ -88.514214, 34.995852 ], [ -88.505408, 34.995872 ], [ -88.500959, 34.995886 ], [ -88.494344, 34.995899 ], [ -88.487581, 34.996062 ], [ -88.478834, 34.996034 ], [ -88.462819, 34.996082 ], [ -88.442319, 34.995914 ], [ -88.434535, 34.995802 ], [ -88.416791, 34.995743 ], [ -88.392609, 34.995615 ], [ -88.381387, 34.995611 ], [ -88.380508, 34.99561 ], [ -88.369761, 34.995468 ], [ -88.365905, 34.995471 ], [ -88.362859, 34.995478 ], [ -88.356683, 34.995444 ], [ -88.345949, 34.995507 ], [ -88.342961, 34.99556 ], [ -88.326526, 34.995548 ], [ -88.282959, 34.995651 ], [ -88.25811, 34.995463 ], [ -88.25593, 34.99556 ], [ -88.253777, 34.995549 ], [ -88.251664, 34.995468 ], [ -88.248466, 34.995469 ], [ -88.240996, 34.995491 ], [ -88.236908, 34.995502 ], [ -88.234527, 34.995493 ], [ -88.232909, 34.995501 ], [ -88.214895, 34.995585 ], [ -88.209098, 34.995576 ], [ -88.205495, 34.995569 ], [ -88.200064, 34.995634 ], [ -88.20082, 34.997774 ], [ -88.201052, 35.000088 ], [ -88.201766, 35.004467 ], [ -88.202959, 35.008028 ], [ -88.192991, 35.007888 ], [ -88.187808, 35.007801 ], [ -88.182034, 35.007704 ], [ -88.18043, 35.007675 ], [ -88.171702, 35.007497 ], [ -88.156531, 35.007291 ], [ -88.125401, 35.007045 ], [ -88.118132, 35.006997 ], [ -88.104601, 35.006834 ], [ -88.088764, 35.006715 ], [ -88.07542, 35.006608 ], [ -88.051187, 35.006402 ], [ -88.050704, 35.006445 ], [ -88.032458, 35.006222 ], [ -88.019986, 35.006109 ], [ -88.005112, 35.005992 ], [ -87.991474, 35.005927 ], [ -87.986041, 35.00594 ], [ -87.984916, 35.005933 ], [ -87.927065, 35.005802 ], [ -87.91645, 35.005777 ], [ -87.881238, 35.005666 ], [ -87.877375, 35.00554 ], [ -87.867808, 35.005683 ], [ -87.851904, 35.005566 ], [ -87.848582, 35.005588 ], [ -87.830514, 35.005203 ], [ -87.821136, 35.005187 ], [ -87.819125, 35.005174 ], [ -87.813691, 35.00514 ], [ -87.812786, 35.005169 ], [ -87.793858, 35.005066 ], [ -87.782411, 35.004998 ], [ -87.773631, 35.004683 ], [ -87.765781, 35.004565 ], [ -87.759012, 35.004662 ], [ -87.750925, 35.004477 ], [ -87.750344, 35.00444 ], [ -87.729291, 35.004304 ], [ -87.722343, 35.004228 ], [ -87.720248, 35.004208 ], [ -87.709459, 35.004087 ], [ -87.697606, 35.003872 ], [ -87.696841, 35.003851 ], [ -87.68871, 35.003753 ], [ -87.671624, 35.003598 ], [ -87.662256, 35.003537 ], [ -87.6433, 35.003659 ], [ -87.633419, 35.003717 ], [ -87.625194, 35.003737 ], [ -87.61927, 35.00362 ], [ -87.606031, 35.003425 ], [ -87.604887, 35.003464 ], [ -87.601742, 35.003473 ], [ -87.597697, 35.003492 ], [ -87.577243, 35.003542 ], [ -87.574225, 35.003554 ], [ -87.552893, 35.00335 ], [ -87.522663, 35.003051 ], [ -87.520996, 35.003056 ], [ -87.51105, 35.003078 ], [ -87.499984, 35.00311 ], [ -87.495594, 35.002993 ], [ -87.492952, 35.003053 ], [ -87.489162, 35.002899 ], [ -87.481974, 35.002854 ], [ -87.460806, 35.002726 ], [ -87.443287, 35.002765 ], [ -87.437074, 35.002776 ], [ -87.429968, 35.002791 ], [ -87.429216, 35.00252 ], [ -87.421467, 35.002476 ], [ -87.420945, 35.002514 ], [ -87.419381, 35.002629 ], [ -87.41886, 35.002668 ], [ -87.417999, 35.002473 ], [ -87.412257, 35.002416 ], [ -87.404947, 35.002432 ], [ -87.391478, 35.002207 ], [ -87.385547, 35.002224 ], [ -87.381104, 35.001978 ], [ -87.378882, 35.001928 ], [ -87.367226, 35.001861 ], [ -87.360512, 35.001773 ], [ -87.359279, 35.00176 ], [ -87.349324, 35.001659 ], [ -87.343801, 35.001575 ], [ -87.337462, 35.001494 ], [ -87.337212, 35.00149 ], [ -87.330762, 35.001392 ], [ -87.321522, 35.001251 ], [ -87.319599, 35.001223 ], [ -87.311728, 35.001103 ], [ -87.303621, 35.000981 ], [ -87.299222, 35.000777 ], [ -87.280137, 35.000433 ], [ -87.274536, 35.00018 ], [ -87.272659, 35.000067 ], [ -87.265376, 35.000192 ], [ -87.252856, 34.999922 ], [ -87.236675, 34.999547 ], [ -87.235297, 34.99952 ], [ -87.230387, 34.999489 ], [ -87.224052, 34.999377 ], [ -87.222482, 34.99941 ], [ -87.221596, 34.999388 ], [ -87.219768, 34.999378 ], [ -87.21645, 34.999141 ], [ -87.215237, 34.999117 ], [ -87.192676, 34.998646 ], [ -87.177272, 34.998345 ], [ -87.173519, 34.998273 ], [ -87.161003, 34.998033 ], [ -87.156747, 34.997951 ], [ -87.144315, 34.997672 ], [ -87.125616, 34.997356 ], [ -87.122648, 34.997199 ], [ -87.120322, 34.997144 ], [ -87.094472, 34.996673 ], [ -87.089895, 34.99659 ], [ -87.079446, 34.996414 ], [ -87.07301, 34.996359 ], [ -87.055395, 34.996184 ], [ -87.047349, 34.99598 ], [ -87.042654, 34.995837 ], [ -87.040547, 34.99576 ], [ -87.035896, 34.995594 ], [ -87.030284, 34.995492 ], [ -87.029701, 34.995457 ], [ -87.011174, 34.995162 ], [ -87.005106, 34.995006 ], [ -86.988396, 34.99472 ], [ -86.972541, 34.99446 ], [ -86.970237, 34.994547 ], [ -86.970081, 34.99453 ], [ -86.967121, 34.994401 ], [ -86.938972, 34.993887 ], [ -86.937456, 34.993907 ], [ -86.929983, 34.993594 ], [ -86.927401, 34.993424 ], [ -86.915487, 34.992999 ], [ -86.905538, 34.992729 ], [ -86.904915, 34.992738 ], [ -86.902871, 34.992763 ], [ -86.898613, 34.992782 ], [ -86.879239, 34.992246 ], [ -86.878898, 34.992238 ], [ -86.877718, 34.992208 ], [ -86.8665, 34.992053 ], [ -86.85909, 34.992065 ], [ -86.855101, 34.99204 ], [ -86.849936, 34.992002 ], [ -86.847817, 34.991986 ], [ -86.846462, 34.992006 ], [ -86.84461, 34.992001 ], [ -86.842067, 34.991976 ], [ -86.840904, 34.991953 ], [ -86.83774, 34.991926 ], [ -86.836306, 34.991899 ], [ -86.816467, 34.991871 ], [ -86.801633, 34.991909 ], [ -86.776087, 34.991972 ], [ -86.77534, 34.991996 ], [ -86.755738, 34.992053 ], [ -86.748098, 34.992008 ], [ -86.739395, 34.991982 ], [ -86.737464, 34.992096 ], [ -86.72891, 34.991955 ], [ -86.721724, 34.99193 ], [ -86.719339, 34.992105 ], [ -86.713276, 34.992093 ], [ -86.708986, 34.992117 ], [ -86.702643, 34.992105 ], [ -86.684846, 34.991966 ], [ -86.67948, 34.991875 ], [ -86.677675, 34.992016 ], [ -86.675532, 34.991935 ], [ -86.670846, 34.991735 ], [ -86.66986, 34.992294 ], [ -86.668151, 34.991731 ], [ -86.651126, 34.991768 ], [ -86.641334, 34.99174 ], [ -86.629246, 34.991522 ], [ -86.626508, 34.99139 ], [ -86.608871, 34.991262 ], [ -86.60004, 34.991241 ], [ -86.589079, 34.991063 ], [ -86.588712, 34.991172 ], [ -86.578745, 34.991085 ], [ -86.571308, 34.991012 ], [ -86.564445, 34.990776 ], [ -86.55577, 34.990753 ], [ -86.555227, 34.990993 ], [ -86.545808, 34.990886 ], [ -86.528549, 34.990677 ], [ -86.526846, 34.990685 ], [ -86.522708, 34.990716 ], [ -86.491106, 34.990617 ], [ -86.491116, 34.990732 ], [ -86.487038, 34.990608 ], [ -86.481771, 34.990685 ], [ -86.473105, 34.990541 ], [ -86.467941, 34.990486 ], [ -86.467716, 34.990693 ], [ -86.455492, 34.990868 ], [ -86.439203, 34.991031 ], [ -86.434102, 34.99086 ], [ -86.428637, 34.990927 ], [ -86.419736, 34.991105 ], [ -86.410918, 34.991356 ], [ -86.399478, 34.991564 ], [ -86.393172, 34.991675 ], [ -86.390221, 34.991691 ], [ -86.377491, 34.991725 ], [ -86.370748, 34.991657 ], [ -86.343734, 34.991406 ], [ -86.333824, 34.991312 ], [ -86.318761, 34.991169 ], [ -86.318988, 35.000087 ], [ -86.319741, 35.019037 ], [ -86.320203, 35.030629 ], [ -86.320288, 35.032786 ], [ -86.320031, 35.037578 ], [ -86.319871, 35.039817 ], [ -86.318747, 35.05146 ], [ -86.318583, 35.054746 ], [ -86.318552, 35.05511 ], [ -86.317841, 35.063371 ], [ -86.317836, 35.063571 ], [ -86.317861, 35.07246 ], [ -86.318032, 35.09363 ], [ -86.318054, 35.09634 ], [ -86.318061, 35.097188 ], [ -86.318135, 35.106017 ], [ -86.318175, 35.110975 ], [ -86.318237, 35.118618 ], [ -86.318084, 35.125084 ], [ -86.318168, 35.126986 ], [ -86.315626, 35.130063 ], [ -86.3128, 35.133886 ], [ -86.31274, 35.134604 ], [ -86.31474, 35.135455 ], [ -86.31569, 35.135391 ], [ -86.318927, 35.13605 ], [ -86.321399, 35.136965 ], [ -86.323825, 35.139612 ], [ -86.330205, 35.143722 ], [ -86.332753, 35.145743 ], [ -86.333354, 35.146698 ], [ -86.330797, 35.148543 ], [ -86.328009, 35.14945 ], [ -86.326117, 35.148514 ], [ -86.324131, 35.149019 ], [ -86.321319, 35.147255 ], [ -86.316935, 35.146484 ], [ -86.316754, 35.146766 ], [ -86.31653, 35.148852 ], [ -86.316989, 35.150345 ], [ -86.319753, 35.153092 ], [ -86.320025, 35.154126 ], [ -86.31953, 35.155926 ], [ -86.319372, 35.158701 ], [ -86.319973, 35.161316 ], [ -86.319356, 35.162806 ], [ -86.318932, 35.16364 ], [ -86.317847, 35.166947 ], [ -86.316743, 35.168871 ], [ -86.314024, 35.171561 ], [ -86.311925, 35.172314 ], [ -86.308482, 35.171669 ], [ -86.305927, 35.171766 ], [ -86.305789, 35.173383 ], [ -86.300989, 35.173183 ], [ -86.301489, 35.177382 ], [ -86.305669, 35.17821 ], [ -86.307669, 35.179106 ], [ -86.3108, 35.18106 ], [ -86.310858, 35.182115 ], [ -86.309237, 35.183735 ], [ -86.307046, 35.184958 ], [ -86.305906, 35.186385 ], [ -86.30621, 35.187448 ], [ -86.309399, 35.190323 ], [ -86.310191, 35.191391 ], [ -86.31071, 35.193393 ], [ -86.311832, 35.195513 ], [ -86.311416, 35.196221 ], [ -86.308956, 35.19648 ], [ -86.309028, 35.198092 ], [ -86.30379, 35.197082 ], [ -86.302863, 35.198067 ], [ -86.30179, 35.198782 ], [ -86.30179, 35.200082 ], [ -86.30359, 35.204582 ], [ -86.30189, 35.206582 ], [ -86.29989, 35.205482 ], [ -86.29829, 35.205082 ], [ -86.29829, 35.207382 ], [ -86.293717, 35.207287 ], [ -86.294156, 35.209688 ], [ -86.295423, 35.212381 ], [ -86.295376, 35.214237 ], [ -86.294638, 35.216379 ], [ -86.296185, 35.216469 ], [ -86.295907, 35.218062 ], [ -86.298286, 35.217781 ], [ -86.299309, 35.217269 ], [ -86.302619, 35.216931 ], [ -86.305135, 35.216872 ], [ -86.305426, 35.21748 ], [ -86.307643, 35.217606 ], [ -86.308369, 35.217032 ], [ -86.310071, 35.217044 ], [ -86.309924, 35.215311 ], [ -86.314681, 35.215299 ], [ -86.31533, 35.218589 ], [ -86.316224, 35.219745 ], [ -86.315014, 35.219822 ], [ -86.310286, 35.219801 ], [ -86.309601, 35.219324 ], [ -86.308586, 35.220107 ], [ -86.308332, 35.222413 ], [ -86.297492, 35.222187 ], [ -86.298086, 35.222819 ], [ -86.299118, 35.226177 ], [ -86.299861, 35.226306 ], [ -86.299283, 35.230832 ], [ -86.302147, 35.231311 ], [ -86.304094, 35.230915 ], [ -86.304293, 35.230991 ], [ -86.306076, 35.231178 ], [ -86.304903, 35.232179 ], [ -86.303112, 35.234693 ], [ -86.301597, 35.235241 ], [ -86.299802, 35.2344 ], [ -86.29785, 35.233531 ], [ -86.295827, 35.231677 ], [ -86.295744, 35.232311 ], [ -86.2951, 35.233199 ], [ -86.297904, 35.235595 ], [ -86.291994, 35.238213 ], [ -86.29037, 35.23881 ], [ -86.288684, 35.238445 ], [ -86.28568, 35.237307 ], [ -86.286676, 35.238962 ], [ -86.286437, 35.239687 ], [ -86.28569, 35.242181 ], [ -86.285098, 35.242098 ], [ -86.282178, 35.24186 ], [ -86.281191, 35.241761 ], [ -86.280023, 35.246079 ], [ -86.27971, 35.247277 ], [ -86.278739, 35.250081 ], [ -86.27859, 35.253081 ], [ -86.279633, 35.253341 ], [ -86.281128, 35.252684 ], [ -86.282334, 35.254081 ], [ -86.28365, 35.254484 ], [ -86.286273, 35.256803 ], [ -86.28729, 35.256881 ], [ -86.28719, 35.259681 ], [ -86.28379, 35.259581 ], [ -86.283279, 35.261422 ], [ -86.277627, 35.260254 ], [ -86.277376, 35.261842 ], [ -86.27719, 35.262981 ], [ -86.281906, 35.263557 ], [ -86.28369, 35.263981 ], [ -86.28409, 35.265481 ], [ -86.28389, 35.267981 ], [ -86.282751, 35.26791 ], [ -86.280898, 35.268676 ], [ -86.27999, 35.268781 ], [ -86.28049, 35.270681 ], [ -86.279538, 35.271137 ], [ -86.279489, 35.271285 ], [ -86.27919, 35.272481 ], [ -86.277218, 35.272281 ], [ -86.27469, 35.272481 ], [ -86.27239, 35.273181 ], [ -86.271291, 35.272772 ], [ -86.26809, 35.271581 ], [ -86.267781, 35.274205 ], [ -86.267619, 35.275575 ], [ -86.26749, 35.276681 ], [ -86.27099, 35.278281 ], [ -86.272921, 35.278181 ], [ -86.275081, 35.27827 ], [ -86.276168, 35.277717 ], [ -86.276051, 35.279921 ], [ -86.274107, 35.280478 ], [ -86.273919, 35.281721 ], [ -86.27341, 35.286137 ], [ -86.267892, 35.285761 ], [ -86.267165, 35.28571 ], [ -86.266573, 35.289987 ], [ -86.266077, 35.290173 ], [ -86.265813, 35.292717 ], [ -86.266245, 35.297663 ], [ -86.26163, 35.297514 ], [ -86.261579, 35.296307 ], [ -86.257968, 35.296022 ], [ -86.255762, 35.295829 ], [ -86.25551, 35.296721 ], [ -86.251536, 35.303966 ], [ -86.250713, 35.305884 ], [ -86.253792, 35.306098 ], [ -86.253296, 35.309603 ], [ -86.252607, 35.309671 ], [ -86.252433, 35.310986 ], [ -86.251885, 35.315151 ], [ -86.244723, 35.314877 ], [ -86.246161, 35.318142 ], [ -86.245289, 35.323737 ], [ -86.246171, 35.32424 ], [ -86.249658, 35.324579 ], [ -86.25254, 35.326002 ], [ -86.253394, 35.326448 ], [ -86.25541, 35.327789 ], [ -86.260235, 35.327647 ], [ -86.260235, 35.32892 ], [ -86.261684, 35.330107 ], [ -86.261489, 35.333579 ], [ -86.262385, 35.334041 ], [ -86.26459, 35.335179 ], [ -86.266264, 35.338245 ], [ -86.266376, 35.338564 ], [ -86.26124, 35.340829 ], [ -86.24999, 35.345655 ], [ -86.24539, 35.347379 ], [ -86.245026, 35.350252 ], [ -86.24429, 35.356079 ], [ -86.25189, 35.356679 ], [ -86.25179, 35.357379 ], [ -86.25849, 35.357976 ], [ -86.260929, 35.361602 ], [ -86.262191, 35.363478 ], [ -86.261991, 35.365678 ], [ -86.272991, 35.366378 ], [ -86.272939, 35.366744 ], [ -86.272391, 35.370578 ], [ -86.274691, 35.370578 ], [ -86.274488, 35.371728 ], [ -86.274391, 35.372278 ], [ -86.258291, 35.371078 ], [ -86.257491, 35.370878 ], [ -86.257364, 35.373014 ], [ -86.257712, 35.375078 ], [ -86.257123, 35.379391 ], [ -86.257141, 35.380677 ], [ -86.253682, 35.380351 ], [ -86.253335, 35.385299 ], [ -86.263307, 35.385686 ], [ -86.263458, 35.386227 ], [ -86.268669, 35.386615 ], [ -86.271742, 35.386843 ], [ -86.274321, 35.387035 ], [ -86.279905, 35.387452 ], [ -86.27386, 35.392412 ], [ -86.271392, 35.394466 ], [ -86.270312, 35.39538 ], [ -86.267252, 35.397978 ], [ -86.261045, 35.39779 ], [ -86.260971, 35.400375 ], [ -86.260859, 35.40432 ], [ -86.258806, 35.404267 ], [ -86.258847, 35.403732 ], [ -86.256663, 35.403614 ], [ -86.252457, 35.403412 ], [ -86.251673, 35.403511 ], [ -86.251504, 35.409038 ], [ -86.258036, 35.409103 ], [ -86.257888, 35.41125 ], [ -86.25759, 35.412476 ], [ -86.254676, 35.41277 ], [ -86.25055, 35.413202 ], [ -86.250438, 35.414474 ], [ -86.249991, 35.421715 ], [ -86.249867, 35.423063 ], [ -86.249856, 35.42318 ], [ -86.249601, 35.426008 ], [ -86.247622, 35.441181 ], [ -86.246613, 35.449195 ], [ -86.237789, 35.448553 ], [ -86.237266, 35.452003 ], [ -86.235057, 35.451961 ], [ -86.234529, 35.453308 ], [ -86.236714, 35.455034 ], [ -86.239396, 35.455882 ], [ -86.241739, 35.457516 ], [ -86.242381, 35.459569 ], [ -86.243641, 35.458932 ], [ -86.244286, 35.458809 ], [ -86.245413, 35.460671 ], [ -86.246244, 35.462482 ], [ -86.246872, 35.465375 ], [ -86.246742, 35.466573 ], [ -86.244957, 35.466903 ], [ -86.244237, 35.467837 ], [ -86.24471, 35.469047 ], [ -86.24617, 35.469418 ], [ -86.246278, 35.471579 ], [ -86.244062, 35.472866 ], [ -86.244786, 35.476604 ], [ -86.245289, 35.477411 ], [ -86.245008, 35.478731 ], [ -86.24383, 35.487851 ], [ -86.242253, 35.500074 ], [ -86.241987, 35.501003 ], [ -86.241641, 35.504176 ], [ -86.238723, 35.504841 ], [ -86.236679, 35.505836 ], [ -86.237278, 35.507086 ], [ -86.23756, 35.507667 ], [ -86.24178, 35.516008 ], [ -86.242654, 35.517822 ], [ -86.242786, 35.525101 ], [ -86.242708, 35.528431 ], [ -86.242942, 35.532386 ], [ -86.242838, 35.539321 ], [ -86.242701, 35.545636 ], [ -86.242697, 35.545808 ], [ -86.242482, 35.55557 ], [ -86.242149, 35.570689 ], [ -86.242141, 35.575072 ], [ -86.242252, 35.577876 ], [ -86.243719, 35.603266 ], [ -86.243869, 35.606691 ], [ -86.245771, 35.607096 ], [ -86.243927, 35.608914 ], [ -86.243779, 35.610139 ], [ -86.244362, 35.611762 ], [ -86.245115, 35.611879 ], [ -86.245292, 35.615254 ], [ -86.245112, 35.616877 ], [ -86.243789, 35.61741 ], [ -86.244448, 35.620434 ], [ -86.248096, 35.62062 ], [ -86.247662, 35.624055 ], [ -86.247213, 35.624313 ], [ -86.245611, 35.625729 ], [ -86.24362, 35.625759 ], [ -86.243291, 35.62572 ], [ -86.242565, 35.625641 ], [ -86.24167, 35.626986 ], [ -86.241862, 35.627654 ], [ -86.244183, 35.630386 ], [ -86.245165, 35.631913 ], [ -86.245767, 35.631929 ], [ -86.246076, 35.631938 ], [ -86.246414, 35.631949 ], [ -86.249994, 35.632116 ], [ -86.25766, 35.631921 ], [ -86.257478, 35.634286 ], [ -86.260577, 35.637897 ], [ -86.262714, 35.637884 ], [ -86.263763, 35.63956 ], [ -86.266556, 35.639769 ], [ -86.268368, 35.641113 ], [ -86.268898, 35.642631 ], [ -86.271483, 35.64296 ], [ -86.272722, 35.642708 ], [ -86.273309, 35.64259 ], [ -86.274769, 35.643786 ], [ -86.277229, 35.644589 ], [ -86.27981, 35.645892 ], [ -86.280924, 35.648615 ], [ -86.282828, 35.648382 ], [ -86.284018, 35.649084 ], [ -86.285457, 35.648315 ], [ -86.287584, 35.648252 ], [ -86.28743, 35.646593 ], [ -86.286466, 35.645144 ], [ -86.286826, 35.644028 ], [ -86.286923, 35.643409 ], [ -86.288637, 35.643359 ], [ -86.289831, 35.643869 ], [ -86.289916, 35.644844 ], [ -86.290741, 35.645688 ], [ -86.291337, 35.646023 ], [ -86.292153, 35.646094 ], [ -86.293525, 35.647273 ], [ -86.295266, 35.647449 ], [ -86.297316, 35.64658 ], [ -86.299562, 35.646447 ], [ -86.300798, 35.646087 ], [ -86.301335, 35.645713 ], [ -86.302421, 35.64619 ], [ -86.305235, 35.646375 ], [ -86.305893, 35.64795 ], [ -86.306493, 35.64868 ], [ -86.306181, 35.650585 ], [ -86.30547, 35.651505 ], [ -86.304096, 35.651155 ], [ -86.302783, 35.651394 ], [ -86.302123, 35.652829 ], [ -86.302048, 35.653996 ], [ -86.300724, 35.654371 ], [ -86.300321, 35.655736 ], [ -86.301156, 35.656581 ], [ -86.303177, 35.657806 ], [ -86.304128, 35.659553 ], [ -86.3076, 35.659196 ], [ -86.309328, 35.659517 ], [ -86.310243, 35.660306 ], [ -86.310374, 35.661587 ], [ -86.311811, 35.661575 ], [ -86.313895, 35.661182 ], [ -86.315215, 35.661153 ], [ -86.315959, 35.661027 ], [ -86.317209, 35.660816 ], [ -86.318896, 35.662037 ], [ -86.321324, 35.662348 ], [ -86.325368, 35.661875 ], [ -86.326323, 35.662639 ], [ -86.327852, 35.662395 ], [ -86.329587, 35.660863 ], [ -86.331977, 35.659587 ], [ -86.334075, 35.658059 ], [ -86.335679, 35.658193 ], [ -86.336847, 35.659061 ], [ -86.33603, 35.662149 ], [ -86.33706, 35.662584 ], [ -86.338262, 35.663093 ], [ -86.340438, 35.663168 ], [ -86.34194, 35.664259 ], [ -86.345069, 35.663744 ], [ -86.343776, 35.660917 ], [ -86.345509, 35.659482 ], [ -86.347282, 35.658723 ], [ -86.350624, 35.660666 ], [ -86.352734, 35.660482 ], [ -86.354825, 35.657939 ], [ -86.354374, 35.655561 ], [ -86.35146, 35.654772 ], [ -86.350702, 35.653245 ], [ -86.352169, 35.650237 ], [ -86.359493, 35.650433 ], [ -86.359716, 35.652161 ], [ -86.362826, 35.65228 ], [ -86.363379, 35.651431 ], [ -86.365601, 35.650926 ], [ -86.366725, 35.648471 ], [ -86.369035, 35.647274 ], [ -86.370673, 35.647038 ], [ -86.373396, 35.645812 ], [ -86.374992, 35.646043 ], [ -86.376796, 35.647157 ], [ -86.377841, 35.645303 ], [ -86.378642, 35.642823 ], [ -86.377754, 35.641479 ], [ -86.374992, 35.639174 ], [ -86.374399, 35.637539 ], [ -86.375607, 35.6359 ], [ -86.375611, 35.634804 ], [ -86.374551, 35.633936 ], [ -86.373011, 35.6311 ], [ -86.374271, 35.63008 ], [ -86.376959, 35.630219 ], [ -86.379636, 35.629868 ], [ -86.382648, 35.628568 ], [ -86.382831, 35.626777 ], [ -86.384299, 35.62634 ], [ -86.387762, 35.626094 ], [ -86.38965, 35.627194 ], [ -86.390784, 35.626995 ], [ -86.394164, 35.62659 ], [ -86.395498, 35.627778 ], [ -86.394443, 35.625513 ], [ -86.39456, 35.623805 ], [ -86.39509, 35.623204 ], [ -86.3987, 35.622072 ], [ -86.399791, 35.620741 ], [ -86.40135, 35.619786 ], [ -86.401731, 35.618627 ], [ -86.403312, 35.618874 ], [ -86.405157, 35.622197 ], [ -86.406722, 35.62292 ], [ -86.409525, 35.623144 ], [ -86.411401, 35.622699 ], [ -86.413678, 35.623177 ], [ -86.416866, 35.625559 ], [ -86.4179, 35.628259 ], [ -86.417275, 35.630403 ], [ -86.415369, 35.633088 ], [ -86.415338, 35.63493 ], [ -86.413847, 35.637029 ], [ -86.413429, 35.640023 ], [ -86.418902, 35.640617 ], [ -86.418173, 35.647178 ], [ -86.416788, 35.647159 ], [ -86.416625, 35.649636 ], [ -86.424931, 35.649772 ], [ -86.424145, 35.652976 ], [ -86.424415, 35.652858 ], [ -86.428898, 35.650645 ], [ -86.430247, 35.649736 ], [ -86.431486, 35.647916 ], [ -86.432679, 35.646908 ], [ -86.436629, 35.64552 ], [ -86.438418, 35.645231 ], [ -86.442338, 35.646229 ], [ -86.444741, 35.646177 ], [ -86.445134, 35.643532 ], [ -86.455038, 35.644548 ], [ -86.456052, 35.637154 ], [ -86.456514, 35.637207 ], [ -86.462181, 35.63785 ], [ -86.461353, 35.645176 ], [ -86.473206, 35.646321 ], [ -86.472088, 35.654732 ], [ -86.477702, 35.655404 ], [ -86.487815, 35.656472 ], [ -86.488394, 35.657708 ], [ -86.493612, 35.658044 ], [ -86.494006, 35.658048 ], [ -86.493652, 35.660847 ], [ -86.499797, 35.66149 ], [ -86.499773, 35.661688 ], [ -86.499448, 35.664556 ], [ -86.501899, 35.664993 ], [ -86.501608, 35.667149 ], [ -86.505373, 35.667624 ], [ -86.504837, 35.670804 ], [ -86.509482, 35.67136 ], [ -86.508794, 35.675598 ], [ -86.513157, 35.676134 ], [ -86.513078, 35.676998 ], [ -86.519442, 35.677751 ], [ -86.519121, 35.680556 ], [ -86.516676, 35.680586 ], [ -86.515516, 35.688396 ], [ -86.520208, 35.688519 ], [ -86.520432, 35.685892 ], [ -86.523136, 35.686045 ], [ -86.523293, 35.686053 ], [ -86.523378, 35.689855 ], [ -86.523898, 35.689761 ], [ -86.526643, 35.689974 ], [ -86.526878, 35.69139 ], [ -86.53481, 35.692076 ], [ -86.535628, 35.69215 ], [ -86.537514, 35.692235 ], [ -86.53734, 35.693266 ], [ -86.543685, 35.694278 ], [ -86.543116, 35.697617 ], [ -86.568295, 35.699246 ], [ -86.57107, 35.699241 ], [ -86.581343, 35.699377 ], [ -86.581754, 35.699426 ], [ -86.600362, 35.701578 ], [ -86.615763, 35.702473 ], [ -86.619446, 35.702676 ], [ -86.619515, 35.701079 ], [ -86.621875, 35.700995 ], [ -86.622182, 35.701256 ], [ -86.621912, 35.702808 ], [ -86.623605, 35.702833 ], [ -86.623791, 35.702827 ], [ -86.623915, 35.702823 ], [ -86.629908, 35.702406 ], [ -86.636362, 35.701982 ], [ -86.635657, 35.701715 ], [ -86.636933, 35.696551 ], [ -86.639436, 35.6859 ], [ -86.642389, 35.686235 ], [ -86.641978, 35.689037 ], [ -86.643283, 35.689183 ], [ -86.649695, 35.689902 ], [ -86.651389, 35.690092 ], [ -86.651194, 35.691586 ], [ -86.66047, 35.692544 ], [ -86.661619, 35.692664 ], [ -86.661346, 35.694844 ], [ -86.667188, 35.695283 ], [ -86.667074, 35.696357 ], [ -86.670208, 35.696705 ], [ -86.674255, 35.696962 ], [ -86.673683, 35.703306 ], [ -86.677206, 35.703775 ], [ -86.682628, 35.704097 ], [ -86.682126, 35.706981 ], [ -86.68118, 35.708221 ], [ -86.680652, 35.70957 ], [ -86.686193, 35.710051 ], [ -86.685925, 35.713558 ], [ -86.689105, 35.713254 ], [ -86.688588, 35.718082 ], [ -86.688557, 35.718372 ], [ -86.692002, 35.71852 ], [ -86.692638, 35.718633 ], [ -86.694703, 35.71876 ], [ -86.695008, 35.717547 ], [ -86.697897, 35.717844 ], [ -86.698003, 35.717835 ], [ -86.698119, 35.717839 ], [ -86.699281, 35.717837 ], [ -86.700265, 35.722621 ], [ -86.698669, 35.731831 ], [ -86.698561, 35.732581 ], [ -86.698446, 35.733958 ], [ -86.698032, 35.741059 ], [ -86.697964, 35.742632 ], [ -86.697794, 35.746284 ], [ -86.697619, 35.74678 ], [ -86.69758, 35.747077 ], [ -86.69755, 35.747306 ], [ -86.696904, 35.752334 ], [ -86.693698, 35.752712 ], [ -86.69354, 35.752719 ], [ -86.692884, 35.753723 ], [ -86.692376, 35.754532 ], [ -86.692486, 35.753328 ], [ -86.692181, 35.752448 ], [ -86.692366, 35.751069 ], [ -86.681813, 35.750066 ], [ -86.681701, 35.750753 ], [ -86.680854, 35.750621 ], [ -86.679931, 35.756304 ], [ -86.679478, 35.756258 ], [ -86.678142, 35.765772 ], [ -86.675091, 35.765689 ], [ -86.675149, 35.76896 ], [ -86.672737, 35.768623 ], [ -86.672002, 35.768885 ], [ -86.671288, 35.771736 ], [ -86.663821, 35.770982 ], [ -86.662568, 35.767809 ], [ -86.661266, 35.767431 ], [ -86.660225, 35.776879 ], [ -86.659926, 35.779626 ], [ -86.659966, 35.781734 ], [ -86.661728, 35.78261 ], [ -86.663316, 35.782158 ], [ -86.664217, 35.782898 ], [ -86.664042, 35.783682 ], [ -86.661772, 35.785392 ], [ -86.661467, 35.786348 ], [ -86.662149, 35.787977 ], [ -86.663374, 35.789421 ], [ -86.662855, 35.790934 ], [ -86.651984, 35.790029 ], [ -86.651684, 35.790005 ], [ -86.651395, 35.78998 ], [ -86.649916, 35.789855 ], [ -86.649811, 35.79058 ], [ -86.647844, 35.79047 ], [ -86.647783, 35.790858 ], [ -86.647049, 35.795558 ], [ -86.643487, 35.795301 ], [ -86.635521, 35.794627 ], [ -86.632088, 35.794484 ], [ -86.631989, 35.79542 ], [ -86.623997, 35.794762 ], [ -86.623703, 35.791191 ], [ -86.613328, 35.790331 ], [ -86.613241, 35.790824 ], [ -86.610908, 35.804115 ], [ -86.611855, 35.804795 ], [ -86.612754, 35.806394 ], [ -86.612815, 35.808131 ], [ -86.613531, 35.809965 ], [ -86.616937, 35.809054 ], [ -86.619016, 35.808499 ], [ -86.61971, 35.807174 ], [ -86.619475, 35.805714 ], [ -86.622415, 35.805227 ], [ -86.622878, 35.806967 ], [ -86.624996, 35.808196 ], [ -86.625198, 35.808897 ], [ -86.623826, 35.812522 ], [ -86.623291, 35.815735 ], [ -86.621684, 35.816297 ], [ -86.620919, 35.815445 ], [ -86.618748, 35.815551 ], [ -86.618691, 35.816156 ], [ -86.617033, 35.816227 ], [ -86.61691, 35.813484 ], [ -86.61387, 35.813486 ], [ -86.612951, 35.813515 ], [ -86.612245, 35.817448 ], [ -86.612707, 35.819215 ], [ -86.611816, 35.824558 ], [ -86.613506, 35.824671 ], [ -86.626018, 35.826738 ], [ -86.625534, 35.832249 ], [ -86.617335, 35.831287 ], [ -86.616383, 35.838795 ], [ -86.60343, 35.838704 ], [ -86.603221, 35.84014 ], [ -86.602582, 35.840246 ], [ -86.601506, 35.841498 ], [ -86.60162, 35.844535 ], [ -86.601026, 35.84514 ], [ -86.601457, 35.848891 ], [ -86.600032, 35.849994 ], [ -86.600221, 35.851519 ], [ -86.600428, 35.853185 ], [ -86.605079, 35.85418 ], [ -86.605294, 35.854993 ], [ -86.605648, 35.855156 ], [ -86.607099, 35.855828 ], [ -86.60617, 35.858975 ], [ -86.61208, 35.859906 ], [ -86.612675, 35.861088 ], [ -86.615597, 35.862343 ], [ -86.616781, 35.863666 ], [ -86.617427, 35.864132 ], [ -86.618032, 35.867913 ], [ -86.617296, 35.868812 ], [ -86.617315, 35.870223 ], [ -86.618556, 35.871339 ], [ -86.621372, 35.882569 ], [ -86.619588, 35.883715 ], [ -86.615513, 35.882778 ], [ -86.613771, 35.883756 ], [ -86.615132, 35.88944 ], [ -86.613857, 35.889666 ], [ -86.611634, 35.889682 ], [ -86.610595, 35.890148 ], [ -86.609944, 35.89127 ], [ -86.608749, 35.89166 ], [ -86.605582, 35.89086 ], [ -86.60296, 35.890542 ], [ -86.596396, 35.889742 ], [ -86.595115, 35.888822 ], [ -86.59494, 35.887925 ], [ -86.594626, 35.88603 ], [ -86.59434, 35.885798 ], [ -86.591748, 35.883953 ], [ -86.588479, 35.882146 ], [ -86.586363, 35.880882 ], [ -86.584819, 35.880916 ], [ -86.578523, 35.880016 ], [ -86.576329, 35.880221 ], [ -86.574127, 35.880068 ], [ -86.573422, 35.881503 ], [ -86.572987, 35.881953 ], [ -86.572548, 35.8827 ], [ -86.571017, 35.884067 ], [ -86.570809, 35.884243 ], [ -86.570191, 35.885108 ], [ -86.569583, 35.886027 ], [ -86.569166, 35.88652 ], [ -86.567232, 35.888074 ], [ -86.566951, 35.888593 ], [ -86.566549, 35.89075 ], [ -86.566464, 35.891267 ], [ -86.566415, 35.891569 ], [ -86.566312, 35.89206 ], [ -86.566271, 35.892209 ], [ -86.566229, 35.892336 ], [ -86.566168, 35.892494 ], [ -86.566147, 35.892534 ], [ -86.566102, 35.892626 ], [ -86.566031, 35.892752 ], [ -86.566021, 35.892766 ], [ -86.565892, 35.892953 ], [ -86.565756, 35.893127 ], [ -86.565706, 35.893185 ], [ -86.565436, 35.893498 ], [ -86.565085, 35.893912 ], [ -86.563431, 35.895873 ], [ -86.563267, 35.896128 ], [ -86.56323, 35.896188 ], [ -86.563103, 35.896454 ], [ -86.563004, 35.89673 ], [ -86.562945, 35.897022 ], [ -86.562836, 35.897827 ], [ -86.56274, 35.897823 ], [ -86.562354, 35.900847 ], [ -86.562269, 35.90199 ], [ -86.562405, 35.902839 ], [ -86.562333, 35.903252 ], [ -86.561763, 35.903962 ], [ -86.561142, 35.904249 ], [ -86.560186, 35.904293 ], [ -86.556007, 35.903816 ], [ -86.554806, 35.903769 ], [ -86.553582, 35.904191 ], [ -86.553004, 35.904862 ], [ -86.552797, 35.905397 ], [ -86.552414, 35.907696 ], [ -86.552194, 35.908733 ], [ -86.551577, 35.912678 ], [ -86.551151, 35.914145 ], [ -86.550882, 35.917222 ], [ -86.55061, 35.918988 ], [ -86.550478, 35.919819 ], [ -86.550299, 35.920949 ], [ -86.550281, 35.921092 ], [ -86.550372, 35.921108 ], [ -86.550352, 35.921245 ], [ -86.550217, 35.921236 ], [ -86.549934, 35.923187 ], [ -86.550084, 35.923201 ], [ -86.549701, 35.925519 ], [ -86.549413, 35.926241 ], [ -86.548592, 35.926998 ], [ -86.547417, 35.92742 ], [ -86.546157, 35.927439 ], [ -86.54542, 35.927322 ], [ -86.544265, 35.926939 ], [ -86.541559, 35.925759 ], [ -86.540169, 35.925429 ], [ -86.54019, 35.925275 ], [ -86.540469, 35.923252 ], [ -86.537999, 35.922648 ], [ -86.535174, 35.921773 ], [ -86.533551, 35.921604 ], [ -86.531993, 35.921469 ], [ -86.530744, 35.921354 ], [ -86.528832, 35.921175 ], [ -86.527194, 35.921019 ], [ -86.526738, 35.920968 ], [ -86.525926, 35.920879 ], [ -86.522099, 35.920518 ], [ -86.521915, 35.92117 ], [ -86.521109, 35.924051 ], [ -86.521004, 35.924433 ], [ -86.520857, 35.925014 ], [ -86.520256, 35.927253 ], [ -86.518553, 35.931716 ], [ -86.517235, 35.932361 ], [ -86.511949, 35.932086 ], [ -86.510629, 35.932452 ], [ -86.509634, 35.934501 ], [ -86.508631, 35.935417 ], [ -86.507506, 35.935557 ], [ -86.50634, 35.935444 ], [ -86.505147, 35.935335 ], [ -86.503972, 35.935237 ], [ -86.502808, 35.935134 ], [ -86.499222, 35.934838 ], [ -86.499587, 35.932061 ], [ -86.499787, 35.930476 ], [ -86.497052, 35.930226 ], [ -86.496588, 35.93138 ], [ -86.495859, 35.931188 ], [ -86.495751, 35.93116 ], [ -86.495483, 35.93109 ], [ -86.495207, 35.931018 ], [ -86.494437, 35.932546 ], [ -86.492717, 35.931451 ], [ -86.492063, 35.931955 ], [ -86.49364, 35.933393 ], [ -86.492791, 35.934266 ], [ -86.493552, 35.934954 ], [ -86.494435, 35.935751 ], [ -86.493654, 35.936409 ], [ -86.492312, 35.937775 ], [ -86.492013, 35.938708 ], [ -86.491498, 35.941156 ], [ -86.491274, 35.942396 ], [ -86.488543, 35.942132 ], [ -86.487436, 35.942013 ], [ -86.485475, 35.940862 ], [ -86.48441, 35.939913 ], [ -86.48312, 35.940778 ], [ -86.482555, 35.940792 ], [ -86.482404, 35.940861 ], [ -86.486236, 35.945276 ], [ -86.487799, 35.947059 ], [ -86.49433, 35.954617 ], [ -86.49552, 35.956656 ], [ -86.497073, 35.958172 ], [ -86.497257, 35.958344 ], [ -86.502255, 35.963617 ], [ -86.503098, 35.964582 ], [ -86.504115, 35.965745 ], [ -86.504905, 35.966658 ], [ -86.506413, 35.968392 ], [ -86.506529, 35.968271 ], [ -86.506824, 35.968083 ], [ -86.510047, 35.971701 ], [ -86.510887, 35.971212 ], [ -86.512554, 35.97205 ], [ -86.514832, 35.972246 ], [ -86.517402, 35.972463 ], [ -86.518825, 35.972581 ], [ -86.518432, 35.975738 ], [ -86.519661, 35.975941 ], [ -86.520991, 35.975584 ], [ -86.521366, 35.975616 ], [ -86.522804, 35.975712 ], [ -86.524389, 35.976055 ], [ -86.525906, 35.976165 ], [ -86.525798, 35.977613 ], [ -86.526981, 35.977557 ], [ -86.530016, 35.975269 ], [ -86.531387, 35.975723 ], [ -86.532014, 35.976838 ], [ -86.533414, 35.978383 ], [ -86.539829, 35.979169 ], [ -86.540206, 35.978312 ], [ -86.541706, 35.97972 ], [ -86.542569, 35.980503 ], [ -86.54338, 35.981271 ], [ -86.546878, 35.98474 ], [ -86.548636, 35.986413 ], [ -86.548827, 35.986589 ], [ -86.553007, 35.984125 ], [ -86.554793, 35.983124 ], [ -86.557435, 35.981591 ], [ -86.558897, 35.980774 ], [ -86.561378, 35.979357 ], [ -86.56303, 35.978414 ], [ -86.565857, 35.97704 ], [ -86.569976, 35.975954 ], [ -86.571471, 35.9753 ], [ -86.573605, 35.977827 ], [ -86.576587, 35.980983 ], [ -86.579802, 35.984221 ], [ -86.582612, 35.986461 ], [ -86.596727, 35.995443 ], [ -86.603317, 35.999629 ], [ -86.606815, 36.002254 ], [ -86.612691, 36.007523 ], [ -86.612734, 36.007273 ], [ -86.615588, 35.991624 ], [ -86.609591, 35.990926 ], [ -86.610007, 35.987902 ], [ -86.610086, 35.985755 ], [ -86.607225, 35.985472 ], [ -86.607547, 35.983784 ], [ -86.607743, 35.981573 ], [ -86.607995, 35.979772 ], [ -86.609595, 35.979822 ], [ -86.610425, 35.975468 ], [ -86.613646, 35.975552 ], [ -86.613688, 35.972391 ], [ -86.614415, 35.967785 ], [ -86.618892, 35.968224 ], [ -86.6186, 35.971336 ], [ -86.627695, 35.972128 ], [ -86.627397, 35.974027 ], [ -86.632912, 35.974401 ], [ -86.645887, 35.975359 ], [ -86.648288, 35.975573 ], [ -86.648288, 35.976422 ], [ -86.654285, 35.978736 ], [ -86.656189, 35.979472 ], [ -86.664248, 35.982583 ], [ -86.664852, 35.982816 ], [ -86.666792, 35.983565 ], [ -86.669453, 35.984592 ], [ -86.673863, 35.986292 ], [ -86.675519, 35.986933 ], [ -86.6761, 35.987158 ], [ -86.681889, 35.989399 ], [ -86.683475, 35.991177 ], [ -86.684785, 35.992599 ], [ -86.686164, 35.994092 ], [ -86.686347, 35.994269 ], [ -86.686455, 35.994363 ], [ -86.686735, 35.994608 ], [ -86.6872, 35.994962 ], [ -86.687305, 35.995037 ], [ -86.687394, 35.995104 ], [ -86.687714, 35.995343 ], [ -86.689096, 35.99505 ], [ -86.689614, 35.994966 ], [ -86.692324, 35.994753 ], [ -86.693173, 35.996 ], [ -86.697419, 35.998609 ], [ -86.699433, 35.999847 ], [ -86.703215, 36.00217 ], [ -86.712896, 36.008122 ], [ -86.720169, 36.008744 ], [ -86.722181, 36.008976 ], [ -86.723938, 36.009124 ], [ -86.726076, 36.009306 ], [ -86.731882, 36.009856 ], [ -86.734426, 36.011083 ], [ -86.738652, 36.013256 ], [ -86.740607, 36.014275 ], [ -86.746348, 36.017267 ], [ -86.750323, 36.019339 ], [ -86.755889, 36.022288 ], [ -86.760444, 36.024699 ], [ -86.762631, 36.025857 ], [ -86.764379, 36.026782 ], [ -86.766345, 36.027823 ], [ -86.769095, 36.029216 ], [ -86.777073, 36.033218 ], [ -86.777128, 36.033239 ], [ -86.781367, 36.034324 ], [ -86.783079, 36.034886 ], [ -86.783268, 36.034946 ], [ -86.784238, 36.035217 ], [ -86.785814, 36.035625 ], [ -86.787205, 36.035999 ], [ -86.790875, 36.036715 ], [ -86.793914, 36.036967 ], [ -86.794688, 36.037066 ], [ -86.795019, 36.037092 ], [ -86.79782, 36.037318 ], [ -86.801178, 36.037589 ], [ -86.816472, 36.039217 ], [ -86.819766, 36.039586 ], [ -86.822299, 36.039865 ], [ -86.824578, 36.040116 ], [ -86.831486, 36.04088 ], [ -86.832753, 36.041024 ], [ -86.837533, 36.041561 ], [ -86.842077, 36.042086 ], [ -86.845354, 36.04246 ], [ -86.849077, 36.043011 ], [ -86.856653, 36.043966 ], [ -86.856722, 36.043963 ], [ -86.857964, 36.04407 ], [ -86.864957, 36.044672 ], [ -86.866507, 36.042911 ], [ -86.869444, 36.039572 ], [ -86.87188, 36.036747 ], [ -86.874388, 36.033447 ], [ -86.875584, 36.031225 ], [ -86.876598, 36.02866 ], [ -86.878019, 36.026827 ], [ -86.881692, 36.024402 ], [ -86.885235, 36.021435 ], [ -86.886885, 36.019625 ], [ -86.88802, 36.017861 ], [ -86.888512, 36.015453 ], [ -86.888763, 36.011686 ], [ -86.888573, 36.010743 ], [ -86.887474, 36.008166 ], [ -86.887151, 36.00747 ], [ -86.885586, 36.004117 ], [ -86.885208, 36.002773 ], [ -86.885258, 36.001062 ], [ -86.885818, 35.999146 ], [ -86.885912, 35.99886 ], [ -86.887021, 35.995305 ], [ -86.887687, 35.993983 ], [ -86.889704, 35.991383 ], [ -86.890558, 35.989296 ], [ -86.890769, 35.987402 ], [ -86.89046, 35.985483 ], [ -86.888577, 35.979492 ], [ -86.886925, 35.975056 ], [ -86.88668, 35.974657 ], [ -86.885966, 35.973687 ], [ -86.884491, 35.974522 ], [ -86.881848, 35.975611 ], [ -86.880769, 35.975682 ], [ -86.877383, 35.974654 ], [ -86.876435, 35.975572 ], [ -86.876429, 35.975621 ], [ -86.870062, 35.974763 ], [ -86.867828, 35.972884 ], [ -86.866168, 35.972254 ], [ -86.861614, 35.971856 ], [ -86.859589, 35.973297 ], [ -86.85891, 35.975168 ], [ -86.857429, 35.976341 ], [ -86.853644, 35.977296 ], [ -86.850257, 35.979499 ], [ -86.848815, 35.979594 ], [ -86.846187, 35.981167 ], [ -86.844765, 35.981601 ], [ -86.843173, 35.980669 ], [ -86.841155, 35.978601 ], [ -86.840014, 35.976525 ], [ -86.838496, 35.975504 ], [ -86.836108, 35.974719 ], [ -86.835639, 35.974446 ], [ -86.833687, 35.97358 ], [ -86.833056, 35.973339 ], [ -86.833207, 35.973169 ], [ -86.832852, 35.973028 ], [ -86.828578, 35.972314 ], [ -86.825975, 35.971583 ], [ -86.825811, 35.971836 ], [ -86.821682, 35.970472 ], [ -86.820337, 35.969773 ], [ -86.819106, 35.968493 ], [ -86.819063, 35.96846 ], [ -86.819023, 35.968428 ], [ -86.818338, 35.967995 ], [ -86.816229, 35.967497 ], [ -86.814925, 35.967338 ], [ -86.814756, 35.967314 ], [ -86.813543, 35.967067 ], [ -86.813572, 35.966949 ], [ -86.811326, 35.966648 ], [ -86.811193, 35.96663 ], [ -86.809998, 35.966432 ], [ -86.809524, 35.966358 ], [ -86.809235, 35.966313 ], [ -86.808104, 35.966137 ], [ -86.80803, 35.966126 ], [ -86.807866, 35.9661 ], [ -86.807631, 35.966064 ], [ -86.809498, 35.960697 ], [ -86.811165, 35.955895 ], [ -86.811755, 35.954202 ], [ -86.814051, 35.947585 ], [ -86.8141, 35.947446 ], [ -86.816284, 35.941168 ], [ -86.817055, 35.938943 ], [ -86.818702, 35.934207 ], [ -86.81876, 35.93404 ], [ -86.818909, 35.933614 ], [ -86.821495, 35.926186 ], [ -86.822782, 35.922348 ], [ -86.823433, 35.919495 ], [ -86.824148, 35.914261 ], [ -86.824161, 35.914172 ], [ -86.824004, 35.914132 ], [ -86.823834, 35.91409 ], [ -86.823467, 35.914018 ], [ -86.823334, 35.913923 ], [ -86.824661, 35.910255 ], [ -86.825024, 35.907619 ], [ -86.826287, 35.902781 ], [ -86.8279, 35.89856 ], [ -86.828678, 35.895511 ], [ -86.829172, 35.892102 ], [ -86.829979, 35.886139 ], [ -86.830198, 35.883213 ], [ -86.831646, 35.859487 ], [ -86.832122, 35.851626 ], [ -86.83263, 35.843316 ], [ -86.833122, 35.834838 ], [ -86.833591, 35.831402 ], [ -86.83432, 35.828905 ], [ -86.836347, 35.824774 ], [ -86.838323, 35.82198 ], [ -86.838587, 35.821968 ], [ -86.838794, 35.821679 ], [ -86.844393, 35.813833 ], [ -86.846823, 35.810435 ], [ -86.850399, 35.805824 ], [ -86.850596, 35.805573 ], [ -86.851236, 35.804756 ], [ -86.854391, 35.800831 ], [ -86.856287, 35.798473 ], [ -86.858177, 35.796111 ], [ -86.858797, 35.795307 ], [ -86.859299, 35.794579 ], [ -86.859628, 35.794031 ], [ -86.860008, 35.793344 ], [ -86.860299, 35.792736 ], [ -86.860566, 35.792117 ], [ -86.860808, 35.791468 ], [ -86.861053, 35.790643 ], [ -86.861282, 35.789708 ], [ -86.86313, 35.781531 ], [ -86.863869, 35.776223 ], [ -86.865044, 35.765362 ], [ -86.865345, 35.763571 ], [ -86.866164, 35.760529 ], [ -86.868111, 35.755759 ], [ -86.869934, 35.751497 ], [ -86.869755, 35.751401 ], [ -86.870853, 35.748398 ], [ -86.872588, 35.741085 ], [ -86.873047, 35.739204 ], [ -86.874839, 35.731526 ], [ -86.876719, 35.723479 ], [ -86.876953, 35.722467 ], [ -86.877825, 35.718807 ], [ -86.878613, 35.715651 ], [ -86.882313, 35.701942 ], [ -86.88554, 35.689979 ], [ -86.885756, 35.690199 ], [ -86.889473, 35.693769 ], [ -86.893776, 35.697264 ], [ -86.896131, 35.699447 ], [ -86.896605, 35.699927 ], [ -86.898199, 35.701694 ], [ -86.898666, 35.702225 ], [ -86.898685, 35.702079 ], [ -86.899522, 35.697493 ], [ -86.900416, 35.692101 ], [ -86.90091, 35.68813 ], [ -86.905417, 35.688364 ], [ -86.906018, 35.683465 ], [ -86.905873, 35.682424 ], [ -86.905576, 35.68062 ], [ -86.906059, 35.677937 ], [ -86.907341, 35.676079 ], [ -86.907612, 35.674315 ], [ -86.908364, 35.671275 ], [ -86.909333, 35.669946 ], [ -86.910106, 35.666069 ], [ -86.909892, 35.664676 ], [ -86.908352, 35.662049 ], [ -86.908603, 35.660579 ], [ -86.909662, 35.655189 ], [ -86.909626, 35.653408 ], [ -86.90971, 35.653418 ], [ -86.908816, 35.649112 ], [ -86.908944, 35.647958 ], [ -86.908305, 35.646413 ], [ -86.906591, 35.645226 ], [ -86.909372, 35.644803 ], [ -86.909396, 35.644802 ], [ -86.912882, 35.644802 ], [ -86.918001, 35.646946 ], [ -86.91909, 35.646751 ], [ -86.921244, 35.645912 ], [ -86.924133, 35.645469 ], [ -86.925612, 35.644221 ], [ -86.926632, 35.644066 ], [ -86.928777, 35.644631 ], [ -86.932719, 35.645179 ], [ -86.934273, 35.645979 ], [ -86.938655, 35.644989 ], [ -86.943317, 35.643985 ], [ -86.944803, 35.642753 ], [ -86.94572, 35.64166 ], [ -86.948157, 35.63989 ], [ -86.949125, 35.63777 ], [ -86.951663, 35.6353 ], [ -86.953014, 35.634436 ], [ -86.953559, 35.63349 ], [ -86.954668, 35.63383 ], [ -86.959044, 35.635097 ], [ -86.961527, 35.635771 ], [ -86.964409, 35.636095 ], [ -86.966208, 35.636156 ], [ -86.970396, 35.636351 ], [ -86.972682, 35.636422 ], [ -86.98005, 35.636045 ], [ -86.981126, 35.63598 ], [ -86.982386, 35.63594 ], [ -86.985123, 35.6358 ], [ -86.988458, 35.635936 ], [ -86.993463, 35.636514 ], [ -86.995145, 35.636548 ], [ -86.996489, 35.636523 ], [ -87.002123, 35.636238 ], [ -87.0042, 35.636128 ], [ -87.004623, 35.636105 ], [ -87.006669, 35.635828 ], [ -87.010316, 35.634827 ], [ -87.01381, 35.634891 ], [ -87.014821, 35.635098 ], [ -87.017489, 35.635713 ], [ -87.017674, 35.635764 ], [ -87.02334, 35.636885 ], [ -87.027783, 35.637273 ], [ -87.035393, 35.637464 ], [ -87.035514, 35.637468 ], [ -87.035634, 35.637471 ], [ -87.036538, 35.637494 ], [ -87.036732, 35.637504 ], [ -87.036785, 35.637507 ], [ -87.037056, 35.637522 ], [ -87.03746, 35.637559 ], [ -87.037988, 35.63764 ], [ -87.038457, 35.637741 ], [ -87.039081, 35.637924 ], [ -87.039442, 35.638058 ], [ -87.039964, 35.63827 ], [ -87.040556, 35.638499 ], [ -87.041793, 35.638979 ], [ -87.042224, 35.639115 ], [ -87.04224, 35.63912 ], [ -87.042371, 35.639153 ], [ -87.042556, 35.639196 ], [ -87.042997, 35.639266 ], [ -87.043385, 35.63929 ], [ -87.043567, 35.639281 ], [ -87.043681, 35.639278 ], [ -87.044019, 35.639239 ], [ -87.045515, 35.638708 ], [ -87.046983, 35.637467 ], [ -87.047289, 35.637187 ], [ -87.048599, 35.635984 ], [ -87.050557, 35.634653 ], [ -87.056231, 35.631644 ], [ -87.059363, 35.630092 ], [ -87.061223, 35.629764 ], [ -87.062284, 35.62778 ], [ -87.06231, 35.627708 ], [ -87.065173, 35.627209 ], [ -87.066642, 35.625711 ], [ -87.067192, 35.623592 ], [ -87.066804, 35.620752 ], [ -87.065491, 35.618631 ], [ -87.064829, 35.617524 ], [ -87.064577, 35.616523 ], [ -87.064776, 35.615727 ], [ -87.065273, 35.615104 ], [ -87.066801, 35.613623 ], [ -87.067368, 35.613073 ], [ -87.068085, 35.612364 ], [ -87.068703, 35.611573 ], [ -87.069069, 35.610919 ], [ -87.069019, 35.608931 ], [ -87.069115, 35.608926 ], [ -87.073625, 35.609234 ], [ -87.073527, 35.608819 ], [ -87.07456, 35.608196 ], [ -87.073723, 35.606785 ], [ -87.073686, 35.606355 ], [ -87.074153, 35.605986 ], [ -87.075658, 35.60592 ], [ -87.07724, 35.605948 ], [ -87.078698, 35.605965 ], [ -87.079589, 35.605825 ], [ -87.080765, 35.605461 ], [ -87.082686, 35.605624 ], [ -87.082828, 35.604604 ], [ -87.084396, 35.604505 ], [ -87.084687, 35.602476 ], [ -87.084865, 35.600736 ], [ -87.08425, 35.59717 ], [ -87.085027, 35.596775 ], [ -87.087025, 35.595632 ], [ -87.085296, 35.594489 ], [ -87.084095, 35.593477 ], [ -87.084779, 35.590217 ], [ -87.083299, 35.590076 ], [ -87.083642, 35.588657 ], [ -87.083853, 35.587144 ], [ -87.082337, 35.587006 ], [ -87.082681, 35.584359 ], [ -87.081683, 35.582743 ], [ -87.080499, 35.581315 ], [ -87.078025, 35.581236 ], [ -87.07631, 35.580849 ], [ -87.073976, 35.581026 ], [ -87.073569, 35.580245 ], [ -87.071828, 35.579986 ], [ -87.067074, 35.579486 ], [ -87.067183, 35.577039 ], [ -87.067061, 35.574908 ], [ -87.066164, 35.574821 ], [ -87.0662, 35.573758 ], [ -87.065905, 35.57373 ], [ -87.064996, 35.573636 ], [ -87.060648, 35.573363 ], [ -87.060007, 35.573541 ], [ -87.058089, 35.573094 ], [ -87.054086, 35.572604 ], [ -87.051249, 35.572332 ], [ -87.047423, 35.572013 ], [ -87.043014, 35.571743 ], [ -87.042707, 35.567138 ], [ -87.042649, 35.566722 ], [ -87.042511, 35.565715 ], [ -87.042121, 35.562625 ], [ -87.042307, 35.559491 ], [ -87.04391, 35.549862 ], [ -87.036777, 35.549155 ], [ -87.034504, 35.548608 ], [ -87.034346, 35.546584 ], [ -87.024203, 35.545354 ], [ -87.022435, 35.545491 ], [ -87.017572, 35.544981 ], [ -87.016989, 35.544921 ], [ -87.013862, 35.544615 ], [ -87.013436, 35.530697 ], [ -87.01335, 35.528795 ], [ -87.013252, 35.525243 ], [ -87.013212, 35.520335 ], [ -87.012521, 35.502434 ], [ -87.012927, 35.498481 ], [ -87.013619, 35.487288 ], [ -87.01413, 35.481153 ], [ -87.014391, 35.474761 ], [ -87.01454, 35.471514 ], [ -87.014945, 35.462323 ], [ -87.01504, 35.457827 ], [ -87.015559, 35.437239 ], [ -87.015822, 35.430302 ], [ -87.01587, 35.429191 ], [ -87.016196, 35.419512 ], [ -87.016207, 35.419164 ], [ -87.018832, 35.419883 ], [ -87.018521, 35.422035 ], [ -87.01949, 35.424005 ], [ -87.021499, 35.422724 ], [ -87.022205, 35.424371 ], [ -87.0243, 35.424985 ], [ -87.025384, 35.427295 ], [ -87.025702, 35.429525 ], [ -87.028455, 35.43141 ], [ -87.030201, 35.431846 ], [ -87.032728, 35.431709 ], [ -87.034481, 35.430836 ], [ -87.037215, 35.428734 ], [ -87.040292, 35.428248 ], [ -87.042516, 35.428611 ], [ -87.043864, 35.429447 ], [ -87.045321, 35.428413 ], [ -87.046448, 35.428538 ], [ -87.047796, 35.429599 ], [ -87.049083, 35.429145 ], [ -87.050483, 35.429368 ], [ -87.050721, 35.430707 ], [ -87.053221, 35.430732 ], [ -87.053256, 35.431667 ], [ -87.054608, 35.431769 ], [ -87.055944, 35.431129 ], [ -87.056904, 35.431654 ], [ -87.058199, 35.4314 ], [ -87.05918, 35.431354 ], [ -87.062035, 35.434598 ], [ -87.062754, 35.434077 ], [ -87.066826, 35.435463 ], [ -87.067252, 35.436569 ], [ -87.070459, 35.438283 ], [ -87.071771, 35.440383 ], [ -87.075621, 35.441003 ], [ -87.077369, 35.442191 ], [ -87.078229, 35.440627 ], [ -87.080093, 35.44121 ], [ -87.08079, 35.44236 ], [ -87.081405, 35.44282 ], [ -87.08206, 35.442683 ], [ -87.083361, 35.442107 ], [ -87.08375, 35.442918 ], [ -87.084366, 35.443191 ], [ -87.085618, 35.442727 ], [ -87.086019, 35.442728 ], [ -87.086995, 35.443427 ], [ -87.08763, 35.443509 ], [ -87.088208, 35.442883 ], [ -87.089225, 35.44257 ], [ -87.089988, 35.442539 ], [ -87.090614, 35.442379 ], [ -87.090917, 35.442163 ], [ -87.091543, 35.442115 ], [ -87.092452, 35.442284 ], [ -87.092765, 35.442164 ], [ -87.093353, 35.441554 ], [ -87.094477, 35.441967 ], [ -87.094443, 35.442601 ], [ -87.096424, 35.442843 ], [ -87.096574, 35.444222 ], [ -87.097957, 35.444331 ], [ -87.099815, 35.445353 ], [ -87.101765, 35.44569 ], [ -87.102393, 35.447651 ], [ -87.101246, 35.449614 ], [ -87.103331, 35.450451 ], [ -87.106014, 35.449574 ], [ -87.107098, 35.450512 ], [ -87.109204, 35.448996 ], [ -87.110577, 35.451024 ], [ -87.112018, 35.45119 ], [ -87.113641, 35.452356 ], [ -87.114703, 35.451731 ], [ -87.117253, 35.451723 ], [ -87.118025, 35.452379 ], [ -87.117809, 35.454554 ], [ -87.119261, 35.454333 ], [ -87.120883, 35.45566 ], [ -87.122529, 35.456061 ], [ -87.124634, 35.455194 ], [ -87.125007, 35.45515 ], [ -87.125196, 35.455199 ], [ -87.125411, 35.455256 ], [ -87.125742, 35.455159 ], [ -87.126236, 35.455063 ], [ -87.126525, 35.454932 ], [ -87.12714, 35.454944 ], [ -87.127269, 35.454976 ], [ -87.127671, 35.455046 ], [ -87.128029, 35.455269 ], [ -87.128143, 35.455429 ], [ -87.128239, 35.455593 ], [ -87.128552, 35.456004 ], [ -87.129793, 35.455101 ], [ -87.130036, 35.454025 ], [ -87.133875, 35.453161 ], [ -87.135141, 35.452502 ], [ -87.136728, 35.450751 ], [ -87.137289, 35.448729 ], [ -87.13834, 35.448365 ], [ -87.140858, 35.449231 ], [ -87.141652, 35.448411 ], [ -87.143202, 35.447433 ], [ -87.146867, 35.447635 ], [ -87.147401, 35.447102 ], [ -87.149904, 35.446918 ], [ -87.150267, 35.445738 ], [ -87.151324, 35.445906 ], [ -87.15242, 35.444986 ], [ -87.152277, 35.443518 ], [ -87.153822, 35.443112 ], [ -87.154952, 35.442289 ], [ -87.154919, 35.440757 ], [ -87.155641, 35.439826 ], [ -87.157516, 35.439312 ], [ -87.15723, 35.438396 ], [ -87.160263, 35.435371 ], [ -87.163684, 35.435055 ], [ -87.165744, 35.436923 ], [ -87.177833, 35.434341 ], [ -87.18716, 35.432279 ], [ -87.187405, 35.432223 ], [ -87.193227, 35.430902 ], [ -87.194419, 35.431124 ], [ -87.196673, 35.431511 ], [ -87.198982, 35.431907 ], [ -87.201645, 35.432363 ], [ -87.206578, 35.433207 ], [ -87.217328, 35.438403 ], [ -87.218921, 35.438777 ], [ -87.22329, 35.439801 ], [ -87.226002, 35.440436 ], [ -87.226272, 35.440408 ], [ -87.225723, 35.4337 ], [ -87.227932, 35.429332 ], [ -87.247926, 35.43302 ], [ -87.252386, 35.434147 ], [ -87.279531, 35.439252 ], [ -87.279698, 35.439283 ], [ -87.279735, 35.43929 ], [ -87.281421, 35.439599 ], [ -87.287317, 35.440677 ], [ -87.288162, 35.440832 ], [ -87.295242, 35.442128 ], [ -87.294534, 35.444676 ], [ -87.297628, 35.444997 ], [ -87.298104, 35.445082 ], [ -87.316119, 35.44666 ], [ -87.321868, 35.447211 ], [ -87.32469, 35.447482 ], [ -87.326948, 35.447699 ], [ -87.326539, 35.451367 ], [ -87.326558, 35.451388 ], [ -87.325796, 35.456415 ], [ -87.335101, 35.456073 ], [ -87.339004, 35.45593 ], [ -87.341631, 35.455796 ], [ -87.343027, 35.45575 ], [ -87.352099, 35.455354 ], [ -87.356063, 35.455155 ], [ -87.36182, 35.455859 ], [ -87.366441, 35.456842 ], [ -87.368495, 35.457296 ], [ -87.37378, 35.457849 ], [ -87.375606, 35.457856 ], [ -87.375836, 35.457856 ], [ -87.395339, 35.457852 ], [ -87.429213, 35.457846 ], [ -87.441166, 35.457844 ], [ -87.443159, 35.457844 ], [ -87.448485, 35.457844 ], [ -87.448402, 35.448799 ], [ -87.448336, 35.44141 ], [ -87.44839, 35.43282 ], [ -87.448494, 35.424724 ], [ -87.44882, 35.420622 ], [ -87.451718, 35.420629 ], [ -87.461938, 35.42066 ], [ -87.462104, 35.422208 ], [ -87.464955, 35.422286 ], [ -87.471236, 35.422459 ], [ -87.477498, 35.422632 ], [ -87.478439, 35.422658 ], [ -87.478329, 35.414719 ], [ -87.485315, 35.414728 ], [ -87.500018, 35.414554 ], [ -87.509612, 35.414679 ], [ -87.510127, 35.414428 ], [ -87.514902, 35.412107 ], [ -87.515458, 35.411403 ], [ -87.516789, 35.398389 ], [ -87.517456, 35.398212 ], [ -87.519868, 35.398362 ], [ -87.52069, 35.398477 ], [ -87.529016, 35.398556 ], [ -87.529317, 35.39856 ], [ -87.530268, 35.398573 ], [ -87.535111, 35.398635 ], [ -87.548711, 35.398583 ], [ -87.569402, 35.398484 ], [ -87.569961, 35.398481 ], [ -87.575352, 35.398454 ], [ -87.57525, 35.403907 ], [ -87.575205, 35.406308 ], [ -87.577518, 35.406419 ], [ -87.581016, 35.408085 ], [ -87.584783, 35.409142 ], [ -87.590704, 35.411561 ], [ -87.591911, 35.411577 ], [ -87.594957, 35.411628 ], [ -87.597164, 35.411723 ], [ -87.601, 35.418224 ], [ -87.601229, 35.418613 ], [ -87.605151, 35.41948 ], [ -87.608406, 35.426681 ], [ -87.608518, 35.427031 ], [ -87.607626, 35.432498 ], [ -87.607276, 35.436176 ], [ -87.61057, 35.436464 ], [ -87.625021, 35.437763 ], [ -87.632505, 35.438335 ], [ -87.632614, 35.441042 ], [ -87.635442, 35.441008 ], [ -87.641356, 35.440935 ], [ -87.645869, 35.441934 ], [ -87.646477, 35.442464 ], [ -87.646252, 35.457108 ], [ -87.646215, 35.459515 ], [ -87.646125, 35.465444 ], [ -87.646083, 35.468164 ], [ -87.645896, 35.472745 ], [ -87.648824, 35.472717 ], [ -87.657854, 35.472764 ], [ -87.661163, 35.472769 ], [ -87.673471, 35.47279 ], [ -87.683308, 35.472806 ], [ -87.686034, 35.472937 ], [ -87.686362, 35.473121 ], [ -87.698671, 35.479966 ], [ -87.698851, 35.479998 ], [ -87.704516, 35.481012 ], [ -87.71342, 35.482606 ], [ -87.713924, 35.482696 ], [ -87.717559, 35.483347 ], [ -87.72713, 35.488288 ], [ -87.733811, 35.491691 ], [ -87.742081, 35.491757 ], [ -87.745489, 35.491782 ], [ -87.747665, 35.491019 ], [ -87.752632, 35.489241 ], [ -87.764711, 35.488247 ], [ -87.781009, 35.486835 ], [ -87.803589, 35.484954 ], [ -87.807279, 35.479458 ], [ -87.807597, 35.479532 ], [ -87.80926, 35.479965 ], [ -87.81171, 35.48138 ], [ -87.814154, 35.477761 ], [ -87.815016, 35.476487 ], [ -87.817869, 35.476927 ], [ -87.822005, 35.476415 ], [ -87.823912, 35.475208 ], [ -87.825604, 35.472801 ], [ -87.826424, 35.470958 ], [ -87.827406, 35.46988 ], [ -87.829129, 35.469244 ], [ -87.829471, 35.469177 ], [ -87.835786, 35.467861 ], [ -87.846247, 35.465602 ], [ -87.847483, 35.465221 ], [ -87.858506, 35.465413 ], [ -87.858759, 35.467042 ], [ -87.859815, 35.467432 ], [ -87.860164, 35.470361 ], [ -87.860874, 35.472942 ], [ -87.860617, 35.473742 ], [ -87.862541, 35.475091 ], [ -87.864282, 35.475584 ], [ -87.864364, 35.475758 ], [ -87.864443, 35.475924 ], [ -87.864629, 35.47599 ], [ -87.864865, 35.475976 ], [ -87.864943, 35.475898 ], [ -87.865017, 35.475822 ], [ -87.865784, 35.475321 ], [ -87.867024, 35.47473 ], [ -87.867475, 35.474764 ], [ -87.867805, 35.474485 ], [ -87.867857, 35.474385 ], [ -87.867928, 35.474298 ], [ -87.868096, 35.474096 ], [ -87.868411, 35.473994 ], [ -87.868493, 35.474 ], [ -87.868718, 35.474017 ], [ -87.870261, 35.472912 ], [ -87.870679, 35.472629 ], [ -87.870791, 35.472616 ], [ -87.871015, 35.472771 ], [ -87.871113, 35.473088 ], [ -87.871224, 35.473198 ], [ -87.871435, 35.473422 ], [ -87.87162, 35.473451 ], [ -87.87187, 35.473351 ], [ -87.872091, 35.473182 ], [ -87.873178, 35.472856 ], [ -87.87359, 35.472114 ], [ -87.873478, 35.471885 ], [ -87.873404, 35.471732 ], [ -87.873445, 35.471563 ], [ -87.87377, 35.471477 ], [ -87.87385, 35.471501 ], [ -87.874094, 35.471575 ], [ -87.876039, 35.470455 ], [ -87.876346, 35.469794 ], [ -87.876251, 35.469018 ], [ -87.879079, 35.469979 ], [ -87.881428, 35.4707 ], [ -87.883704, 35.471001 ], [ -87.885115, 35.47075 ], [ -87.886947, 35.46927 ], [ -87.886547, 35.468097 ], [ -87.887531, 35.468056 ], [ -87.888159, 35.467576 ], [ -87.888266, 35.467276 ], [ -87.88834, 35.46707 ], [ -87.888827, 35.46672 ], [ -87.888951, 35.466664 ], [ -87.889005, 35.46664 ], [ -87.889259, 35.466693 ], [ -87.890819, 35.465915 ], [ -87.890811, 35.465753 ], [ -87.890883, 35.465677 ], [ -87.89104, 35.465513 ], [ -87.891435, 35.465411 ], [ -87.8916, 35.465427 ], [ -87.891866, 35.465454 ], [ -87.893434, 35.464846 ], [ -87.898654, 35.464495 ], [ -87.898951, 35.464132 ], [ -87.899035, 35.46403 ], [ -87.899345, 35.463749 ], [ -87.899692, 35.463566 ], [ -87.900152, 35.463518 ], [ -87.900409, 35.463686 ], [ -87.900505, 35.463817 ], [ -87.903013, 35.463461 ], [ -87.903102, 35.463348 ], [ -87.903169, 35.463236 ], [ -87.903243, 35.463115 ], [ -87.90353, 35.462964 ], [ -87.903867, 35.46308 ], [ -87.904127, 35.46317 ], [ -87.90579, 35.462456 ], [ -87.907838, 35.463874 ], [ -87.908207, 35.463726 ], [ -87.908532, 35.463729 ], [ -87.908665, 35.463848 ], [ -87.908662, 35.463901 ], [ -87.910428, 35.464991 ], [ -87.910602, 35.465734 ], [ -87.910639, 35.465887 ], [ -87.910825, 35.465962 ], [ -87.911087, 35.465797 ], [ -87.912655, 35.465444 ], [ -87.914207, 35.465857 ], [ -87.916106, 35.464014 ], [ -87.918944, 35.463897 ], [ -87.919018, 35.463808 ], [ -87.919133, 35.463744 ], [ -87.919272, 35.463667 ], [ -87.919422, 35.46371 ], [ -87.919843, 35.463778 ], [ -87.920088, 35.463818 ], [ -87.92135, 35.460423 ], [ -87.921746, 35.460041 ], [ -87.921855, 35.459779 ], [ -87.921891, 35.459695 ], [ -87.922025, 35.459629 ], [ -87.922448, 35.459515 ], [ -87.922541, 35.459659 ], [ -87.922587, 35.45973 ], [ -87.922615, 35.459927 ], [ -87.923798, 35.460403 ], [ -87.924037, 35.460378 ], [ -87.924724, 35.460309 ], [ -87.924743, 35.460336 ], [ -87.924886, 35.460531 ], [ -87.926338, 35.460346 ], [ -87.926776, 35.46086 ], [ -87.926437, 35.461571 ], [ -87.926374, 35.461703 ], [ -87.926678, 35.4622 ], [ -87.927452, 35.461999 ], [ -87.928592, 35.462143 ], [ -87.930086, 35.463809 ], [ -87.93136, 35.464597 ], [ -87.932058, 35.465701 ], [ -87.934313, 35.465621 ], [ -87.935847, 35.464246 ], [ -87.937228, 35.463822 ], [ -87.941643, 35.464586 ], [ -87.942812, 35.46396 ], [ -87.942797, 35.46177 ], [ -87.944017, 35.461599 ], [ -87.94616, 35.460489 ], [ -87.947251, 35.45904 ], [ -87.950001, 35.458709 ], [ -87.952092, 35.458121 ], [ -87.953314, 35.459258 ], [ -87.955263, 35.459993 ], [ -87.956631, 35.459662 ], [ -87.959179, 35.459724 ], [ -87.959305, 35.459553 ], [ -87.959364, 35.459476 ], [ -87.959603, 35.459269 ], [ -87.959822, 35.45931 ], [ -87.959917, 35.459329 ], [ -87.960028, 35.459363 ], [ -87.961468, 35.459372 ], [ -87.962805, 35.457908 ], [ -87.965427, 35.457707 ], [ -87.966856, 35.45703 ], [ -87.969244, 35.457924 ], [ -87.971384, 35.458263 ], [ -87.97318, 35.459968 ], [ -87.974369, 35.460051 ], [ -87.974931, 35.45917 ], [ -87.976926, 35.458421 ], [ -87.977697, 35.458815 ], [ -87.98071, 35.457623 ], [ -87.980703, 35.456721 ], [ -87.982252, 35.455468 ], [ -87.982872, 35.453601 ], [ -87.982667, 35.452917 ], [ -87.98441, 35.45209 ], [ -87.985645, 35.453112 ], [ -87.988168, 35.45394 ], [ -87.989305, 35.453291 ], [ -87.989695, 35.451384 ], [ -87.99054, 35.449921 ], [ -87.991349, 35.447129 ], [ -87.993225, 35.4461 ], [ -87.995738, 35.445203 ], [ -87.996247, 35.443039 ], [ -87.999947, 35.44273 ], [ -88.00057, 35.442335 ], [ -88.002635, 35.439163 ], [ -88.003487, 35.438841 ], [ -88.005169, 35.436987 ], [ -88.008723, 35.435772 ], [ -88.008612, 35.433222 ], [ -88.009577, 35.432563 ], [ -88.011668, 35.432974 ], [ -88.01268, 35.427317 ], [ -88.012591, 35.426874 ], [ -88.008817, 35.425805 ], [ -88.007891, 35.425103 ], [ -88.007709, 35.423381 ], [ -88.005253, 35.4229 ], [ -87.996801, 35.420173 ], [ -87.990302, 35.417514 ], [ -87.98784, 35.415969 ], [ -87.982906, 35.414793 ], [ -87.979636, 35.414871 ], [ -87.978573, 35.415237 ], [ -87.978042, 35.416319 ], [ -87.975184, 35.414174 ], [ -87.974314, 35.412567 ], [ -87.973414, 35.409611 ], [ -87.97366, 35.404958 ], [ -87.97486, 35.40197 ], [ -87.97516, 35.401526 ], [ -87.980472, 35.394984 ], [ -87.984553, 35.392115 ], [ -87.986732, 35.391374 ], [ -87.994202, 35.389595 ], [ -87.996149, 35.389421 ], [ -88.000029, 35.38853 ], [ -88.001175, 35.388501 ], [ -88.012546, 35.386944 ], [ -88.017055, 35.387633 ], [ -88.020232, 35.389164 ], [ -88.024741, 35.392307 ], [ -88.03031, 35.396709 ], [ -88.045614, 35.406595 ], [ -88.048111, 35.408591 ], [ -88.051905, 35.410866 ], [ -88.055689, 35.413024 ], [ -88.061042, 35.41659 ], [ -88.063228, 35.417385 ], [ -88.065809, 35.41764 ], [ -88.066765, 35.417417 ], [ -88.072161, 35.414456 ], [ -88.081107, 35.409696 ], [ -88.088366, 35.405415 ], [ -88.091415, 35.403205 ], [ -88.096623, 35.399121 ], [ -88.106281, 35.390557 ], [ -88.109466, 35.388484 ], [ -88.114464, 35.385809 ], [ -88.11675, 35.385 ], [ -88.119666, 35.384361 ], [ -88.125033, 35.383943 ], [ -88.134327, 35.384715 ], [ -88.141354, 35.385443 ], [ -88.144773, 35.386264 ], [ -88.151408, 35.389028 ], [ -88.15606, 35.390413 ], [ -88.158268, 35.391412 ], [ -88.161255, 35.392249 ], [ -88.165185, 35.392278 ], [ -88.166525, 35.392059 ], [ -88.172078, 35.390286 ], [ -88.178692, 35.387479 ], [ -88.184374, 35.38602 ], [ -88.189661, 35.384303 ], [ -88.192681, 35.382581 ], [ -88.196462, 35.379561 ] ] ] ] } }
]
}
